"name","code","latitude","longitude","elevation","postcode","units","source"
"Batley","BTL",53.710,-1.623,0,"WF17 5TA","N/A","Toby Lewis 2009"
"Bearley","BER",52.246,-1.749,0,"CV37 0EU","N/A","Toby Lewis 2009"
"Bat & Ball","BBL",51.290,0.194,0,"TN14 5AP","N/A","Toby Lewis 2009"
"Filton Abbey Wood","FIT",51.505,-2.563,0,"BS34 7JW","N/A","Toby Lewis 2009"
"Weston Milton","WNM",51.349,-2.943,0,"BS22 8PF","N/A","Toby Lewis 2009"
"Bristol Temple Meads","BRI",51.450,-2.581,0,"BS1 6QF","N/A","Toby Lewis 2009"
"Lawrence Hill","LWH",51.459,-2.564,0,"BS5 9JJ","N/A","Toby Lewis 2009"
"Stapleton Road","SRD",51.467,-2.566,0,"BS5 6NE","N/A","Toby Lewis 2009"
"Parson Street","PSN",51.433,-2.609,0,"BS3 5PU","N/A","Toby Lewis 2009"
"Nailsea & Backwell","NLS",51.419,-2.750,0,"BS48 3LH","N/A","Toby Lewis 2009"
"Yatton","YAT",51.391,-2.826,0,"BS49 4AJ","N/A","Toby Lewis 2009"
"Worle","WOR",51.358,-2.909,0,"BS22 6WA","N/A","Toby Lewis 2009"
"Severn Beach","SVB",51.560,-2.664,0,"BS35 4PQ","N/A","Toby Lewis 2009"
"Pilning","PIL",51.557,-2.628,0,"BS35 4JT","N/A","Toby Lewis 2009"
"Patchway","PWY",51.526,-2.562,0,"BS34 6LP","N/A","Toby Lewis 2009"
"Bristol Parkway","BPW",51.514,-2.543,0,"BS34 8PU","N/A","Toby Lewis 2009"
"Yate","YAE",51.541,-2.432,0,"BS37 5JF","N/A","Toby Lewis 2009"
"Cam & Dursley","CDU",51.718,-2.359,0,"GL11 5DJ","N/A","Toby Lewis 2009"
"Keynsham","KYN",51.418,-2.497,0,"BS31 2BN","N/A","Toby Lewis 2009"
"Bath Spa","BTH",51.378,-2.357,0,"BA1 1SU","N/A","Toby Lewis 2009"
"Oldfield Park","OLF",51.379,-2.380,0,"BA2 3RS","N/A","Toby Lewis 2009"
"Sea Mills","SML",51.480,-2.649,0,"BS9 1SU","N/A","Toby Lewis 2009"
"Shirehampton","SHH",51.484,-2.680,0,"BS11 9XA","N/A","Toby Lewis 2009"
"Avonmouth","AVN",51.500,-2.699,0,"BS11 9JB","N/A","Toby Lewis 2009"
"St Andrews Road","SAR",51.513,-2.696,0,"BS11 9HS","N/A","Toby Lewis 2009"
"Redland","RDA",51.468,-2.599,0,"BS6 6QP","N/A","Toby Lewis 2009"
"Clifton Down","CFN",51.465,-2.611,0,"BS8 2PN","N/A","Toby Lewis 2009"
"Montpelier","MTP",51.468,-2.589,0,"BS6 5EE","N/A","Toby Lewis 2009"
"Weston-super-Mare","WSM",51.345,-2.972,0,"BS23 1XY","N/A","Toby Lewis 2009"
"Bedminster","BMT",51.440,-2.595,0,"BS3 4LU","N/A","Toby Lewis 2009"
"Malvern Link","MVL",52.126,-2.319,0,"WR14 1SW","N/A","Toby Lewis 2009"
"Great Malvern","GMV",52.109,-2.318,0,"WR14 3AL","N/A","Toby Lewis 2009"
"Worcester Foregate Street","WOF",52.195,-2.221,0,"WR1 1DB","N/A","Toby Lewis 2009"
"Worcester Shrub Hill","WOS",52.194,-2.209,0,"WR4 9EJ","N/A","Toby Lewis 2009"
"Ashchurch for Tewkesbury","ASC",51.998,-2.109,0,"GL20 8HG","N/A","Toby Lewis 2009"
"Cheltenham Spa","CNM",51.898,-2.100,0,"GL51 8NP","N/A","Toby Lewis 2009"
"Gloucester","GCR",51.866,-2.238,0,"GL1 1DE","N/A","Toby Lewis 2009"
"Birmingham New Street","BHM",52.478,-1.899,0,,"N/A","Toby Lewis 2009"
"Cardiff Central","CDF",51.476,-3.180,0,"CF10 1EP","N/A","Toby Lewis 2009"
"Newport (Wales)","NWP",51.590,-2.999,0,"NP20 4AX","N/A","Toby Lewis 2009"
"Severn Tunnel Junction","STJ",51.584,-2.777,0,"NP26 3SP","N/A","Toby Lewis 2009"
"Bridgwater","BWT",51.128,-2.991,0,"TA6 5HB","N/A","Toby Lewis 2009"
"Taunton","TAU",51.023,-3.103,0,"TA1 1QP","N/A","Toby Lewis 2009"
"Exeter St David's","EXD",50.729,-3.543,0,"EX4 4NT","N/A","Toby Lewis 2009"
"Tiverton Parkway","TVP",50.917,-3.360,0,"EX15 2QQ","N/A","Toby Lewis 2009"
"Weymouth","WEY",50.616,-2.455,0,"DT4 7BN","N/A","Toby Lewis 2009"
"Upwey","UPW",50.648,-2.466,0,"DT3 5RB","N/A","Toby Lewis 2009"
"Dorchester West","DCW",50.711,-2.443,0,"DT1 2LB","N/A","Toby Lewis 2009"
"Maiden Newton","MDN",50.780,-2.570,0,"DT2 0AE","N/A","Toby Lewis 2009"
"Yetminster","YET",50.896,-2.574,0,"DT9 6LH","N/A","Toby Lewis 2009"
"Chetnole","CNO",50.867,-2.574,0,"DT9 6EP","N/A","Toby Lewis 2009"
"Thornford","THO",50.911,-2.579,0,"DT9 6PT","N/A","Toby Lewis 2009"
"Yeovil Pen Mill","YVP",50.945,-2.613,0,"BA21 5DD","N/A","Toby Lewis 2009"
"Frome","FRO",51.227,-2.310,0,"BA11 1RE","N/A","Toby Lewis 2009"
"Bruton","BRU",51.112,-2.447,0,"BA10 0EH","N/A","Toby Lewis 2009"
"Castle Cary","CLC",51.100,-2.522,0,"BA7 7PE","N/A","Toby Lewis 2009"
"Westbury","WSB",51.266,-2.199,0,"BA13 4HP","N/A","Toby Lewis 2009"
"Trowbridge","TRO",51.320,-2.215,0,"BA14 8HW","N/A","Toby Lewis 2009"
"Bradford-on-Avon","BOA",51.345,-2.253,0,"BA15 1DF","N/A","Toby Lewis 2009"
"Freshford","FFD",51.342,-2.301,0,"BA2 7WQ","N/A","Toby Lewis 2009"
"Avoncliff","AVF",51.340,-2.282,0,"BA15 2HD","N/A","Toby Lewis 2009"
"Dilton Marsh","DMH",51.249,-2.208,0,"BA13 4DF","N/A","Toby Lewis 2009"
"Warminster","WMN",51.207,-2.177,0,"BA12 9BP","N/A","Toby Lewis 2009"
"Salisbury","SAL",51.070,-1.806,0,"SP2 7RS","N/A","Toby Lewis 2009"
"Dean","DEN",51.042,-1.635,0,"SP5 1JF","N/A","Toby Lewis 2009"
"Mottisfont & Dunbridge","DBG",51.034,-1.547,0,"SO51 0LH","N/A","Toby Lewis 2009"
"Romsey","ROM",50.993,-1.494,0,"SO51 8DU","N/A","Toby Lewis 2009"
"Southampton Central","SOU",50.907,-1.414,0,"SO15 1AL","N/A","Toby Lewis 2009"
"Fareham","FRM",50.853,-1.192,0,"PO14 1NP","N/A","Toby Lewis 2009"
"Cosham","CSA",50.842,-1.067,0,"PO6 3BD","N/A","Toby Lewis 2009"
"Fratton","FTN",50.796,-1.076,0,"PO1 5AW","N/A","Toby Lewis 2009"
"Portsmouth & Southsea","PMS",50.798,-1.092,0,"PO1 1EQ","N/A","Toby Lewis 2009"
"Portsmouth Harbour","PMH",50.797,-1.107,0,"PO1 3EB","N/A","Toby Lewis 2009"
"Havant","HAV",50.854,-0.981,0,"PO9 1PP","N/A","Toby Lewis 2009"
"Chichester","CCH",50.832,-0.787,0,"PO19 8DL","N/A","Toby Lewis 2009"
"Barnham","BAA",50.831,-0.641,0,"PO22 0ES","N/A","Toby Lewis 2009"
"Worthing","WRH",50.819,-0.376,0,"BN11 1UR","N/A","Toby Lewis 2009"
"Shoreham-by-Sea","SSE",50.834,-0.272,0,"BN43 5WX","N/A","Toby Lewis 2009"
"Hove","HOV",50.835,-0.171,0,"BN3 3RU","N/A","Toby Lewis 2009"
"Brighton","BTN",50.829,-0.141,0,"BN1 3XP","N/A","Toby Lewis 2009"
"Bridgend","BGN",51.507,-3.575,0,"CF31 1BN","N/A","Toby Lewis 2009"
"Port Talbot Parkway","PTA",51.592,-3.781,0,"SA13 1UR","N/A","Toby Lewis 2009"
"Swansea","SWA",51.625,-3.941,0,"SA1 1NU","N/A","Toby Lewis 2009"
"Chippenham","CPM",51.463,-2.115,0,"SN15 3QE","N/A","Toby Lewis 2009"
"Swindon","SWI",51.565,-1.785,0,"SN1 1DQ","N/A","Toby Lewis 2009"
"Didcot Parkway","DID",51.611,-1.243,0,"OX11 7NR","N/A","Toby Lewis 2009"
"Reading","RDG",51.459,-0.972,0,"RG1 1LZ","N/A","Toby Lewis 2009"
"Slough","SLO",51.512,-0.592,0,"SL1 1XW","N/A","Toby Lewis 2009"
"London Paddington","PAD",51.517,-0.177,0,,"N/A","Toby Lewis 2009"
"Kemble","KEM",51.677,-2.023,0,"GL7 6AW","N/A","Toby Lewis 2009"
"Stroud (Glos)","STD",51.745,-2.219,0,"GL5 3AP","N/A","Toby Lewis 2009"
"Highbridge & Burnham","HIG",51.218,-2.972,0,"TA9 3BT","N/A","Toby Lewis 2009"
"Neath","NTH",51.662,-3.807,0,"SA11 1BY","N/A","Toby Lewis 2009"
"Basildon","BSO",51.568,0.457,0,"SS16 5XY","N/A","Toby Lewis 2009"
"Aviemore","AVM",57.188,-3.829,0,"PH22 1PD","N/A","Toby Lewis 2009"
"Melksham","MKM",51.380,-2.144,0,"SN12 8BN","N/A","Toby Lewis 2009"
"Barton-on-Humber","BAU",53.689,-0.443,0,"DN18 5SJ","N/A","Toby Lewis 2009"
"Anderston","AND",55.860,-4.271,0,,"N/A","Toby Lewis 2009"
"Andover","ADV",51.212,-1.492,0,"SP10 3HN","N/A","Toby Lewis 2009"
"Anerley","ANZ",51.412,-0.065,0,"SE20 8AG","N/A","Toby Lewis 2009"
"Angel Road","AGR",51.612,-0.049,0,,"N/A","Toby Lewis 2009"
"Angmering","ANG",50.817,-0.489,0,"BN16 3RE","N/A","Toby Lewis 2009"
"Annan","ANN",54.984,-3.262,0,"DS12 6AR","N/A","Toby Lewis 2009"
"Ancaster","ANC",52.988,-0.535,0,"NG32 3RA","N/A","Toby Lewis 2009"
"Amberley","AMY",50.896,-0.543,0,"BN18 9LR","N/A","Toby Lewis 2009"
"Amersham","AMR",51.674,-0.607,0,"HP6 5AZ","N/A","Toby Lewis 2009"
"Ammanford","AMF",51.796,-3.997,0,"SA18 2DD","N/A","Toby Lewis 2009"
"Altrincham","ALT",53.387,-2.348,0,"WA14 1EN","N/A","Toby Lewis 2009"
"Alvechurch","ALV",52.347,-1.967,0,,"N/A","Toby Lewis 2009"
"Ambergate","AMB",53.060,-1.481,0,"DE56 2EN","N/A","Toby Lewis 2009"
"Altnabreac","ABC",58.388,-3.705,0,"KW12 6UR","N/A","Toby Lewis 2009"
"Alton","AON",51.152,-0.967,0,"GU34 2PZ","N/A","Toby Lewis 2009"
"Alton Towers","ATW",52.992,-1.892,0,,"N/A","Toby Lewis 2009"
"Alresford","ALR",51.854,0.997,0,"CO7 8AA","N/A","Toby Lewis 2009"
"Alsager","ASG",53.093,-2.299,0,"ST7 2XW","N/A","Toby Lewis 2009"
"Althorne","ALN",51.648,0.753,0,"CM3 6DG","N/A","Toby Lewis 2009"
"Althorpe","ALP",53.586,-0.733,0,"DN17 3HL","N/A","Toby Lewis 2009"
"Alness","ASS",57.695,-4.249,0,"IV17 0SE","N/A","Toby Lewis 2009"
"Alnmouth","ALM",55.393,-1.637,0,"NE66 2ST","N/A","Toby Lewis 2009"
"Aldermaston","AMT",51.402,-1.139,0,"RG7 6PU","N/A","Toby Lewis 2009"
"Aldershot","AHT",51.246,-0.760,0,"GU11 1HN","N/A","Toby Lewis 2009"
"Aldrington","AGT",50.836,-0.182,0,"BN3 5AE","N/A","Toby Lewis 2009"
"Alexandra Palace","AAP",51.598,-0.120,0,,"N/A","Toby Lewis 2009"
"Alexandra Parade","AXP",55.863,-4.211,0,,"N/A","Toby Lewis 2009"
"Alexandria","ALX",55.985,-4.577,0,,"N/A","Toby Lewis 2009"
"Alfreton","ALF",53.101,-1.370,0,"DE5 7QJ","N/A","Toby Lewis 2009"
"Allens West","ALW",54.525,-1.361,0,"TS16 0PF","N/A","Toby Lewis 2009"
"Alderley Edge","ALD",53.304,-2.237,0,"SK9 7QA","N/A","Toby Lewis 2009"
"Airbles","AIR",55.782,-3.994,0,"ML1 2SX","N/A","Toby Lewis 2009"
"Airdrie","ADR",55.864,-3.983,0,"ML6 9EX","N/A","Toby Lewis 2009"
"Albany Park","AYP",51.436,0.127,0,"DA5 3HP","N/A","Toby Lewis 2009"
"Albrighton","ALB",52.638,-2.269,0,"WV7 3DS","N/A","Toby Lewis 2009"
"Barry Links","BYL",56.493,-2.746,0,"DD7 7IG","N/A","Toby Lewis 2009"
"Barry Island","BYI",51.392,-3.275,0,"CF62 5TH","N/A","Toby Lewis 2009"
"Barry Docks","BYD",51.402,-3.263,0,"CF63 4LE","N/A","Toby Lewis 2009"
"Barry","BRY",51.397,-3.285,0,"CF62 8AF","N/A","Toby Lewis 2009"
"Barrow-in-Furness","BIF",54.119,-3.226,0,"LA14 5QZ","N/A","Toby Lewis 2009"
"Barrow Upon Soar","BWS",52.749,-1.145,0,"LE12 8US","N/A","Toby Lewis 2009"
"Barrow Haven","BAV",53.697,-0.393,0,"DN19 7ET","N/A","Toby Lewis 2009"
"Barrhill","BRL",55.096,-4.781,0,"KA26 0QF","N/A","Toby Lewis 2009"
"Barnt Green","BTG",52.362,-1.992,0,,"N/A","Toby Lewis 2009"
"Barrhead","BRR",55.804,-4.397,0,,"N/A","Toby Lewis 2009"
"Barnstaple","BNP",51.074,-4.063,0,"EX31 2AU","N/A","Toby Lewis 2009"
"Barnsley","BNY",53.555,-1.478,0,,"N/A","Toby Lewis 2009"
"Barnhill","BNL",55.878,-4.223,0,,"N/A","Toby Lewis 2009"
"Barnetby","BTB",53.575,-0.410,0,"DN38 6DG","N/A","Toby Lewis 2009"
"Barnes Bridge","BNI",51.472,-0.253,0,"SW13 0NP","N/A","Toby Lewis 2009"
"Barnes","BNS",51.467,-0.242,0,"SW13 0HT","N/A","Toby Lewis 2009"
"Barnehurst","BNH",51.465,0.160,0,"DA7 6HQ","N/A","Toby Lewis 2009"
"Barmouth","BRM",52.722,-4.057,0,"LL42 1LS","N/A","Toby Lewis 2009"
"Barming","BMG",51.285,0.479,0,"ME16 9NS","N/A","Toby Lewis 2009"
"Barlaston Orchard Place","BPL",52.942,-2.172,0,,"N/A","Toby Lewis 2009"
"Barlaston","BRT",52.942,-2.168,0,"ST12 9DQ","N/A","Toby Lewis 2009"
"Barking","BKG",51.539,0.081,0,"IG11 8TU","N/A","Toby Lewis 2009"
"Bargoed","BGD",51.693,-3.230,0,"CF81 9AL","N/A","Toby Lewis 2009"
"Bargeddie","BGI",55.851,-4.073,0,,"N/A","Toby Lewis 2009"
"Bare Lane","BAR",54.075,-2.836,0,"LA4 6LL","N/A","Toby Lewis 2009"
"Bardon Mill","BLL",54.975,-2.345,0,"NE47 7HY","N/A","Toby Lewis 2009"
"Barbican","ZBB",51.520,-0.098,0,,"N/A","Toby Lewis 2009"
"Barassie","BSS",55.561,-4.651,0,"KA10 6SA","N/A","Toby Lewis 2009"
"Banstead","BAD",51.329,-0.213,0,"SM7 1PZ","N/A","Toby Lewis 2009"
"Bank Hall","BAH",53.438,-2.988,0,,"N/A","Toby Lewis 2009"
"Bangor","BNG",53.223,-4.135,0,"LL57 1LZ","N/A","Toby Lewis 2009"
"Banbury","BAN",52.060,-1.328,0,"OX16 8AB","N/A","Toby Lewis 2009"
"Banavie","BNV",56.844,-5.096,0,"PH33 7JF","N/A","Toby Lewis 2009"
"Bamford","BAM",53.339,-1.689,0,,"N/A","Toby Lewis 2009"
"Bamber Bridge","BMB",53.727,-2.661,0,"PR5 6EA","N/A","Toby Lewis 2009"
"Balmossie","BSI",56.475,-2.839,0,"DD5 4QH","N/A","Toby Lewis 2009"
"Balloch","BHC",56.003,-4.583,0,,"N/A","Toby Lewis 2009"
"Balham","BAL",51.443,-0.152,0,"SW12 9SG","N/A","Toby Lewis 2009"
"Baldock","BDK",51.993,-0.187,0,"SG7 5BU","N/A","Toby Lewis 2009"
"Balcombe","BAB",51.056,-0.137,0,"RH17 6JQ","N/A","Toby Lewis 2009"
"Baildon","BLD",53.850,-1.754,0,"BD17 6HS","N/A","Toby Lewis 2009"
"Baillieston","BIO",55.845,-4.114,0,,"N/A","Toby Lewis 2009"
"Bagshot","BAG",51.365,-0.688,0,"GU19 5AS","N/A","Toby Lewis 2009"
"Baglan","BAJ",51.615,-3.810,0,"SA12 8ES","N/A","Toby Lewis 2009"
"Bache","BAC",53.208,-2.892,0,"CH2 1BS","N/A","Toby Lewis 2009"
"Ayr","AYR",55.458,-4.626,0,"KA7 1TH","N/A","Toby Lewis 2009"
"Aylesford","AYL",51.302,0.467,0,"ME20 7LL","N/A","Toby Lewis 2009"
"Aylesham","AYH",51.227,1.210,0,"TN23 1EZ","N/A","Toby Lewis 2009"
"Aylesbury","AYS",51.814,-0.815,0,"HP20 1RU","N/A","Toby Lewis 2009"
"Axminster","AXM",50.779,-3.005,0,"EX13 5PF","N/A","Toby Lewis 2009"
"Aughton Park","AUG",53.554,-2.895,0,,"N/A","Toby Lewis 2009"
"Audley End","AUD",52.004,0.207,0,"CB11 4LB","N/A","Toby Lewis 2009"
"Auchinleck","AUK",55.470,-4.296,0,"KA18 2BH","N/A","Toby Lewis 2009"
"Attleborough","ATL",52.515,1.022,0,"NR17 2AS","N/A","Toby Lewis 2009"
"Attenborough","ATB",52.906,-1.232,0,"NG9 6AL","N/A","Toby Lewis 2009"
"Attadale","ATT",57.394,-5.456,0,"IV54 8YX","N/A","Toby Lewis 2009"
"Abbey Wood","ABW",51.491,0.120,0,"SE2 9RH","N/A","Toby Lewis 2009"
"Aber","ABE",51.576,-3.231,0,,"N/A","Toby Lewis 2009"
"Abercynon North","ABR",51.645,-3.327,0,,"N/A","Toby Lewis 2009"
"Abercynon","ACY",51.645,-3.327,0,"CF45 4SE","N/A","Toby Lewis 2009"
"Aberdare","ABA",51.715,-3.441,0,"CF44 0PU","N/A","Toby Lewis 2009"
"Aberdeen","ABD",57.143,-2.099,0,"AB11 6LX","N/A","Toby Lewis 2009"
"Aberdour","AUR",56.054,-3.301,0,"KY3 0SN","N/A","Toby Lewis 2009"
"Aberdovey","AVY",52.544,-4.056,0,"LL35 0NR","N/A","Toby Lewis 2009"
"Abererch","ABH",52.898,-4.375,0,"LL53 6PJ","N/A","Toby Lewis 2009"
"Abergavenny","AGV",51.818,-3.009,0,"NP7 5HS","N/A","Toby Lewis 2009"
"Abergele & Pensarn","AGL",53.295,-3.582,0,"LL22 7PR","N/A","Toby Lewis 2009"
"Aberystwyth","AYW",52.414,-4.081,0,"SY23 1LH","N/A","Toby Lewis 2009"
"Accrington","ACR",53.753,-2.370,0,"BB5 1QQ","N/A","Toby Lewis 2009"
"Achanalt","AAT",57.610,-4.913,0,,"N/A","Toby Lewis 2009"
"Achnasheen","ACN",57.580,-5.072,0,"IV22 2EJ","N/A","Toby Lewis 2009"
"Achnashellach","ACH",57.482,-5.333,0,"IV54 8YH","N/A","Toby Lewis 2009"
"Acklington","ACK",55.307,-1.652,0,"NE65 4DE","N/A","Toby Lewis 2009"
"Acle","ACL",52.635,1.543,0,"NR13 3BZ","N/A","Toby Lewis 2009"
"Acocks Green","ACG",52.450,-1.820,0,,"N/A","Toby Lewis 2009"
"Acton Bridge","ACB",53.267,-2.603,0,"CW8 2RE","N/A","Toby Lewis 2009"
"Acton Central","ACC",51.509,-0.263,0,,"N/A","Toby Lewis 2009"
"Acton Main Line","AML",51.517,-0.267,0,,"N/A","Toby Lewis 2009"
"Adderley Park","ADD",52.483,-1.855,0,,"N/A","Toby Lewis 2009"
"Addiewell","ADW",55.844,-3.606,0,"EH55 8NQ","N/A","Toby Lewis 2009"
"Addlestone","ASN",51.373,-0.484,0,"KT15 2PB","N/A","Toby Lewis 2009"
"Adisham","ADM",51.241,1.199,0,"CT3 3JE","N/A","Toby Lewis 2009"
"Adlington (Cheshire)","ADC",53.320,-2.134,0,"SK10 4NA","N/A","Toby Lewis 2009"
"Adlington (Lancashire)","ADL",53.613,-2.603,0,"PR8 9RS","N/A","Toby Lewis 2009"
"Adwick","AWK",53.572,-1.180,0,"DN6 7AJ","N/A","Toby Lewis 2009"
"Aigburth","AIG",53.365,-2.927,0,,"N/A","Toby Lewis 2009"
"Ainsdale","ANS",53.602,-3.043,0,"PR8 3HJ","N/A","Toby Lewis 2009"
"Aintree","AIN",53.474,-2.956,0,,"N/A","Toby Lewis 2009"
"Atherton","ATN",53.529,-2.479,0,,"N/A","Toby Lewis 2009"
"Atherstone","ATH",52.578,-1.552,0,"CV9 1BH","N/A","Toby Lewis 2009"
"Aston","AST",52.504,-1.872,0,,"N/A","Toby Lewis 2009"
"Aspley Guise","APG",52.021,-0.633,0,"MK17 8HZ","N/A","Toby Lewis 2009"
"Aspatria","ASP",54.759,-3.332,0,"CA7 2AW","N/A","Toby Lewis 2009"
"Aslockton","ALK",52.952,-0.898,0,"NG13 9AA","N/A","Toby Lewis 2009"
"Askam","ASK",54.189,-3.205,0,"LA16 7EN","N/A","Toby Lewis 2009"
"Ashwell & Morden","AWM",52.031,-0.110,0,"SG7 5RT","N/A","Toby Lewis 2009"
"Ashurst New Forest","ANF",50.890,-1.527,0,"SO40 7AA","N/A","Toby Lewis 2009"
"Ashurst (Kent)","AHS",51.130,0.153,0,"TN3 9TL","N/A","Toby Lewis 2009"
"Ashton-under-Lyne","AHN",53.491,-2.094,0,"OL7 5LP","N/A","Toby Lewis 2009"
"Ashtead","AHD",51.318,-0.308,0,"KT21 2DR","N/A","Toby Lewis 2009"
"Ashley","ASY",53.355,-2.341,0,"WA14 3QE","N/A","Toby Lewis 2009"
"Ashford International","ASI",51.143,0.875,0,"TN24 0PS","N/A","Toby Lewis 2009"
"Ashford (Surrey)","AFS",51.436,-0.468,0,"TW15 2QN","N/A","Toby Lewis 2009"
"Ashfield","ASF",55.889,-4.249,0,,"N/A","Toby Lewis 2009"
"Ashburys","ABY",53.472,-2.195,0,,"N/A","Toby Lewis 2009"
"Ash Vale","AHV",51.272,-0.722,0,"GU12 5LP","N/A","Toby Lewis 2009"
"Ash","ASH",51.250,-0.712,0,"GU12 6BE","N/A","Toby Lewis 2009"
"Ascott-under-Wychwood","AUW",51.867,-1.564,0,"OX3 5LP","N/A","Toby Lewis 2009"
"Ascot","ACT",51.406,-0.676,0,"SL5 9EG","N/A","Toby Lewis 2009"
"Arrochar & Tarbet","ART",56.203,-4.724,0,,"N/A","Toby Lewis 2009"
"Arundel","ARU",50.848,-0.547,0,"BN18 9PH","N/A","Toby Lewis 2009"
"Arram","ARR",53.884,-0.426,0,"HU17 7NR","N/A","Toby Lewis 2009"
"Arnside","ARN",54.203,-2.828,0,"LA5 0HQ","N/A","Toby Lewis 2009"
"Armathwaite","AWT",54.809,-2.772,0,"CA8 1HW","N/A","Toby Lewis 2009"
"Arlesey","ARL",52.026,-0.266,0,"SG15 6XA","N/A","Toby Lewis 2009"
"Arisaig","ARG",56.913,-5.840,0,"PH39 4NJ","N/A","Toby Lewis 2009"
"Argyle Street","AGS",55.858,-4.250,0,,"N/A","Toby Lewis 2009"
"Ardwick","ADK",53.471,-2.213,0,,"N/A","Toby Lewis 2009"
"Ardrossan Town","ADN",55.640,-4.813,0,"KA22 8DU","N/A","Toby Lewis 2009"
"Ardrossan South Beach","ASB",55.641,-4.801,0,"KA22 8AU","N/A","Toby Lewis 2009"
"Ardrossan Harbour","ADS",55.640,-4.821,0,"KA22 8BH","N/A","Toby Lewis 2009"
"Ardlui","AUI",56.302,-4.721,0,"GH3 7EB","N/A","Toby Lewis 2009"
"Ardgay","ARD",57.881,-4.362,0,"IV24 3AQ","N/A","Toby Lewis 2009"
"Arbroath","ARB",56.559,-2.589,0,"DD11 1RQ","N/A","Toby Lewis 2009"
"Apsley","APS",51.733,-0.463,0,"HP3 9SX","N/A","Toby Lewis 2009"
"Appley Bridge","APB",53.579,-2.719,0,"WN6 9AE","N/A","Toby Lewis 2009"
"Appledore","APD",51.034,0.817,0,"TN26 2DF","N/A","Toby Lewis 2009"
"Appleford","APF",51.640,-1.242,0,"OX14 4PJ","N/A","Toby Lewis 2009"
"Appleby","APP",54.580,-2.487,0,"CA16 6TT","N/A","Toby Lewis 2009"
"Ansdell & Fairhaven","AFV",53.742,-2.993,0,"FY8 1AG","N/A","Toby Lewis 2009"
"Anniesland","ANL",55.890,-4.322,0,,"N/A","Toby Lewis 2009"
"Bathgate","BHG",55.899,-3.641,0,"EH48 1AZ","N/A","Toby Lewis 2009"
"Basingstoke","BSK",51.268,-1.087,0,"RG21 5NE","N/A","Toby Lewis 2009"
"Battersby","BTT",54.457,-1.094,0,"TS9 6LT","N/A","Toby Lewis 2009"
"Battersea Park","BAK",51.477,-0.148,0,"SW8 4LJ","N/A","Toby Lewis 2009"
"Beaconsfield","BCF",51.612,-0.643,0,"HP9 2PJ","N/A","Toby Lewis 2009"
"Bayford","BAY",51.758,-0.096,0,"SG13 8PH","N/A","Toby Lewis 2009"
"Battlesbridge","BLB",51.625,0.566,0,"SS11 7RG","N/A","Toby Lewis 2009"
"Battle","BAT",50.913,0.495,0,"TN33 0DE","N/A","Toby Lewis 2009"
"Bearsden","BRN",55.917,-4.333,0,,"N/A","Toby Lewis 2009"
"Bearsted","BSD",51.276,0.578,0,"ME14 4PH","N/A","Toby Lewis 2009"
"Beasdale","BSL",56.900,-5.764,0,,"N/A","Toby Lewis 2009"
"Beaulieu Road","BEU",50.855,-1.505,0,"SO42 7YQ","N/A","Toby Lewis 2009"
"Beauly","BEL",57.478,-4.470,0,"IV4 7EF","N/A","Toby Lewis 2009"
"Bebington","BEB",53.358,-3.003,0,"CH63 7LA","N/A","Toby Lewis 2009"
"Beccles","BCC",52.458,1.569,0,"NR34 9QJ","N/A","Toby Lewis 2009"
"Beckenham Hill","BEC",51.425,-0.016,0,"SE6 3RE","N/A","Toby Lewis 2009"
"Beckenham Junction","BKJ",51.411,-0.026,0,"BR3 1HY","N/A","Toby Lewis 2009"
"Bedford","BDM",52.136,-0.479,0,"MK40 1DR","N/A","Toby Lewis 2009"
"Bedford St Johns","BSJ",52.130,-0.467,0,"MK42 9BT","N/A","Toby Lewis 2009"
"Bedhampton","BDH",50.854,-0.996,0,"PO9 1LL","N/A","Toby Lewis 2009"
"Bedworth","BEH",52.479,-1.467,0,"CV12 8JG","N/A","Toby Lewis 2009"
"Bedwyn","BDW",51.380,-1.599,0,"SN8 5RD","N/A","Toby Lewis 2009"
"Beeston","BEE",52.921,-1.208,0,"NG9 1JU","N/A","Toby Lewis 2009"
"Bekesbourne","BKS",51.261,1.137,0,"CT4 5EP","N/A","Toby Lewis 2009"
"Belle Vue","BLV",53.462,-2.180,0,,"N/A","Toby Lewis 2009"
"Bellgrove","BLG",55.857,-4.224,0,,"N/A","Toby Lewis 2009"
"Bellingham","BGM",51.433,-0.020,0,"SE6 3BT","N/A","Toby Lewis 2009"
"Bellshill","BLH",55.817,-4.025,0,"ML4 1RJ","N/A","Toby Lewis 2009"
"Belmont","BLM",51.344,-0.199,0,"SM2 6BH","N/A","Toby Lewis 2009"
"Belper","BLP",53.024,-1.483,0,"DE56 1DA","N/A","Toby Lewis 2009"
"Beltring","BEG",51.205,0.403,0,"TN12 6QH","N/A","Toby Lewis 2009"
"Belvedere","BVD",51.492,0.152,0,"DA17 6JJ","N/A","Toby Lewis 2009"
"Bempton","BEM",54.128,-0.181,0,"YO16 5XG","N/A","Toby Lewis 2009"
"Ben Rhydding","BEY",53.926,-1.798,0,"LS29 8ET","N/A","Toby Lewis 2009"
"Benfleet","BEF",51.544,0.562,0,"SS7 1NF","N/A","Toby Lewis 2009"
"Bentham","BEN",54.115,-2.510,0,"LH2 7LJ","N/A","Toby Lewis 2009"
"Bentley (Hants)","BTY",51.181,-0.868,0,"GU10 5JZ","N/A","Toby Lewis 2009"
"Bentley (South Yorkshire)","BYK",53.544,-1.151,0,"DN5 0BE","N/A","Toby Lewis 2009"
"Bere Alston","BAS",50.485,-4.200,0,"PL20 7EP","N/A","Toby Lewis 2009"
"Bere Ferrers","BFE",50.451,-4.181,0,"PL20 7JS","N/A","Toby Lewis 2009"
"Berkhamsted","BKM",51.763,-0.562,0,"HP4 2AJ","N/A","Toby Lewis 2009"
"Berkswell","BKW",52.396,-1.642,0,"CV7 7EF","N/A","Toby Lewis 2009"
"Berney Arms","BYA",52.590,1.630,0,"NR30 1SB","N/A","Toby Lewis 2009"
"Berry Brow","BBW",53.621,-1.794,0,"HD4 7LP","N/A","Toby Lewis 2009"
"Berrylands","BRS",51.399,-0.281,0,"KT5 8LS","N/A","Toby Lewis 2009"
"Berwick (Sussex)","BRK",50.840,0.165,0,"BN26 6TB","N/A","Toby Lewis 2009"
"Berwick-upon-Tweed","BWK",55.774,-2.011,0,"TD15 1NF","N/A","Toby Lewis 2009"
"Bescar Lane","BES",53.624,-2.915,0,,"N/A","Toby Lewis 2009"
"Bescot Stadium","BSC",52.563,-1.991,0,"WS1 4NH","N/A","Toby Lewis 2009"
"Betchworth","BTO",51.248,-0.268,0,"RH3 2AD","N/A","Toby Lewis 2009"
"Bethnal Green","BET",51.524,-0.060,0,,"N/A","Toby Lewis 2009"
"Betws-y-Coed","BYC",53.093,-3.801,0,"LL24 0AE","N/A","Toby Lewis 2009"
"Beverley","BEV",53.842,-0.423,0,"HU17 0AS","N/A","Toby Lewis 2009"
"Bexhill","BEX",50.841,0.477,0,"TN40 1EB","N/A","Toby Lewis 2009"
"Bexley","BXY",51.440,0.148,0,"DA5 1AQ","N/A","Toby Lewis 2009"
"Bexleyheath","BXH",51.464,0.133,0,"DA7 4AA","N/A","Toby Lewis 2009"
"Bicester North","BCS",51.903,-1.151,0,"OX26 6EF","N/A","Toby Lewis 2009"
"Bicester Town","BIT",51.893,-1.149,0,"OX26 6HU","N/A","Toby Lewis 2009"
"Bickley","BKL",51.400,0.045,0,"BR1 2EB","N/A","Toby Lewis 2009"
"Bidston","BID",53.409,-3.078,0,"CH43 7RF","N/A","Toby Lewis 2009"
"Biggleswade","BIW",52.085,-0.262,0,"SG18 8AL","N/A","Toby Lewis 2009"
"Bilbrook","BBK",52.624,-2.186,0,"WV8 1LE","N/A","Toby Lewis 2009"
"Billericay","BIC",51.629,0.418,0,"CM12 0BP","N/A","Toby Lewis 2009"
"Billingham","BIL",54.606,-1.280,0,"TS23 3TG","N/A","Toby Lewis 2009"
"Billingshurst","BIG",51.015,-0.450,0,"RH14 9SE","N/A","Toby Lewis 2009"
"Bingham","BIN",52.954,-0.951,0,"NG13 8TF","N/A","Toby Lewis 2009"
"Bingley","BIY",53.849,-1.838,0,"BD16 2NA","N/A","Toby Lewis 2009"
"Birchgrove","BCG",51.522,-3.202,0,"CF14 4SY","N/A","Toby Lewis 2009"
"Birchington-on-sea","BCH",51.378,1.301,0,"CT7 9RD","N/A","Toby Lewis 2009"
"Birchwood","BWD",53.413,-2.525,0,"WA3 6NZ","N/A","Toby Lewis 2009"
"Birkbeck","BIK",51.403,-0.057,0,"BR3 4TA","N/A","Toby Lewis 2009"
"Birkdale","BDL",53.634,-3.014,0,"PR8 4AF","N/A","Toby Lewis 2009"
"Birkenhead Central","BKC",53.388,-3.021,0,"CH41 9DB","N/A","Toby Lewis 2009"
"Hamilton Square","BKQ",53.395,-3.014,0,"CH41 1AL","N/A","Toby Lewis 2009"
"Birkenhead North","BKN",53.404,-3.058,0,"CH41 7AZ","N/A","Toby Lewis 2009"
"Birkenhead Park","BKP",53.397,-3.040,0,"CH41 8BT","N/A","Toby Lewis 2009"
"Birmingham International","BHI",52.450,-1.724,0,,"N/A","Toby Lewis 2009"
"Birmingham Moor Street","BMO",52.479,-1.892,0,,"N/A","Toby Lewis 2009"
"Birmingham Snow Hill","BSW",52.482,-1.898,0,,"N/A","Toby Lewis 2009"
"Bishop Auckland","BIA",54.657,-1.678,0,"DL14 7EJ","N/A","Toby Lewis 2009"
"Bishopbriggs","BBG",55.904,-4.224,0,,"N/A","Toby Lewis 2009"
"Bishops Stortford","BIS",51.867,0.165,0,"CM23 3BL","N/A","Toby Lewis 2009"
"Bishopstone","BIP",50.780,0.082,0,"BN25 2RB","N/A","Toby Lewis 2009"
"Bishopton","BPT",55.902,-4.500,0,"PA7 5AD","N/A","Toby Lewis 2009"
"Bitterne","BTE",50.918,-1.377,0,"SO18 1GG","N/A","Toby Lewis 2009"
"Blackburn","BBN",53.747,-2.479,0,"BB1 1EX","N/A","Toby Lewis 2009"
"London Blackfriars","BFR",51.511,-0.103,0,,"N/A","Toby Lewis 2009"
"Blackheath","BKH",51.466,0.008,0,"SE3 9LE","N/A","Toby Lewis 2009"
"Blackhorse Road","BHO",51.587,-0.041,0,,"N/A","Toby Lewis 2009"
"Blackpool North","BPN",53.822,-3.049,0,"FY1 2AB","N/A","Toby Lewis 2009"
"Blackpool Pleasure Beach","BPB",53.788,-3.054,0,"FY4 1NY","N/A","Toby Lewis 2009"
"Blackpool South","BPS",53.799,-3.049,0,"FY4 2FA","N/A","Toby Lewis 2009"
"Blackrod","BLK",53.591,-2.570,0,"BL6 5JH","N/A","Toby Lewis 2009"
"Blackwater","BAW",51.332,-0.777,0,"GU17 9AB","N/A","Toby Lewis 2009"
"Blaenau Ffestiniog","BFF",52.994,-3.936,0,"LL41 3HE","N/A","Toby Lewis 2009"
"Blair Atholl","BLA",56.765,-3.849,0,"PH18 5SL","N/A","Toby Lewis 2009"
"Blairhill","BAI",55.867,-4.044,0,"ML5 1NP","N/A","Toby Lewis 2009"
"Blake Street","BKT",52.605,-1.844,0,,"N/A","Toby Lewis 2009"
"Blakedown","BKD",52.406,-2.177,0,"DY10 3LF","N/A","Toby Lewis 2009"
"Blantyre","BLT",55.798,-4.087,0,,"N/A","Toby Lewis 2009"
"Blaydon","BLO",54.966,-1.713,0,"NE21 4JB","N/A","Toby Lewis 2009"
"Bleasby","BSB",53.041,-0.944,0,"NG14 7GD","N/A","Toby Lewis 2009"
"Bletchley","BLY",51.996,-0.737,0,"MK3 6DS","N/A","Toby Lewis 2009"
"Bloxwich","BLX",52.618,-2.012,0,"WS3 2NY","N/A","Toby Lewis 2009"
"Bloxwich North","BWN",52.625,-2.017,0,"WS3 2NR","N/A","Toby Lewis 2009"
"Blundellsands & Crosby","BLN",53.488,-3.041,0,,"N/A","Toby Lewis 2009"
"Blythe Bridge","BYB",52.968,-2.067,0,"ST11 9JF","N/A","Toby Lewis 2009"
"Bodmin Parkway","BOD",50.446,-4.662,0,"PL30 4BB","N/A","Toby Lewis 2009"
"Bodorgan","BOR",53.204,-4.416,0,"LL62 5BL","N/A","Toby Lewis 2009"
"Bognor Regis","BOG",50.787,-0.676,0,"PO21 1BA","N/A","Toby Lewis 2009"
"Bogston","BGS",55.937,-4.711,0,"PA15 2TF","N/A","Toby Lewis 2009"
"Bolton","BON",53.574,-2.426,0,"BL2 1BE","N/A","Toby Lewis 2009"
"Bolton-on-Dearne","BTD",53.519,-1.312,0,,"N/A","Toby Lewis 2009"
"Bookham","BKA",51.289,-0.384,0,"KT23 3JG","N/A","Toby Lewis 2009"
"Bootle (Cumbria)","BOC",54.292,-3.394,0,"LA19 5TA","N/A","Toby Lewis 2009"
"Bootle New Strand","BNW",53.453,-2.994,0,,"N/A","Toby Lewis 2009"
"Bootle Oriel Road","BOT",53.447,-2.995,0,,"N/A","Toby Lewis 2009"
"Bordesley","BBS",52.472,-1.877,0,,"N/A","Toby Lewis 2009"
"Borough Green & Wrotham","BRG",51.293,0.306,0,"TN15 8BG","N/A","Toby Lewis 2009"
"Borth","BRH",52.491,-4.050,0,"SY24 5HT","N/A","Toby Lewis 2009"
"Bosham","BOH",50.843,-0.847,0,"PO18 8NG","N/A","Toby Lewis 2009"
"Boston","BSN",52.978,-0.031,0,"PE21 3RN","N/A","Toby Lewis 2009"
"Botley","BOE",50.917,-1.259,0,"SO30 2DY","N/A","Toby Lewis 2009"
"Bottesford","BTF",52.945,-0.795,0,"NG13 0GT","N/A","Toby Lewis 2009"
"Bourne End","BNE",51.577,-0.711,0,"SL8 5QH","N/A","Toby Lewis 2009"
"Bournemouth","BMH",50.727,-1.864,0,"BH8 8HX","N/A","Toby Lewis 2009"
"Bournville","BRV",52.428,-1.927,0,,"N/A","Toby Lewis 2009"
"Bow Brickhill","BWB",52.004,-0.696,0,"MK7 8LA","N/A","Toby Lewis 2009"
"Bowes Park","BOP",51.607,-0.120,0,,"N/A","Toby Lewis 2009"
"Bowling","BWG",55.931,-4.493,0,,"N/A","Toby Lewis 2009"
"Boxhill & Westhumble","BXW",51.254,-0.329,0,"RH5 6BT","N/A","Toby Lewis 2009"
"Bracknell","BCE",51.413,-0.752,0,"RG12 1HX","N/A","Toby Lewis 2009"
"Bradford Forster Square","BDQ",53.797,-1.753,0,"BD1 4HY","N/A","Toby Lewis 2009"
"Bradford Interchange","BDI",53.791,-1.750,0,"BD1 1TU","N/A","Toby Lewis 2009"
"Brading","BDN",50.678,-1.139,0,"PO36 0EB","N/A","Toby Lewis 2009"
"Braintree","BTR",51.875,0.557,0,"CM7 6QL","N/A","Toby Lewis 2009"
"Braintree Freeport","BTP",51.869,0.568,0,"CM77 8YH","N/A","Toby Lewis 2009"
"Bramhall","BML",53.361,-2.163,0,"SK7 2DU","N/A","Toby Lewis 2009"
"Bramley (Leeds)","BLE",53.805,-1.637,0,"LS13 4DU","N/A","Toby Lewis 2009"
"Bramley (Hampshire)","BMY",51.330,-1.061,0,"RG26 5AG","N/A","Toby Lewis 2009"
"Brampton (Cumbria)","BMP",54.933,-2.703,0,"CA8 1HW","N/A","Toby Lewis 2009"
"Brampton (Suffolk)","BRP",52.395,1.544,0,"NR34 8EF","N/A","Toby Lewis 2009"
"Branchton","BCN",55.940,-4.804,0,"PA16 9HA","N/A","Toby Lewis 2009"
"Brandon","BND",52.454,0.625,0,"IP27 0BA","N/A","Toby Lewis 2009"
"Branksome","BSM",50.727,-1.920,0,"BH12 1DF","N/A","Toby Lewis 2009"
"Braystones","BYS",54.439,-3.542,0,"CA21 2YW","N/A","Toby Lewis 2009"
"Bredbury","BDY",53.423,-2.110,0,"SK6 2AA","N/A","Toby Lewis 2009"
"Breich","BRC",55.827,-3.669,0,"EH55 8JH","N/A","Toby Lewis 2009"
"Brentford","BFD",51.488,-0.309,0,"TW8 8DT","N/A","Toby Lewis 2009"
"Brentwood","BRE",51.614,0.300,0,"CM14 4EW","N/A","Toby Lewis 2009"
"Bricket Wood","BWO",51.706,-0.359,0,"AL3 0OO","N/A","Toby Lewis 2009"
"London Bridge","LBG",51.505,-0.086,0,"SE1 9SP","N/A","Toby Lewis 2009"
"Bridge of Allan","BEA",56.156,-3.957,0,"FK9 4PH","N/A","Toby Lewis 2009"
"Bridge of Orchy","BRO",56.517,-4.765,0,"PA36 4AD","N/A","Toby Lewis 2009"
"Bridgeton","BDG",55.849,-4.226,0,,"N/A","Toby Lewis 2009"
"Bridlington","BDT",54.084,-0.198,0,"YO15 3EP","N/A","Toby Lewis 2009"
"Brierfield","BRF",53.824,-2.236,0,"BB9 5PU","N/A","Toby Lewis 2009"
"Brigg","BGG",53.549,-0.487,0,"DN20 8HX","N/A","Toby Lewis 2009"
"Brighouse","BGH",53.698,-1.779,0,"HD6 1LE","N/A","Toby Lewis 2009"
"Brimsdown","BMD",51.656,-0.031,0,"EN3 4QB","N/A","Toby Lewis 2009"
"Brinnington","BNT",53.432,-2.135,0,"SK5 8JE","N/A","Toby Lewis 2009"
"Brithdir","BHD",51.710,-3.228,0,"NP24 6XY","N/A","Toby Lewis 2009"
"British Steel Redcar","RBS",54.610,-1.112,0,"TS10 5QW","N/A","Toby Lewis 2009"
"Briton Ferry","BNF",51.638,-3.820,0,"SA11 2NE","N/A","Toby Lewis 2009"
"Brixton","BRX",51.463,-0.115,0,"SW9 8JB","N/A","Toby Lewis 2009"
"Broad Green","BGE",53.406,-2.893,0,,"N/A","Toby Lewis 2009"
"Broadbottom","BDB",53.441,-2.016,0,"SK14 6AX","N/A","Toby Lewis 2009"
"Broadstairs","BSR",51.361,1.434,0,"CT10 1HZ","N/A","Toby Lewis 2009"
"Brockenhurst","BCU",50.817,-1.574,0,"SO42 7TW","N/A","Toby Lewis 2009"
"Brockholes","BHS",53.597,-1.770,0,"HD9 7EB","N/A","Toby Lewis 2009"
"Brockley","BCY",51.465,-0.038,0,"SE4 2RW","N/A","Toby Lewis 2009"
"Bromborough","BOM",53.322,-2.987,0,"CH63 0JG","N/A","Toby Lewis 2009"
"Bromborough Rake","BMR",53.330,-2.990,0,"CH62 7AL","N/A","Toby Lewis 2009"
"Bromley Cross","BMC",53.615,-2.410,0,"BL7 9PZ","N/A","Toby Lewis 2009"
"Bromley North","BMN",51.409,0.017,0,"BR1 3NN","N/A","Toby Lewis 2009"
"Bromley South","BMS",51.400,0.017,0,"BR1 1LX","N/A","Toby Lewis 2009"
"Bromsgrove","BMV",52.322,-2.048,0,,"N/A","Toby Lewis 2009"
"Brondesbury","BSY",51.545,-0.202,0,"NW6 7QB","N/A","Toby Lewis 2009"
"Brondesbury Park","BSP",51.541,-0.210,0,"NW6 6RP","N/A","Toby Lewis 2009"
"Brookmans Park","BPK",51.721,-0.204,0,"AL9 7SS","N/A","Toby Lewis 2009"
"Brookwood","BKO",51.304,-0.636,0,"GU24 0ER","N/A","Toby Lewis 2009"
"Broome","BME",52.423,-2.885,0,"SY7 0NT","N/A","Toby Lewis 2009"
"Broomfleet","BMF",53.740,-0.672,0,"HU15 1RQ","N/A","Toby Lewis 2009"
"Brora","BRA",58.012,-3.852,0,"KW9 6PY","N/A","Toby Lewis 2009"
"Brough","BUH",53.727,-0.579,0,"HU15 1DZ","N/A","Toby Lewis 2009"
"Broughty Ferry","BYF",56.467,-2.874,0,"DD5 2DX","N/A","Toby Lewis 2009"
"Broxbourne","BXB",51.747,-0.011,0,"EN10 7AW","N/A","Toby Lewis 2009"
"Bruce Grove","BCV",51.593,-0.070,0,,"N/A","Toby Lewis 2009"
"Brundall","BDA",52.619,1.439,0,"NR13 5LA","N/A","Toby Lewis 2009"
"Brundall Gardens","BGA",52.623,1.418,0,"NR13 5RG","N/A","Toby Lewis 2009"
"Brunstane","BSU",55.941,-3.101,0,"EH15 2NG","N/A","Toby Lewis 2009"
"Brunswick","BRW",53.383,-2.976,0,,"N/A","Toby Lewis 2009"
"Bryn","BYN",53.500,-2.647,0,"WN4 0AR","N/A","Toby Lewis 2009"
"Buckenham","BUC",52.598,1.470,0,"NR13 4HW","N/A","Toby Lewis 2009"
"Buckley","BCK",53.163,-3.056,0,"CH7 3AY","N/A","Toby Lewis 2009"
"Bucknell","BUK",52.357,-2.947,0,"SY7 0AD","N/A","Toby Lewis 2009"
"Bugle","BGL",50.400,-4.792,0,"PL26 8QP","N/A","Toby Lewis 2009"
"Builth Road","BHR",52.169,-3.427,0,"LD2 3PY","N/A","Toby Lewis 2009"
"Bulwell","BLW",53.000,-1.196,0,"NG6 9AA","N/A","Toby Lewis 2009"
"Bures","BUE",51.971,0.769,0,"CO8 5HS","N/A","Toby Lewis 2009"
"Burgess Hill","BUG",50.954,-0.128,0,"RH15 9DG","N/A","Toby Lewis 2009"
"Burley Park","BUY",53.812,-1.578,0,"LS6 1NA","N/A","Toby Lewis 2009"
"Burley-in-Wharfedale","BUW",53.908,-1.753,0,"LS29 4BE","N/A","Toby Lewis 2009"
"Burnage","BNA",53.422,-2.215,0,,"N/A","Toby Lewis 2009"
"Burneside","BUD",54.355,-2.767,0,"LA9 6RD","N/A","Toby Lewis 2009"
"Burnham (Buckinghamshire)","BNM",51.523,-0.647,0,"SL1 6JT","N/A","Toby Lewis 2009"
"Burnham-on-Crouch","BUU",51.634,0.814,0,"CM0 8BQ","N/A","Toby Lewis 2009"
"Burnley Barracks","BUB",53.791,-2.258,0,"BB12 0HG","N/A","Toby Lewis 2009"
"Burnley Central","BNC",53.794,-2.245,0,"BB11 1DA","N/A","Toby Lewis 2009"
"Burnley Manchester Road","BYM",53.785,-2.250,0,"BB11 1JZ","N/A","Toby Lewis 2009"
"Burnside","BUI",55.817,-4.202,0,,"N/A","Toby Lewis 2009"
"Burntisland","BTS",56.057,-3.234,0,"KY3 9DR","N/A","Toby Lewis 2009"
"Burscough Bridge","BCB",53.605,-2.841,0,,"N/A","Toby Lewis 2009"
"Burscough Junction","BCJ",53.597,-2.841,0,,"N/A","Toby Lewis 2009"
"Bursledon","BUO",50.884,-1.305,0,"SO31 8AA","N/A","Toby Lewis 2009"
"Burton Joyce","BUJ",52.984,-1.041,0,"NG14 5AA","N/A","Toby Lewis 2009"
"Burton-on-Trent","BUT",52.806,-1.643,0,"DE14 2DA","N/A","Toby Lewis 2009"
"Bury St Edmunds","BSE",52.254,0.713,0,"IP32 6AD","N/A","Toby Lewis 2009"
"Busby","BUS",55.781,-4.262,0,,"N/A","Toby Lewis 2009"
"Bush Hill Park","BHK",51.642,-0.069,0,"EN1 1BA","N/A","Toby Lewis 2009"
"Bushey","BSH",51.646,-0.385,0,"WD19 4EA","N/A","Toby Lewis 2009"
"Butlers Lane","BUL",52.592,-1.838,0,,"N/A","Toby Lewis 2009"
"Buxted","BXD",50.990,0.132,0,"TN22 4LA","N/A","Toby Lewis 2009"
"Buxton","BUX",53.261,-1.912,0,"SK17 6AQ","N/A","Toby Lewis 2009"
"Byfleet & New Haw","BFN",51.350,-0.481,0,"KT15 3LQ","N/A","Toby Lewis 2009"
"Bynea","BYE",51.672,-4.099,0,"SA14 9TL","N/A","Toby Lewis 2009"
"Cadoxton","CAD",51.412,-3.249,0,"CF62 8AF","N/A","Toby Lewis 2009"
"Caergwrle","CGW",53.108,-3.033,0,"LL12 9DU","N/A","Toby Lewis 2009"
"Caerphilly","CPH",51.572,-3.219,0,"CF83 1JR","N/A","Toby Lewis 2009"
"Caersws","CWS",52.516,-3.432,0,"SY17 5HH","N/A","Toby Lewis 2009"
"Caldicot","CDT",51.585,-2.760,0,"NP6 4BU","N/A","Toby Lewis 2009"
"Caledonian Road & Barnsbury","CIR",51.544,-0.115,0,,"N/A","Toby Lewis 2009"
"Calstock","CSK",50.498,-4.209,0,"PL18 9QY","N/A","Toby Lewis 2009"
"Camberley","CAM",51.336,-0.744,0,"GU15 3RR","N/A","Toby Lewis 2009"
"Camborne","CBN",50.210,-5.299,0,"TR14 8SR","N/A","Toby Lewis 2009"
"Cambridge","CBG",52.194,0.137,0,"CB1 2JW","N/A","Toby Lewis 2009"
"Cambridge Heath","CBH",51.532,-0.057,0,,"N/A","Toby Lewis 2009"
"Cambuslang","CBL",55.819,-4.173,0,,"N/A","Toby Lewis 2009"
"Camden Road","CMD",51.542,-0.139,0,"NW1 9LS","N/A","Toby Lewis 2009"
"Camelon","CMO",56.006,-3.818,0,"FK1 4JW","N/A","Toby Lewis 2009"
"Canley","CNL",52.399,-1.547,0,"CV5 6BH","N/A","Toby Lewis 2009"
"Cannock","CAO",52.687,-2.022,0,"WS11 8NQ","N/A","Toby Lewis 2009"
"London Cannon Street","CST",51.511,-0.090,0,,"N/A","Toby Lewis 2009"
"Canonbury","CNN",51.549,-0.092,0,,"N/A","Toby Lewis 2009"
"Canterbury East","CBE",51.275,1.076,0,"CT1 2RB","N/A","Toby Lewis 2009"
"Canterbury West","CBW",51.284,1.075,0,"CT2 8AN","N/A","Toby Lewis 2009"
"Cantley","CNY",52.579,1.514,0,"NR13 3SQ","N/A","Toby Lewis 2009"
"Capenhurst","CPU",53.260,-2.942,0,"CH1 6HE","N/A","Toby Lewis 2009"
"Carbis Bay","CBB",50.197,-5.464,0,"TR26 2NN","N/A","Toby Lewis 2009"
"Cardenden","CDD",56.141,-3.260,0,"KY5 0BP","N/A","Toby Lewis 2009"
"Cardiff Bay","CDB",51.467,-3.166,0,"CF10 5LE","N/A","Toby Lewis 2009"
"Cardiff Queen Street","CDQ",51.482,-3.171,0,"CF10 4EY","N/A","Toby Lewis 2009"
"Cardonald","CDO",55.853,-4.341,0,,"N/A","Toby Lewis 2009"
"Cardross","CDR",55.961,-4.653,0,,"N/A","Toby Lewis 2009"
"Carfin","CRF",55.808,-3.956,0,"ML1 5AU","N/A","Toby Lewis 2009"
"Cark","CAK",54.178,-2.973,0,"LA11 7NL","N/A","Toby Lewis 2009"
"Carlisle","CAR",54.891,-2.934,0,"CA1 1QZ","N/A","Toby Lewis 2009"
"Carlton","CTO",52.965,-1.079,0,"NG4 2FD","N/A","Toby Lewis 2009"
"Carluke","CLU",55.731,-3.848,0,"ML8 5AA","N/A","Toby Lewis 2009"
"Carmarthen","CMN",51.853,-4.306,0,"SA31 2BE","N/A","Toby Lewis 2009"
"Carmyle","CML",55.834,-4.159,0,,"N/A","Toby Lewis 2009"
"Carnforth","CNF",54.129,-2.771,0,"LA5 9ET","N/A","Toby Lewis 2009"
"Carnoustie","CAN",56.501,-2.706,0,"DD7 6AY","N/A","Toby Lewis 2009"
"Carntyne","CAY",55.855,-4.179,0,,"N/A","Toby Lewis 2009"
"Carpenders Park","CPK",51.628,-0.386,0,"WD19 6DT","N/A","Toby Lewis 2009"
"Carrbridge","CAG",57.280,-3.828,0,"PH23 3AJ","N/A","Toby Lewis 2009"
"Carshalton","CSH",51.369,-0.166,0,"SM5 2HW","N/A","Toby Lewis 2009"
"Carshalton Beeches","CSB",51.357,-0.170,0,"SM5 3RF","N/A","Toby Lewis 2009"
"Carstairs","CRS",55.691,-3.668,0,"ML11 8PR","N/A","Toby Lewis 2009"
"Cartsdyke","CDY",55.942,-4.732,0,"PA15 2TG","N/A","Toby Lewis 2009"
"Castle Bar Park","CBP",51.523,-0.331,0,,"N/A","Toby Lewis 2009"
"Castleford","CFD",53.724,-1.355,0,"WF10 5DN","N/A","Toby Lewis 2009"
"Castleton","CAS",53.592,-2.178,0,"OL11 3EB","N/A","Toby Lewis 2009"
"Castleton Moor","CSM",54.467,-0.947,0,"YO21 2EU","N/A","Toby Lewis 2009"
"Caterham","CAT",51.282,-0.078,0,"CR3 6LB","N/A","Toby Lewis 2009"
"Catford","CTF",51.445,-0.026,0,"SE6 4XT","N/A","Toby Lewis 2009"
"Catford Bridge","CFB",51.445,-0.025,0,"SE6 4RH","N/A","Toby Lewis 2009"
"Cathays","CYS",51.489,-3.179,0,"CF10 3LU","N/A","Toby Lewis 2009"
"Cathcart","CCT",55.818,-4.260,0,,"N/A","Toby Lewis 2009"
"Cattal","CTL",53.997,-1.320,0,"YO5 8EB","N/A","Toby Lewis 2009"
"Causeland","CAU",50.406,-4.466,0,"PL14 4ST","N/A","Toby Lewis 2009"
"Cefn-y-Bedd","CYB",53.098,-3.031,0,"LL12 9UU","N/A","Toby Lewis 2009"
"Chadwell Heath","CTH",51.568,0.130,0,"RM6 4BU","N/A","Toby Lewis 2009"
"Chafford Hundred","CFH",51.486,0.288,0,,"N/A","Toby Lewis 2009"
"Chalfont & Latimer","CFO",51.668,-0.561,0,"HP7 9PR","N/A","Toby Lewis 2009"
"Chalkwell","CHW",51.539,0.671,0,"SS0 8PX","N/A","Toby Lewis 2009"
"Chandlers Ford","CFR",50.983,-1.385,0,"SO53 4DE","N/A","Toby Lewis 2009"
"Chapel-en-le-Frith","CEF",53.312,-1.919,0,"SK12 6TF","N/A","Toby Lewis 2009"
"Chapelton","CPN",51.017,-4.025,0,"EX37 9DZ","N/A","Toby Lewis 2009"
"Chapeltown","CLN",53.462,-1.467,0,,"N/A","Toby Lewis 2009"
"Chappel & Wakes Colne","CWC",51.926,0.758,0,"CO6 2DS","N/A","Toby Lewis 2009"
"Charing (Kent)","CHG",51.209,0.789,0,"TN27 0JA","N/A","Toby Lewis 2009"
"Charing Cross (Glasgow)","CHC",55.865,-4.270,0,,"N/A","Toby Lewis 2009"
"London Charing Cross","CHX",51.508,-0.125,0,,"N/A","Toby Lewis 2009"
"Charlbury","CBY",51.873,-1.490,0,"OX7 3HH","N/A","Toby Lewis 2009"
"Charlton","CTN",51.487,0.031,0,"SE7 7QG","N/A","Toby Lewis 2009"
"Chartham","CRT",51.257,1.018,0,"CT4 7HT","N/A","Toby Lewis 2009"
"Chassen Road","CSR",53.446,-2.368,0,,"N/A","Toby Lewis 2009"
"Chatelherault","CTE",55.765,-4.005,0,"ML3 7UD","N/A","Toby Lewis 2009"
"Chatham","CTM",51.380,0.521,0,"ME4 6PN","N/A","Toby Lewis 2009"
"Chathill","CHT",55.536,-1.706,0,"NE67 5DE","N/A","Toby Lewis 2009"
"Cheadle Hulme","CHU",53.376,-2.188,0,"SK8 5AF","N/A","Toby Lewis 2009"
"Cheam","CHE",51.355,-0.214,0,"SM2 7AJ","N/A","Toby Lewis 2009"
"Cheddington","CED",51.858,-0.662,0,"LU7 0SQ","N/A","Toby Lewis 2009"
"Chelford","CEL",53.270,-2.281,0,"SK11 9AX","N/A","Toby Lewis 2009"
"Chelmsford","CHM",51.737,0.469,0,"CM1 1HT","N/A","Toby Lewis 2009"
"Chelsfield","CLD",51.357,0.108,0,"BR6 6EU","N/A","Toby Lewis 2009"
"Chepstow","CPW",51.640,-2.671,0,"NP6 5PD","N/A","Toby Lewis 2009"
"Cherry Tree","CYT",53.733,-2.519,0,"BB2 2TZ","N/A","Toby Lewis 2009"
"Chertsey","CHY",51.387,-0.510,0,"KT16 9BG","N/A","Toby Lewis 2009"
"Cheshunt","CHN",51.703,-0.024,0,"EN8 9AQ","N/A","Toby Lewis 2009"
"Chessington North","CSN",51.364,-0.300,0,"KT9 2RT","N/A","Toby Lewis 2009"
"Chessington South","CSS",51.356,-0.308,0,"KT9 2JR","N/A","Toby Lewis 2009"
"Chester","CTR",53.197,-2.880,0,"CH1 3NS","N/A","Toby Lewis 2009"
"Chester Road","CRD",52.535,-1.833,0,,"N/A","Toby Lewis 2009"
"Chester-le-Street","CLS",54.855,-1.578,0,"DH3 3EE","N/A","Toby Lewis 2009"
"Chesterfield","CHD",53.238,-1.420,0,,"N/A","Toby Lewis 2009"
"Chestfield & Swalecliffe","CSW",51.360,1.067,0,"CT5 3JB","N/A","Toby Lewis 2009"
"Chilham","CIL",51.245,0.976,0,"CT4 8EG","N/A","Toby Lewis 2009"
"Chilworth","CHL",51.215,-0.525,0,"GU4 6TT","N/A","Toby Lewis 2009"
"Chingford","CHI",51.633,0.010,0,,"N/A","Toby Lewis 2009"
"Chinley","CLY",53.341,-1.942,0,"SK12 6AA","N/A","Toby Lewis 2009"
"Chipstead","CHP",51.309,-0.170,0,"CR3 3TD","N/A","Toby Lewis 2009"
"Chirk","CRK",52.933,-3.066,0,"LL14 5LU","N/A","Toby Lewis 2009"
"Chislehurst","CIT",51.406,0.057,0,"BR7 5NN","N/A","Toby Lewis 2009"
"Chiswick","CHK",51.481,-0.268,0,,"N/A","Toby Lewis 2009"
"Cholsey","CHO",51.570,-1.158,0,"OX10 9QD","N/A","Toby Lewis 2009"
"Chorley","CRL",53.653,-2.627,0,"PR7 1BS","N/A","Toby Lewis 2009"
"Chorleywood","CLW",51.654,-0.518,0,"WD3 5ND","N/A","Toby Lewis 2009"
"Christchurch","CHR",50.738,-1.784,0,"BH23 1PL","N/A","Toby Lewis 2009"
"Christs Hospital","CHH",51.052,-0.363,0,"RH13 0ND","N/A","Toby Lewis 2009"
"Church & Oswaldtwistle","CTW",53.751,-2.391,0,"BB5 0DP","N/A","Toby Lewis 2009"
"Church Fenton","CHF",53.827,-1.227,0,"LS24 9RA","N/A","Toby Lewis 2009"
"Church Stretton","CTT",52.538,-2.803,0,"SY6 6PG","N/A","Toby Lewis 2009"
"Cilmeri","CIM",52.151,-3.456,0,"LD2 3NU","N/A","Toby Lewis 2009"
"City Thameslink","CTK",51.516,-0.104,0,,"N/A","Toby Lewis 2009"
"Clacton on Sea","CLT",51.794,1.154,0,"CO15 6PU","N/A","Toby Lewis 2009"
"Clandon","CLA",51.264,-0.503,0,"GU4 7TE","N/A","Toby Lewis 2009"
"Clapham (Yorkshire)","CPY",54.106,-2.410,0,"LA2 8DX","N/A","Toby Lewis 2009"
"Clapham High Street","CLP",51.466,-0.133,0,"SW4 6EU","N/A","Toby Lewis 2009"
"Clapham Junction","CLJ",51.465,-0.170,0,"SW11 1SP","N/A","Toby Lewis 2009"
"Clapton","CPT",51.562,-0.057,0,,"N/A","Toby Lewis 2009"
"Clarbeston Road","CLR",51.852,-4.883,0,"SA63 4UH","N/A","Toby Lewis 2009"
"Clarkston","CKS",55.790,-4.276,0,,"N/A","Toby Lewis 2009"
"Claverdon","CLV",52.277,-1.696,0,"CV35 8PE","N/A","Toby Lewis 2009"
"Claygate","CLG",51.361,-0.349,0,"KT10 0PB","N/A","Toby Lewis 2009"
"Cleethorpes","CLE",53.562,-0.029,0,"DN35 8AX","N/A","Toby Lewis 2009"
"Cleland","CEA",55.804,-3.911,0,"ML1 5RR","N/A","Toby Lewis 2009"
"Clifton","CLI",53.522,-2.314,0,,"N/A","Toby Lewis 2009"
"Clitheroe","CLH",53.874,-2.394,0,"BB7 2ED","N/A","Toby Lewis 2009"
"Clock House","CLK",51.409,-0.041,0,"BR3 4HJ","N/A","Toby Lewis 2009"
"Clunderwen","CUW",51.840,-4.730,0,"SA66 7NG","N/A","Toby Lewis 2009"
"Clydebank","CYK",55.901,-4.404,0,,"N/A","Toby Lewis 2009"
"Coatbridge Central","CBC",55.863,-4.033,0,"ML5 1RL","N/A","Toby Lewis 2009"
"Coatbridge Sunnyside","CBS",55.867,-4.028,0,"ML5 2DF","N/A","Toby Lewis 2009"
"Coatdyke","COA",55.864,-4.004,0,"ML6 0LZ","N/A","Toby Lewis 2009"
"Cobham & Stoke d'Abernon","CSD",51.318,-0.389,0,"KT11 3BW","N/A","Toby Lewis 2009"
"Codsall","CSL",52.627,-2.202,0,"WV8 1BY","N/A","Toby Lewis 2009"
"Cogan","CGN",51.446,-3.189,0,"CF64 2NS","N/A","Toby Lewis 2009"
"Colchester","COL",51.901,0.892,0,"CO1 1XD","N/A","Toby Lewis 2009"
"Colchester Town","CET",51.887,0.905,0,"CO2 7EF","N/A","Toby Lewis 2009"
"Coleshill Parkway","CEH",52.516,-1.708,0,,"N/A","Toby Lewis 2009"
"Collingham","CLM",53.144,-0.750,0,"NG23 7RB","N/A","Toby Lewis 2009"
"Collington","CLL",50.839,0.457,0,"TN39 3EW","N/A","Toby Lewis 2009"
"Colne","CNE",53.855,-2.182,0,"BB8 9NX","N/A","Toby Lewis 2009"
"Colwall","CWL",52.080,-2.357,0,"WR13 6RN","N/A","Toby Lewis 2009"
"Colwyn Bay","CWB",53.297,-3.726,0,"LL29 8DF","N/A","Toby Lewis 2009"
"Combe","CME",51.833,-1.394,0,"OX8 7YG","N/A","Toby Lewis 2009"
"Commondale","COM",54.481,-0.975,0,"YO21 2HN","N/A","Toby Lewis 2009"
"Congleton","CNG",53.158,-2.193,0,"CW12 3DE","N/A","Toby Lewis 2009"
"Conisbrough","CNS",53.490,-1.234,0,"DN12 3DX","N/A","Toby Lewis 2009"
"Connel Ferry","CON",56.452,-5.384,0,"PA37 1PA","N/A","Toby Lewis 2009"
"Cononley","CEY",53.918,-2.012,0,"BD20 8HY","N/A","Toby Lewis 2009"
"Conway Park","CNP",53.395,-3.028,0,"CH41 4PP","N/A","Toby Lewis 2009"
"Conwy","CNW",53.280,-3.831,0,"LL32 8LD","N/A","Toby Lewis 2009"
"Cooden Beach","COB",50.834,0.427,0,"TN39 4TT","N/A","Toby Lewis 2009"
"Cookham","COO",51.557,-0.722,0,"SL6 9BP","N/A","Toby Lewis 2009"
"Cooksbridge","CBR",50.904,-0.009,0,"BN7 3QG","N/A","Toby Lewis 2009"
"Coombe Halt","COE",50.445,-4.481,0,"PL14 7LL","N/A","Toby Lewis 2009"
"Copplestone","COP",50.814,-3.751,0,"EX17 5NE","N/A","Toby Lewis 2009"
"Corbridge","CRB",54.966,-2.018,0,"NE45 5AY","N/A","Toby Lewis 2009"
"Corkerhill","CKH",55.838,-4.335,0,,"N/A","Toby Lewis 2009"
"Corkickle","CKL",54.542,-3.582,0,"CA28 8AP","N/A","Toby Lewis 2009"
"Corpach","CPA",56.843,-5.121,0,"PH33 7LS","N/A","Toby Lewis 2009"
"Corrour","CRR",56.760,-4.691,0,,"N/A","Toby Lewis 2009"
"Coryton","COY",51.520,-3.231,0,"CF14 7BW","N/A","Toby Lewis 2009"
"Coseley","CSY",52.545,-2.086,0,"WV14 8XP","N/A","Toby Lewis 2009"
"Cosford","COS",52.645,-2.301,0,"WV7 3EY","N/A","Toby Lewis 2009"
"Cottingham","CGM",53.782,-0.407,0,"HU16 4QU","N/A","Toby Lewis 2009"
"Cottingley","COT",53.768,-1.588,0,"LS11 0JT","N/A","Toby Lewis 2009"
"Coulsdon South","CDS",51.316,-0.138,0,"CR3 3EA","N/A","Toby Lewis 2009"
"Coventry","COV",52.401,-1.514,0,"CV1 2GT","N/A","Toby Lewis 2009"
"Cowden","CWN",51.156,0.110,0,"TN8 7DS","N/A","Toby Lewis 2009"
"Cowdenbeath","COW",56.112,-3.344,0,"KY4 9SQ","N/A","Toby Lewis 2009"
"Cradley Heath","CRA",52.470,-2.091,0,,"N/A","Toby Lewis 2009"
"Craigendoran","CGD",55.995,-4.712,0,,"N/A","Toby Lewis 2009"
"Cramlington","CRM",55.088,-1.598,0,"NE23 9EX","N/A","Toby Lewis 2009"
"Craven Arms","CRV",52.443,-2.837,0,"SY7 9PY","N/A","Toby Lewis 2009"
"Crawley","CRW",51.112,-0.187,0,"RH10 1JA","N/A","Toby Lewis 2009"
"Crayford","CRY",51.448,0.179,0,"DA1 3PY","N/A","Toby Lewis 2009"
"Crediton","CDI",50.783,-3.647,0,"EX17 3BY","N/A","Toby Lewis 2009"
"Cressing","CES",51.853,0.578,0,"CM7 8MS","N/A","Toby Lewis 2009"
"Cressington","CSG",53.359,-2.912,0,,"N/A","Toby Lewis 2009"
"Creswell","CWD",53.264,-1.216,0,,"N/A","Toby Lewis 2009"
"Crewe","CRE",53.090,-2.434,0,"CW2 6HR","N/A","Toby Lewis 2009"
"Crewkerne","CKN",50.874,-2.779,0,"TA18 8AL","N/A","Toby Lewis 2009"
"Crews Hill","CWH",51.684,-0.107,0,"EN2 9EA","N/A","Toby Lewis 2009"
"Crianlarich","CNR",56.391,-4.618,0,"FK20 8QN","N/A","Toby Lewis 2009"
"Criccieth","CCC",52.919,-4.237,0,"LL52 0RW","N/A","Toby Lewis 2009"
"Cricklewood","CRI",51.559,-0.213,0,"NW2 1HL","N/A","Toby Lewis 2009"
"Croftfoot","CFF",55.819,-4.228,0,,"N/A","Toby Lewis 2009"
"Crofton Park","CFT",51.455,-0.037,0,"SE4 2PH","N/A","Toby Lewis 2009"
"Cromer","CMR",52.930,1.292,0,"NR27 0DX","N/A","Toby Lewis 2009"
"Cromford","CMF",53.113,-1.549,0,"DE4 5JJ","N/A","Toby Lewis 2009"
"Crookston","CKT",55.842,-4.365,0,,"N/A","Toby Lewis 2009"
"Cross Gates","CRG",53.805,-1.451,0,"LS15 8BX","N/A","Toby Lewis 2009"
"Crosskeys","CKY",51.621,-3.126,0,"NP11 7BU","N/A","Toby Lewis 2009"
"Crossflatts","CFL",53.859,-1.845,0,"BD16 2RZ","N/A","Toby Lewis 2009"
"Crosshill","COI",55.833,-4.257,0,,"N/A","Toby Lewis 2009"
"Crossmyloof","CMY",55.834,-4.284,0,,"N/A","Toby Lewis 2009"
"Croston","CSO",53.667,-2.778,0,"PR26 9SE","N/A","Toby Lewis 2009"
"Crouch Hill","CRH",51.572,-0.117,0,,"N/A","Toby Lewis 2009"
"Crowborough","COH",51.046,0.188,0,"TN6 2JR","N/A","Toby Lewis 2009"
"Crowhurst","CWU",50.888,0.501,0,"TN33 9DD","N/A","Toby Lewis 2009"
"Crowle","CWE",53.590,-0.818,0,"DN17 4JS","N/A","Toby Lewis 2009"
"Crowthorne","CRN",51.367,-0.820,0,"RG45 0QW","N/A","Toby Lewis 2009"
"Croy","CRO",55.956,-4.037,0,,"N/A","Toby Lewis 2009"
"Crystal Palace","CYP",51.418,-0.073,0,"SE19 2AZ","N/A","Toby Lewis 2009"
"Cuddington","CUD",53.240,-2.600,0,"CW8 2UH","N/A","Toby Lewis 2009"
"Cuffley","CUF",51.709,-0.110,0,"EN6 4HY","N/A","Toby Lewis 2009"
"Culham","CUM",51.654,-1.236,0,"OX14 3BT","N/A","Toby Lewis 2009"
"Culrain","CUA",57.920,-4.404,0,"IV27 4ET","N/A","Toby Lewis 2009"
"Cumbernauld","CUB",55.942,-3.980,0,,"N/A","Toby Lewis 2009"
"Cupar","CUP",56.317,-3.009,0,"KY15 5HX","N/A","Toby Lewis 2009"
"Curriehill","CUH",55.901,-3.319,0,"EH14 4AA","N/A","Toby Lewis 2009"
"Cuxton","CUX",51.374,0.461,0,"ME2 1AB","N/A","Toby Lewis 2009"
"Cwmbach","CMH",51.701,-3.414,0,"CF44 0AG","N/A","Toby Lewis 2009"
"Cwmbran","CWM",51.657,-3.016,0,"NP44 1QX","N/A","Toby Lewis 2009"
"Cynghordy","CYN",52.052,-3.748,0,"SA20 0LY","N/A","Toby Lewis 2009"
"Dagenham Dock","DDK",51.526,0.146,0,"RM9 6PT","N/A","Toby Lewis 2009"
"Daisy Hill","DSY",53.539,-2.516,0,"BL5 2JQ","N/A","Toby Lewis 2009"
"Dalgety Bay","DAG",56.042,-3.368,0,"KY11 9HZ","N/A","Toby Lewis 2009"
"Dalmally","DAL",56.401,-4.984,0,"PA33 1AY","N/A","Toby Lewis 2009"
"Dalmarnock","DAK",55.842,-4.217,0,,"N/A","Toby Lewis 2009"
"Dalmeny","DAM",55.986,-3.382,0,"EH30 9JU","N/A","Toby Lewis 2009"
"Dalmuir","DMR",55.912,-4.426,0,,"N/A","Toby Lewis 2009"
"Dalreoch","DLR",55.947,-4.578,0,,"N/A","Toby Lewis 2009"
"Dalry","DLY",55.706,-4.711,0,"KA24 4DE","N/A","Toby Lewis 2009"
"Dalston (Cumbria)","DLS",54.846,-2.989,0,"CA5 7LT","N/A","Toby Lewis 2009"
"Dalston Kingsland","DLK",51.548,-0.076,0,,"N/A","Toby Lewis 2009"
"Dalton","DLT",54.155,-3.179,0,"LA15 8QA","N/A","Toby Lewis 2009"
"Dalwhinnie","DLW",56.935,-4.246,0,"PH19 1AD","N/A","Toby Lewis 2009"
"Danby","DNY",54.466,-0.911,0,"YO21 2JL","N/A","Toby Lewis 2009"
"Danescourt","DCT",51.500,-3.234,0,"CF5 2RX","N/A","Toby Lewis 2009"
"Danzey","DZY",52.325,-1.821,0,,"N/A","Toby Lewis 2009"
"Darlington","DAR",54.522,-1.546,0,"DL1 4AA","N/A","Toby Lewis 2009"
"Darnall","DAN",53.384,-1.412,0,,"N/A","Toby Lewis 2009"
"Darsham","DSM",52.273,1.523,0,"IP17 3PN","N/A","Toby Lewis 2009"
"Dartford","DFD",51.447,0.219,0,"DA1 1BP","N/A","Toby Lewis 2009"
"Darton","DRT",53.588,-1.531,0,,"N/A","Toby Lewis 2009"
"Darwen","DWN",53.698,-2.464,0,"BB3 0DE","N/A","Toby Lewis 2009"
"Datchet","DAT",51.483,-0.579,0,"SL3 9ED","N/A","Toby Lewis 2009"
"Davenport","DVN",53.391,-2.153,0,"SK3 8SA","N/A","Toby Lewis 2009"
"Dawlish","DWL",50.581,-3.465,0,"EX7 9PJ","N/A","Toby Lewis 2009"
"Dawlish Warren","DWW",50.599,-3.444,0,"EX7 0NF","N/A","Toby Lewis 2009"
"Deal","DEA",51.223,1.399,0,"CT14 6HD","N/A","Toby Lewis 2009"
"Dean Lane","DNN",53.504,-2.184,0,,"N/A","Toby Lewis 2009"
"Deansgate","DGT",53.474,-2.252,0,,"N/A","Toby Lewis 2009"
"Deganwy","DGY",53.295,-3.833,0,"LL31 9EJ","N/A","Toby Lewis 2009"
"Deighton","DHN",53.668,-1.752,0,"HD2 1LX","N/A","Toby Lewis 2009"
"Delamere","DLM",53.229,-2.667,0,"CW8 2JQ","N/A","Toby Lewis 2009"
"Denby Dale","DBD",53.573,-1.663,0,"HD8 8RX","N/A","Toby Lewis 2009"
"Denham","DNM",51.579,-0.497,0,"UB9 5ES","N/A","Toby Lewis 2009"
"Denham Golf Club","DGC",51.581,-0.517,0,"UB9 5DE","N/A","Toby Lewis 2009"
"Denmark Hill","DMK",51.468,-0.089,0,"SE5 8BB","N/A","Toby Lewis 2009"
"Dent","DNT",54.282,-2.364,0,"LA10 5RF","N/A","Toby Lewis 2009"
"Denton","DTN",53.457,-2.131,0,,"N/A","Toby Lewis 2009"
"Deptford","DEP",51.479,-0.027,0,"SE8 3NU","N/A","Toby Lewis 2009"
"Derby","DBY",52.916,-1.463,0,"DE1 2RU","N/A","Toby Lewis 2009"
"Derby Road","DBR",52.051,1.183,0,"IP3 8DN","N/A","Toby Lewis 2009"
"Derker","DKR",53.550,-2.102,0,"OL1 4DP","N/A","Toby Lewis 2009"
"Devonport","DPT",50.378,-4.171,0,"PL1 4QN","N/A","Toby Lewis 2009"
"Dockyard","DOC",50.383,-4.176,0,"PL2 1RX","N/A","Toby Lewis 2009"
"Dewsbury","DEW",53.692,-1.633,0,"WF13 1HF","N/A","Toby Lewis 2009"
"Digby & Sowton","DIG",50.714,-3.474,0,"EX2 7AW","N/A","Toby Lewis 2009"
"Dinas Rhondda","DMG",51.618,-3.437,0,"CF40 2PJ","N/A","Toby Lewis 2009"
"Dinas Powys","DNS",51.432,-3.219,0,"CF64 4TX","N/A","Toby Lewis 2009"
"Dingle Road","DGL",51.440,-3.181,0,"CF64 1JL","N/A","Toby Lewis 2009"
"Dingwall","DIN",57.594,-4.422,0,"IV15 9PZ","N/A","Toby Lewis 2009"
"Dinsdale","DND",54.515,-1.467,0,"DL2 1EP","N/A","Toby Lewis 2009"
"Dinting","DTG",53.449,-1.971,0,"SK13 9EB","N/A","Toby Lewis 2009"
"Disley","DSL",53.358,-2.043,0,"SK12 2AE","N/A","Toby Lewis 2009"
"Diss","DIS",52.374,1.124,0,"IP22 4HN","N/A","Toby Lewis 2009"
"Dodworth","DOD",53.544,-1.531,0,,"N/A","Toby Lewis 2009"
"Dolau","DOL",52.295,-3.263,0,"LD1 5TG","N/A","Toby Lewis 2009"
"Doleham","DLH",50.919,0.609,0,"TN35 4LY","N/A","Toby Lewis 2009"
"Dolgarrog","DLG",53.186,-3.823,0,"LL26 0YR","N/A","Toby Lewis 2009"
"Dolwyddelan","DWD",53.052,-3.885,0,"LL25 0TJ","N/A","Toby Lewis 2009"
"Doncaster","DON",53.522,-1.139,0,"DN1 1PE","N/A","Toby Lewis 2009"
"Dorchester South","DCH",50.709,-2.437,0,"DT1 1QX","N/A","Toby Lewis 2009"
"Dore","DOR",53.328,-1.516,0,,"N/A","Toby Lewis 2009"
"Dorking","DKG",51.241,-0.324,0,"RH4 1TF","N/A","Toby Lewis 2009"
"Dorking Deepdene","DPD",51.239,-0.324,0,"RH4 7TY","N/A","Toby Lewis 2009"
"Dorking West","DKT",51.236,-0.340,0,"RH4 5EE","N/A","Toby Lewis 2009"
"Dormans","DMS",51.156,-0.004,0,"RH7 6NL","N/A","Toby Lewis 2009"
"Dorridge","DDG",52.372,-1.753,0,,"N/A","Toby Lewis 2009"
"Dove Holes","DVH",53.300,-1.890,0,"SK17 8DJ","N/A","Toby Lewis 2009"
"Dover Priory","DVP",51.126,1.306,0,"CT17 9SB","N/A","Toby Lewis 2009"
"Dovercourt","DVC",51.939,1.281,0,"CO12 3AG","N/A","Toby Lewis 2009"
"Dovey Junction","DVY",52.565,-3.924,0,"SY20 8PZ","N/A","Toby Lewis 2009"
"Downham Market","DOW",52.604,0.366,0,"PE38 9EN","N/A","Toby Lewis 2009"
"Drayton Green","DRG",51.516,-0.330,0,,"N/A","Toby Lewis 2009"
"Drayton Park","DYP",51.553,-0.106,0,,"N/A","Toby Lewis 2009"
"Drem","DRM",56.005,-2.787,0,"EH39 5LW","N/A","Toby Lewis 2009"
"Driffield","DRF",54.001,-0.435,0,"YO25 7PX","N/A","Toby Lewis 2009"
"Drigg","DRI",54.377,-3.444,0,"CA19 1XW","N/A","Toby Lewis 2009"
"Droitwich Spa","DTW",52.268,-2.158,0,"WR9 9BD","N/A","Toby Lewis 2009"
"Dronfield","DRO",53.301,-1.469,0,,"N/A","Toby Lewis 2009"
"Drumchapel","DMC",55.905,-4.363,0,,"N/A","Toby Lewis 2009"
"Drumfrochar","DFR",55.941,-4.771,0,"PA15 4BY","N/A","Toby Lewis 2009"
"Drumgelloch","DRU",55.866,-3.955,0,"ML6 8JA","N/A","Toby Lewis 2009"
"Drumry","DMY",55.904,-4.385,0,,"N/A","Toby Lewis 2009"
"Duddeston","DUD",52.489,-1.871,0,,"N/A","Toby Lewis 2009"
"Dudley Port","DDP",52.525,-2.049,0,"DY4 8UB","N/A","Toby Lewis 2009"
"Duffield","DFI",52.988,-1.486,0,"DE56 4EP","N/A","Toby Lewis 2009"
"Duirinish","DRN",57.320,-5.691,0,"IV40 8BD","N/A","Toby Lewis 2009"
"Duke Street","DST",55.859,-4.213,0,,"N/A","Toby Lewis 2009"
"Dullingham","DUL",52.202,0.366,0,"CB8 8UP","N/A","Toby Lewis 2009"
"Dumbarton Central","DBC",55.947,-4.568,0,,"N/A","Toby Lewis 2009"
"Dumbarton East","DBE",55.942,-4.554,0,,"N/A","Toby Lewis 2009"
"Dumbreck","DUM",55.845,-4.302,0,,"N/A","Toby Lewis 2009"
"Dumfries","DMF",55.072,-3.605,0,"DG1 1NF","N/A","Toby Lewis 2009"
"Dumpton Park","DMP",51.346,1.427,0,"CT11 7EW","N/A","Toby Lewis 2009"
"Dunbar","DUN",55.998,-2.514,0,"EH42 1JX","N/A","Toby Lewis 2009"
"Dunblane","DBL",56.186,-3.966,0,"FK15 9ET","N/A","Toby Lewis 2009"
"Duncraig","DCG",57.337,-5.637,0,"IV52 8TZ","N/A","Toby Lewis 2009"
"Dundee","DEE",56.457,-2.971,0,"DD1 4BY","N/A","Toby Lewis 2009"
"Dunfermline Queen Margaret","DFL",56.080,-3.422,0,"KY12 0GB","N/A","Toby Lewis 2009"
"Dunfermline Town","DFE",56.068,-3.452,0,"KY12 7HT","N/A","Toby Lewis 2009"
"Dunkeld & Birnam","DKD",56.557,-3.579,0,"PH8 0DP","N/A","Toby Lewis 2009"
"Dunlop","DNL",55.712,-4.532,0,"KA3 4BZ","N/A","Toby Lewis 2009"
"Dunrobin Castle","DNO",57.986,-3.947,0,"KW10 6SF","N/A","Toby Lewis 2009"
"Dunston","DOT",54.950,-1.643,0,"NE11 9SS","N/A","Toby Lewis 2009"
"Dunton Green","DNG",51.297,0.171,0,"TN13 2XD","N/A","Toby Lewis 2009"
"Durham","DHM",54.779,-1.582,0,"DH1 4RB","N/A","Toby Lewis 2009"
"Durrington-on-Sea","DUR",50.818,-0.412,0,"BN12 6BT","N/A","Toby Lewis 2009"
"Dyce","DYC",57.206,-2.192,0,"AB21 7EQ","N/A","Toby Lewis 2009"
"Dyffryn Ardudwy","DYF",52.789,-4.105,0,"LL42 2EU","N/A","Toby Lewis 2009"
"Eaglescliffe","EAG",54.530,-1.349,0,"TS16 0BT","N/A","Toby Lewis 2009"
"Ealing Broadway","EAL",51.515,-0.302,0,,"N/A","Toby Lewis 2009"
"Earlestown","ERL",53.451,-2.636,0,"WA12 9AU","N/A","Toby Lewis 2009"
"Earley","EAR",51.441,-0.918,0,"RG6 2DY","N/A","Toby Lewis 2009"
"Earlsfield","EAD",51.442,-0.188,0,"SW18 4SL","N/A","Toby Lewis 2009"
"Earlswood (Surrey)","ELD",51.228,-0.171,0,"RH1 6HR","N/A","Toby Lewis 2009"
"Earlswood (West Midlands)","EWD",52.367,-1.861,0,,"N/A","Toby Lewis 2009"
"East Croydon","ECR",51.375,-0.093,0,"CR0 1LF","N/A","Toby Lewis 2009"
"East Didsbury","EDY",53.409,-2.222,0,,"N/A","Toby Lewis 2009"
"East Dulwich","EDW",51.462,-0.080,0,"SE22 8EF","N/A","Toby Lewis 2009"
"East Farleigh","EFL",51.255,0.485,0,"ME15 0JH","N/A","Toby Lewis 2009"
"East Garforth","EGF",53.792,-1.371,0,"LS25 2JW","N/A","Toby Lewis 2009"
"East Grinstead","EGR",51.126,-0.018,0,"RH19 1EB","N/A","Toby Lewis 2009"
"East Kilbride","EKL",55.766,-4.180,0,,"N/A","Toby Lewis 2009"
"East Malling","EML",51.286,0.439,0,"ME19 6AJ","N/A","Toby Lewis 2009"
"East Tilbury","ETL",51.485,0.413,0,"RM18 8SB","N/A","Toby Lewis 2009"
"East Worthing","EWR",50.821,-0.355,0,"BN14 8ED","N/A","Toby Lewis 2009"
"Eastbourne","EBN",50.769,0.281,0,"BN21 3QJ","N/A","Toby Lewis 2009"
"Eastbrook","EBK",51.438,-3.206,0,"CF64 4LD","N/A","Toby Lewis 2009"
"Easterhouse","EST",55.860,-4.107,0,,"N/A","Toby Lewis 2009"
"Eastham Rake","ERA",53.308,-2.981,0,"CH62 9AL","N/A","Toby Lewis 2009"
"Eastleigh","ESL",50.969,-1.350,0,"SO50 4FL","N/A","Toby Lewis 2009"
"Eastrington","EGN",53.755,-0.788,0,"DN14 7PX","N/A","Toby Lewis 2009"
"Ebbw Vale Parkway","EBV",51.757,-3.196,0,"NP23 8AP","N/A","Toby Lewis 2009"
"Eccles","ECC",53.485,-2.334,0,,"N/A","Toby Lewis 2009"
"Eccles Road","ECS",52.471,0.970,0,"NR16 2JG","N/A","Toby Lewis 2009"
"Eccleston Park","ECL",53.431,-2.780,0,,"N/A","Toby Lewis 2009"
"Edale","EDL",53.365,-1.817,0,,"N/A","Toby Lewis 2009"
"Eden Park","EDN",51.390,-0.026,0,"BR3 3DE","N/A","Toby Lewis 2009"
"Edenbridge","EBR",51.209,0.061,0,"TN8 6HR","N/A","Toby Lewis 2009"
"Edenbridge Town","EBT",51.200,0.067,0,"TN8 5LP","N/A","Toby Lewis 2009"
"Edge Hill","EDG",53.403,-2.949,0,,"N/A","Toby Lewis 2009"
"Edinburgh Waverley","EDB",55.952,-3.190,0,"EH1 1BB","N/A","Toby Lewis 2009"
"Edinburgh Park","EDP",55.927,-3.307,0,"EH8 8JA","N/A","Toby Lewis 2009"
"Edmonton Green","EDR",51.624,-0.062,0,,"N/A","Toby Lewis 2009"
"Effingham Junction","EFF",51.292,-0.421,0,"KT24 5HX","N/A","Toby Lewis 2009"
"Eggesford","EGG",50.888,-3.875,0,"EX18 7JZ","N/A","Toby Lewis 2009"
"Egham","EGH",51.429,-0.547,0,"TW20 9LB","N/A","Toby Lewis 2009"
"Egton","EGT",54.438,-0.761,0,"YO21 1UX","N/A","Toby Lewis 2009"
"Elephant & Castle","EPH",51.494,-0.099,0,"SE17 1LB","N/A","Toby Lewis 2009"
"Elgin","ELG",57.643,-3.311,0,"IV30 1QP","N/A","Toby Lewis 2009"
"Ellesmere Port","ELP",53.282,-2.896,0,"CH65 4AR","N/A","Toby Lewis 2009"
"Elmers End","ELE",51.398,-0.048,0,"BR3 4EJ","N/A","Toby Lewis 2009"
"Elmstead Woods","ESD",51.417,0.044,0,"BR7 5EB","N/A","Toby Lewis 2009"
"Elmswell","ESW",52.238,0.912,0,"IP30 9HA","N/A","Toby Lewis 2009"
"Elsecar","ELR",53.499,-1.427,0,,"N/A","Toby Lewis 2009"
"Elsenham","ESM",51.921,0.228,0,"CM22 6HA","N/A","Toby Lewis 2009"
"Elstree & Borehamwood","ELS",51.653,-0.280,0,"WD6 3LS","N/A","Toby Lewis 2009"
"Eltham","ELW",51.456,0.052,0,"SE9 6SL","N/A","Toby Lewis 2009"
"Elton & Orston","ELO",52.952,-0.855,0,"NG19 9LH","N/A","Toby Lewis 2009"
"Ely","ELY",52.392,0.267,0,"CB7 4BS","N/A","Toby Lewis 2009"
"Emerson Park","EMP",51.569,0.220,0,"RM11 2JP","N/A","Toby Lewis 2009"
"Emsworth","EMS",50.851,-0.939,0,"PO10 7PN","N/A","Toby Lewis 2009"
"Enfield Chase","ENC",51.653,-0.091,0,"EN2 7AA","N/A","Toby Lewis 2009"
"Enfield Lock","ENL",51.671,-0.029,0,"EN3 6HA","N/A","Toby Lewis 2009"
"Enfield Town","ENF",51.652,-0.079,0,"EN1 1YX","N/A","Toby Lewis 2009"
"Entwistle","ENT",53.655,-2.414,0,"BL7 0NG","N/A","Toby Lewis 2009"
"Epsom","EPS",51.334,-0.269,0,"KT19 8EW","N/A","Toby Lewis 2009"
"Epsom Downs","EPD",51.324,-0.239,0,"KT17 4JX","N/A","Toby Lewis 2009"
"Erdington","ERD",52.528,-1.840,0,,"N/A","Toby Lewis 2009"
"Eridge","ERI",51.089,0.201,0,"TN3 9LE","N/A","Toby Lewis 2009"
"Erith","ERH",51.482,0.175,0,"DA8 1TY","N/A","Toby Lewis 2009"
"Esher","ESH",51.380,-0.353,0,"KT10 8DY","N/A","Toby Lewis 2009"
"Essex Road","EXR",51.541,-0.096,0,,"N/A","Toby Lewis 2009"
"Etchingham","ETC",51.011,0.442,0,"TN19 7PA","N/A","Toby Lewis 2009"
"London Euston","EUS",51.528,-0.134,0,"NW1 2RT","N/A","Toby Lewis 2009"
"Euxton Balshaw Lane","EBA",53.660,-2.672,0,"PR7 6DX","N/A","Toby Lewis 2009"
"Evesham","EVE",52.098,-1.947,0,"WR11 4EQ","N/A","Toby Lewis 2009"
"Ewell East","EWE",51.345,-0.242,0,"KT17 1QR","N/A","Toby Lewis 2009"
"Ewell West","EWW",51.350,-0.257,0,"KT17 1TU","N/A","Toby Lewis 2009"
"Exeter Central","EXC",50.726,-3.533,0,"EX4 3SB","N/A","Toby Lewis 2009"
"Exeter St Thomas","EXT",50.717,-3.539,0,"EX4 1AJ","N/A","Toby Lewis 2009"
"Exhibition Centre","EXG",55.861,-4.283,0,,"N/A","Toby Lewis 2009"
"Exmouth","EXM",50.622,-3.415,0,"EX8 1BZ","N/A","Toby Lewis 2009"
"Exton","EXN",50.668,-3.444,0,"EX3 0PR","N/A","Toby Lewis 2009"
"Eynsford","EYN",51.363,0.205,0,"DA4 0HP","N/A","Toby Lewis 2009"
"Failsworth","FLS",53.511,-2.163,0,,"N/A","Toby Lewis 2009"
"Fairbourne","FRB",52.696,-4.049,0,"LL38 2AQ","N/A","Toby Lewis 2009"
"Fairfield","FRF",53.471,-2.146,0,,"N/A","Toby Lewis 2009"
"Fairlie","FRL",55.752,-4.853,0,"KA29 0DJ","N/A","Toby Lewis 2009"
"Fairwater","FRW",51.494,-3.234,0,"CF5 3QE","N/A","Toby Lewis 2009"
"Falconwood","FCN",51.459,0.080,0,"SE9 2RN","N/A","Toby Lewis 2009"
"Falkirk Grahamston","FKG",56.002,-3.785,0,"FK2 7EZ","N/A","Toby Lewis 2009"
"Falkirk High","FKK",55.992,-3.793,0,"FK1 5QX","N/A","Toby Lewis 2009"
"Falls of Cruachan","FOC",56.394,-5.114,0,,"N/A","Toby Lewis 2009"
"Falmer","FMR",50.862,-0.088,0,"BN1 9PU","N/A","Toby Lewis 2009"
"Falmouth Docks","FAL",50.151,-5.056,0,"TR11 4LT","N/A","Toby Lewis 2009"
"Falmouth Town","FMT",50.148,-5.064,0,"TR11 4AZ","N/A","Toby Lewis 2009"
"Farnborough","FNB",51.297,-0.755,0,"GU14 7NL","N/A","Toby Lewis 2009"
"Farnborough North","FNN",51.302,-0.743,0,"GU14 2PL","N/A","Toby Lewis 2009"
"Farncombe","FNC",51.197,-0.605,0,"GU7 3NF","N/A","Toby Lewis 2009"
"Farnham","FNH",51.212,-0.792,0,"GU9 8AD","N/A","Toby Lewis 2009"
"Farningham Road","FNR",51.402,0.236,0,"DA4 9JB","N/A","Toby Lewis 2009"
"Farnworth","FNW",53.550,-2.387,0,"BL4 7QZ","N/A","Toby Lewis 2009"
"Farringdon","ZFD",51.520,-0.105,0,,"N/A","Toby Lewis 2009"
"Fauldhouse","FLD",55.822,-3.720,0,"EH47 9DJ","N/A","Toby Lewis 2009"
"Faversham","FAV",51.312,0.890,0,"ME13 8EB","N/A","Toby Lewis 2009"
"Faygate","FGT",51.096,-0.263,0,"RH12 4SJ","N/A","Toby Lewis 2009"
"Fazakerley","FAZ",53.469,-2.937,0,,"N/A","Toby Lewis 2009"
"Fearn","FRN",57.778,-3.994,0,"IV20 1RS","N/A","Toby Lewis 2009"
"Featherstone","FEA",53.679,-1.359,0,"WF7 7HJ","N/A","Toby Lewis 2009"
"Felixstowe","FLX",51.967,1.350,0,"IP11 9UD","N/A","Toby Lewis 2009"
"Feltham","FEL",51.448,-0.409,0,"TW13 4BY","N/A","Toby Lewis 2009"
"London Fenchurch Street","FST",51.512,-0.079,0,"EC3 4AJ","N/A","Toby Lewis 2009"
"Feniton","FNT",50.787,-3.285,0,"EX14 9AB","N/A","Toby Lewis 2009"
"Fenny Stratford","FEN",52.000,-0.718,0,"MK2 2XP","N/A","Toby Lewis 2009"
"Fernhill","FER",51.687,-3.396,0,"CF45 3DP","N/A","Toby Lewis 2009"
"Ferriby","FRY",53.717,-0.507,0,"HU14 3DJ","N/A","Toby Lewis 2009"
"Ferryside","FYS",51.769,-4.369,0,"SA17 5TD","N/A","Toby Lewis 2009"
"Ffairfach","FFA",51.873,-3.993,0,"SA19 6UL","N/A","Toby Lewis 2009"
"Filey","FIL",54.210,-0.294,0,"YO14 9PE","N/A","Toby Lewis 2009"
"Finchley Road & Frognal","FNY",51.550,-0.183,0,"NW3 6BP","N/A","Toby Lewis 2009"
"Finsbury Park","FPK",51.565,-0.106,0,,"N/A","Toby Lewis 2009"
"Finstock","FIN",51.853,-1.470,0,"OX7 5RF","N/A","Toby Lewis 2009"
"Fishbourne","FSB",50.839,-0.815,0,"PO19 3QH","N/A","Toby Lewis 2009"
"Fishersgate","FSG",50.834,-0.219,0,"BN4 1LJ","N/A","Toby Lewis 2009"
"Fishguard Harbour","FGH",52.010,-4.987,0,"SA64 0BU","N/A","Toby Lewis 2009"
"Fiskerton","FSK",53.060,-0.912,0,"NG25 0TR","N/A","Toby Lewis 2009"
"Fitzwilliam","FZW",53.632,-1.373,0,"WF9 5DA","N/A","Toby Lewis 2009"
"Five Ways","FWY",52.471,-1.913,0,,"N/A","Toby Lewis 2009"
"Fleet","FLE",51.290,-0.832,0,"GU51 3QY","N/A","Toby Lewis 2009"
"Flimby","FLM",54.690,-3.520,0,"CA15 8QN","N/A","Toby Lewis 2009"
"Flint","FLN",53.250,-3.132,0,"CH6 5PG","N/A","Toby Lewis 2009"
"Flitwick","FLT",52.004,-0.495,0,"MK45 1AJ","N/A","Toby Lewis 2009"
"Flixton","FLI",53.444,-2.384,0,,"N/A","Toby Lewis 2009"
"Flowery Field","FLF",53.462,-2.081,0,"SK14 4BZ","N/A","Toby Lewis 2009"
"Folkestone Central","FKC",51.083,1.170,0,"CT19 5HB","N/A","Toby Lewis 2009"
"Folkestone West","FKW",51.085,1.153,0,"CT20 3PA","N/A","Toby Lewis 2009"
"Ford","FOD",50.829,-0.579,0,"BN18 0BH","N/A","Toby Lewis 2009"
"Forest Gate","FOG",51.549,0.024,0,,"N/A","Toby Lewis 2009"
"Forest Hill","FOH",51.439,-0.053,0,"SE23 2LD","N/A","Toby Lewis 2009"
"Formby","FBY",53.554,-3.071,0,,"N/A","Toby Lewis 2009"
"Forres","FOR",57.609,-3.626,0,"IV36 0EL","N/A","Toby Lewis 2009"
"Forsinard","FRS",58.357,-3.897,0,,"N/A","Toby Lewis 2009"
"Fort Matilda","FTM",55.959,-4.795,0,"PA16 7TS","N/A","Toby Lewis 2009"
"Fort William","FTW",56.820,-5.106,0,"PH33 6TQ","N/A","Toby Lewis 2009"
"Four Oaks","FOK",52.580,-1.828,0,,"N/A","Toby Lewis 2009"
"Foxfield","FOX",54.259,-3.216,0,"LA20 6BX","N/A","Toby Lewis 2009"
"Foxton","FXN",52.119,0.056,0,"CB2 6SJ","N/A","Toby Lewis 2009"
"Frant","FRT",51.104,0.295,0,"TN3 9BJ","N/A","Toby Lewis 2009"
"Freshfield","FRE",53.566,-3.072,0,,"N/A","Toby Lewis 2009"
"Frimley","FML",51.312,-0.747,0,"GU16 5EW","N/A","Toby Lewis 2009"
"Frinton on Sea","FRI",51.838,1.243,0,"CO13 9JT","N/A","Toby Lewis 2009"
"Frizinghall","FZH",53.820,-1.769,0,"BD9 4LD","N/A","Toby Lewis 2009"
"Frodsham","FRD",53.296,-2.724,0,"WA6 7DN","N/A","Toby Lewis 2009"
"Fulwell","FLW",51.434,-0.351,0,"TW2 5NY","N/A","Toby Lewis 2009"
"Furness Vale","FNV",53.349,-1.989,0,"SK12 7QA","N/A","Toby Lewis 2009"
"Furze Platt","FZP",51.533,-0.729,0,"SL6 7NY","N/A","Toby Lewis 2009"
"Gainsborough Central","GNB",53.398,-0.770,0,"DN21 1XR","N/A","Toby Lewis 2009"
"Gainsborough Lea Road","GBL",53.386,-0.769,0,"DN21 1AH","N/A","Toby Lewis 2009"
"Garelochhead","GCH",56.080,-4.826,0,,"N/A","Toby Lewis 2009"
"Garforth","GRF",53.797,-1.383,0,"LS25 1PY","N/A","Toby Lewis 2009"
"Gargrave","GGV",53.978,-2.105,0,"BD23 3NE","N/A","Toby Lewis 2009"
"Garrowhill","GAR",55.855,-4.129,0,,"N/A","Toby Lewis 2009"
"Garscadden","GRS",55.888,-4.365,0,,"N/A","Toby Lewis 2009"
"Garsdale","GSD",54.321,-2.327,0,"LA10 5PQ","N/A","Toby Lewis 2009"
"Garston (Hertfordshire)","GSN",51.687,-0.382,0,"WD17 1EU","N/A","Toby Lewis 2009"
"Garswood","GSW",53.488,-2.672,0,"WN4 0SA","N/A","Toby Lewis 2009"
"Gartcosh","GRH",55.886,-4.079,0,,"N/A","Toby Lewis 2009"
"Garth (Mid-Glamorgan)","GMG",51.597,-3.643,0,"CF34 9HS","N/A","Toby Lewis 2009"
"Garth (Powys)","GTH",52.133,-3.531,0,"LD4 4AF","N/A","Toby Lewis 2009"
"Garve","GVE",57.613,-4.688,0,"IV23 2QF","N/A","Toby Lewis 2009"
"Gathurst","GST",53.560,-2.694,0,"WN5 0LW","N/A","Toby Lewis 2009"
"Gatley","GTY",53.393,-2.231,0,"SK8 4AE","N/A","Toby Lewis 2009"
"Gatwick Airport","GTW",51.157,-0.161,0,"RH6 0RD","N/A","Toby Lewis 2009"
"Georgemas Junction","GGJ",58.513,-3.452,0,"KW12 6HH","N/A","Toby Lewis 2009"
"Gerrards Cross","GER",51.589,-0.555,0,"SL9 8PP","N/A","Toby Lewis 2009"
"Gidea Park","GDP",51.581,0.206,0,"RM2 6BX","N/A","Toby Lewis 2009"
"Giffnock","GFN",55.804,-4.293,0,,"N/A","Toby Lewis 2009"
"Giggleswick","GIG",54.062,-2.303,0,"BD24 0EA","N/A","Toby Lewis 2009"
"Gilberdyke","GBD",53.748,-0.733,0,"HU15 2SU","N/A","Toby Lewis 2009"
"Gilfach Fargoed","GFF",51.684,-3.227,0,"CF81 8LT","N/A","Toby Lewis 2009"
"Gillingham (Dorset)","GIL",51.034,-2.273,0,"SP8 4PZ","N/A","Toby Lewis 2009"
"Gillingham (Kent)","GLM",51.387,0.551,0,"ME7 1XE","N/A","Toby Lewis 2009"
"Gilshochill","GSC",55.898,-4.283,0,,"N/A","Toby Lewis 2009"
"Gipsy Hill","GIP",51.425,-0.084,0,"SE19 1QL","N/A","Toby Lewis 2009"
"Girvan","GIR",55.247,-4.849,0,"KA26 9HF","N/A","Toby Lewis 2009"
"Glaisdale","GLS",54.439,-0.794,0,"YO21 2QL","N/A","Toby Lewis 2009"
"Glan Conwy","GCW",53.269,-3.798,0,"LL28 5ED","N/A","Toby Lewis 2009"
"Glasgow Central","GLC",55.859,-4.258,0,,"N/A","Toby Lewis 2009"
"Glasgow Queen Street","GLQ",55.862,-4.251,0,,"N/A","Toby Lewis 2009"
"Glasshoughton","GLH",53.709,-1.342,0,"WF10 4TA","N/A","Toby Lewis 2009"
"Glazebrook","GLZ",53.428,-2.460,0,"WA3 5BA","N/A","Toby Lewis 2009"
"Gleneagles","GLE",56.275,-3.732,0,"PH3 1JL","N/A","Toby Lewis 2009"
"Glenfinnan","GLF",56.872,-5.449,0,"PH37 4LS","N/A","Toby Lewis 2009"
"Glengarnock","GLG",55.739,-4.675,0,"KA14 3AT","N/A","Toby Lewis 2009"
"Glenrothes with Thornton","GLT",56.162,-3.144,0,"KY1 4AE","N/A","Toby Lewis 2009"
"Glossop","GLO",53.444,-1.949,0,"SK13 8BS","N/A","Toby Lewis 2009"
"Glynde","GLY",50.859,0.070,0,"BN8 6RU","N/A","Toby Lewis 2009"
"Gobowen","GOB",52.894,-3.037,0,"SY11 3JS","N/A","Toby Lewis 2009"
"Godalming","GOD",51.187,-0.618,0,"GU7 1EU","N/A","Toby Lewis 2009"
"Godley","GDL",53.452,-2.056,0,"SK14 4DP","N/A","Toby Lewis 2009"
"Godstone","GDN",51.218,-0.051,0,"RH9 8EU","N/A","Toby Lewis 2009"
"Goldthorpe","GOE",53.533,-1.313,0,,"N/A","Toby Lewis 2009"
"Golf Street","GOF",56.498,-2.720,0,"DD7 7JG","N/A","Toby Lewis 2009"
"Golspie","GOL",57.971,-3.987,0,"KW10 6SZ","N/A","Toby Lewis 2009"
"Gomshall","GOM",51.220,-0.442,0,"GU5 9NX","N/A","Toby Lewis 2009"
"Goodmayes","GMY",51.566,0.111,0,"IG3 9UH","N/A","Toby Lewis 2009"
"Goole","GOO",53.705,-0.874,0,"DN14 5DD","N/A","Toby Lewis 2009"
"Goostrey","GTR",53.223,-2.326,0,"CW4 8PJ","N/A","Toby Lewis 2009"
"Gordon Hill","GDH",51.663,-0.094,0,"EN2 0QU","N/A","Toby Lewis 2009"
"Goring & Streatley","GOR",51.522,-1.133,0,"RG8 0EP","N/A","Toby Lewis 2009"
"Goring-by-Sea","GBS",50.818,-0.434,0,"BN12 6NT","N/A","Toby Lewis 2009"
"Gorton","GTO",53.469,-2.167,0,,"N/A","Toby Lewis 2009"
"Gospel Oak","GPO",51.555,-0.151,0,"NW5 1LT","N/A","Toby Lewis 2009"
"Gourock","GRK",55.962,-4.816,0,"PA19 1QR","N/A","Toby Lewis 2009"
"Gowerton","GWN",51.649,-4.035,0,"SA4 3AJ","N/A","Toby Lewis 2009"
"Goxhill","GOX",53.677,-0.337,0,"DN19 7HS","N/A","Toby Lewis 2009"
"Grange Park","GPK",51.643,-0.097,0,,"N/A","Toby Lewis 2009"
"Grange-Over-Sands","GOS",54.196,-2.903,0,"LA11 6EH","N/A","Toby Lewis 2009"
"Grangetown","GTN",51.468,-3.190,0,"CF11 8UY","N/A","Toby Lewis 2009"
"Grantham","GRA",52.907,-0.643,0,"NG31 6BT","N/A","Toby Lewis 2009"
"Grateley","GRT",51.170,-1.620,0,"SP11 8TA","N/A","Toby Lewis 2009"
"Gravelly Hill","GVH",52.515,-1.853,0,,"N/A","Toby Lewis 2009"
"Gravesend","GRV",51.441,0.366,0,"DA11 0HP","N/A","Toby Lewis 2009"
"Grays","GRY",51.476,0.321,0,"RM17 6NQ","N/A","Toby Lewis 2009"
"Great Ayton","GTA",54.490,-1.116,0,"TS9 6HR","N/A","Toby Lewis 2009"
"Great Bentley","GRB",51.852,1.065,0,"CO7 8LH","N/A","Toby Lewis 2009"
"Great Chesterford","GRC",52.060,0.194,0,"CB10 1NY","N/A","Toby Lewis 2009"
"Great Coates","GCT",53.576,-0.130,0,"DN37 9NH","N/A","Toby Lewis 2009"
"Great Missenden","GMN",51.704,-0.709,0,"HP16 9AZ","N/A","Toby Lewis 2009"
"Great Yarmouth","GYM",52.612,1.721,0,"NR30 1SD","N/A","Toby Lewis 2009"
"Green Lane","GNL",53.383,-3.016,0,"CH41 9AN","N/A","Toby Lewis 2009"
"Green Road","GNR",54.245,-3.246,0,"LA18 5HR","N/A","Toby Lewis 2009"
"Greenbank","GBK",53.252,-2.534,0,"CW9 7NJ","N/A","Toby Lewis 2009"
"Greenfaulds","GRL",55.935,-3.994,0,,"N/A","Toby Lewis 2009"
"Greenfield","GNF",53.539,-2.014,0,"OL3 7JZ","N/A","Toby Lewis 2009"
"Greenford","GFD",51.543,-0.346,0,"UB6 8PX","N/A","Toby Lewis 2009"
"Greenhithe for Bluewater","GNH",51.451,0.279,0,"DA9 9NQ","N/A","Toby Lewis 2009"
"Greenock Central","GKC",55.946,-4.752,0,"PA15 1DH","N/A","Toby Lewis 2009"
"Greenock West","GKW",55.947,-4.768,0,"PA15 1TE","N/A","Toby Lewis 2009"
"Greenwich","GNW",51.478,-0.013,0,"SE10 8JQ","N/A","Toby Lewis 2009"
"Gretna Green","GEA",55.001,-3.065,0,"DG16 5HF","N/A","Toby Lewis 2009"
"Grimsby Docks","GMD",53.574,-0.076,0,"DN31 3PB","N/A","Toby Lewis 2009"
"Grimsby Town","GMB",53.564,-0.087,0,"DN31 1LY","N/A","Toby Lewis 2009"
"Grindleford","GRN",53.305,-1.625,0,,"N/A","Toby Lewis 2009"
"Grosmont","GMT",54.436,-0.725,0,"YO22 5QE","N/A","Toby Lewis 2009"
"Grove Park","GRP",51.431,0.022,0,"SE12 0DZ","N/A","Toby Lewis 2009"
"Guide Bridge","GUI",53.475,-2.114,0,,"N/A","Toby Lewis 2009"
"Guildford","GLD",51.237,-0.580,0,"GU1 4UT","N/A","Toby Lewis 2009"
"Guiseley","GSY",53.876,-1.715,0,"LS20 8BX","N/A","Toby Lewis 2009"
"Gunnersbury","GUN",51.492,-0.275,0,,"N/A","Toby Lewis 2009"
"Gunnislake","GSL",50.516,-4.220,0,"PL18 9DZ","N/A","Toby Lewis 2009"
"Gunton","GNT",52.866,1.350,0,"NR11 8UD","N/A","Toby Lewis 2009"
"Gwersyllt","GWE",53.073,-3.018,0,"LL11 4LD","N/A","Toby Lewis 2009"
"Gypsy Lane","GYP",54.533,-1.180,0,"TS7 0DY","N/A","Toby Lewis 2009"
"Habrough","HAB",53.606,-0.269,0,"DN40 3AB","N/A","Toby Lewis 2009"
"Hackbridge","HCB",51.378,-0.154,0,"SM6 7BJ","N/A","Toby Lewis 2009"
"Hackney Central","HKC",51.547,-0.055,0,,"N/A","Toby Lewis 2009"
"Hackney Downs","HAC",51.548,-0.060,0,,"N/A","Toby Lewis 2009"
"Hackney Wick","HKW",51.543,-0.025,0,,"N/A","Toby Lewis 2009"
"Haddenham & Thame Parkway","HDM",51.771,-0.943,0,"HP17 8EP","N/A","Toby Lewis 2009"
"Haddiscoe","HAD",52.529,1.623,0,"NR31 9JA","N/A","Toby Lewis 2009"
"Hadfield","HDF",53.461,-1.965,0,,"N/A","Toby Lewis 2009"
"Hadley Wood","HDW",51.669,-0.176,0,"EN4 0EL","N/A","Toby Lewis 2009"
"Hag Fold","HGF",53.534,-2.495,0,,"N/A","Toby Lewis 2009"
"Hagley","HAG",52.422,-2.146,0,"DY9 0NX","N/A","Toby Lewis 2009"
"Hairmyres","HMY",55.762,-4.220,0,,"N/A","Toby Lewis 2009"
"Hale","HAL",53.379,-2.348,0,"WA14 2UZ","N/A","Toby Lewis 2009"
"Halesworth","HAS",52.347,1.506,0,"IP19 8BZ","N/A","Toby Lewis 2009"
"Halewood","HED",53.365,-2.830,0,,"N/A","Toby Lewis 2009"
"Halifax","HFX",53.721,-1.854,0,"HX1 1QE","N/A","Toby Lewis 2009"
"Hall Green","HLG",52.437,-1.846,0,,"N/A","Toby Lewis 2009"
"Hall I Th Wood","HID",53.597,-2.413,0,"BL1 8UF","N/A","Toby Lewis 2009"
"Hall Road","HLR",53.498,-3.050,0,,"N/A","Toby Lewis 2009"
"Halling","HAI",51.352,0.445,0,"ME1 1BN","N/A","Toby Lewis 2009"
"Haltwhistle","HWH",54.968,-2.463,0,"NE49 0AH","N/A","Toby Lewis 2009"
"Ham Street","HMT",51.069,0.854,0,"TN26 2DP","N/A","Toby Lewis 2009"
"Hamble","HME",50.871,-1.328,0,"SO31 4NL","N/A","Toby Lewis 2009"
"Hamilton Central","HNC",55.773,-4.039,0,"ML3 6PB","N/A","Toby Lewis 2009"
"Hamilton West","HNW",55.779,-4.055,0,"ML03 0DA","N/A","Toby Lewis 2009"
"Hammerton","HMM",53.996,-1.284,0,"YO5 8DG","N/A","Toby Lewis 2009"
"Hampden Park","HMD",50.796,0.279,0,"BN22 9ND","N/A","Toby Lewis 2009"
"Hampstead Heath","HDH",51.555,-0.166,0,"NW3 2QD","N/A","Toby Lewis 2009"
"Hampton","HMP",51.416,-0.372,0,"TW12 2HU","N/A","Toby Lewis 2009"
"Hampton Court","HMC",51.402,-0.342,0,"KT8 9AE","N/A","Toby Lewis 2009"
"Hampton Wick","HMW",51.415,-0.312,0,"KT1 4DQ","N/A","Toby Lewis 2009"
"Hampton-in-Arden","HIA",52.429,-1.700,0,,"N/A","Toby Lewis 2009"
"Hamstead","HSD",52.531,-1.929,0,,"N/A","Toby Lewis 2009"
"Hamworthy","HAM",50.725,-2.019,0,"BH16 5AA","N/A","Toby Lewis 2009"
"Hanborough","HND",51.825,-1.373,0,"OX8 6TF","N/A","Toby Lewis 2009"
"Handforth","HTH",53.347,-2.214,0,"SK9 3AB","N/A","Toby Lewis 2009"
"Hanwell","HAN",51.512,-0.339,0,,"N/A","Toby Lewis 2009"
"Hapton","HPN",53.782,-2.317,0,"BB12 7LG","N/A","Toby Lewis 2009"
"Harlech","HRL",52.862,-4.110,0,"LL46 2UL","N/A","Toby Lewis 2009"
"Harlesden","HDN",51.536,-0.258,0,"NW10 7AA","N/A","Toby Lewis 2009"
"Harling Road","HRD",52.454,0.910,0,"NR16 2QP","N/A","Toby Lewis 2009"
"Harlington","HLN",51.962,-0.495,0,"LU5 6LD","N/A","Toby Lewis 2009"
"Harlow Mill","HWM",51.790,0.132,0,"CM20 2EL","N/A","Toby Lewis 2009"
"Harlow Town","HWN",51.781,0.095,0,"CM20 2JD","N/A","Toby Lewis 2009"
"Harold Wood","HRO",51.593,0.233,0,"RM3 0BL","N/A","Toby Lewis 2009"
"Harpenden","HPD",51.815,-0.352,0,"AL5 4ST","N/A","Toby Lewis 2009"
"Harrietsham","HRM",51.245,0.672,0,"ME17 1JA","N/A","Toby Lewis 2009"
"Harringay","HGY",51.577,-0.105,0,,"N/A","Toby Lewis 2009"
"Harringay Green Lanes","HRY",51.577,-0.098,0,,"N/A","Toby Lewis 2009"
"Harrington","HRR",54.614,-3.565,0,"CA14 5QQ","N/A","Toby Lewis 2009"
"Harrogate","HGT",53.993,-1.537,0,"HG1 1TE","N/A","Toby Lewis 2009"
"Harrow & Wealdstone","HRW",51.592,-0.335,0,"HA3 5BP","N/A","Toby Lewis 2009"
"Harrow-on-the-Hill","HOH",51.579,-0.337,0,"HA1 1BB","N/A","Toby Lewis 2009"
"Hartford","HTF",53.242,-2.554,0,"CW8 1QX","N/A","Toby Lewis 2009"
"Hartlebury","HBY",52.334,-2.221,0,"DY10 4HB","N/A","Toby Lewis 2009"
"Hartlepool","HPL",54.687,-1.208,0,"TS24 7ED","N/A","Toby Lewis 2009"
"Hartwood","HTW",55.811,-3.839,0,"ML7 7DU","N/A","Toby Lewis 2009"
"Harwich International","HPQ",51.947,1.254,0,"CO12 4SR","N/A","Toby Lewis 2009"
"Harwich Town","HWC",51.944,1.287,0,"CO12 3NA","N/A","Toby Lewis 2009"
"Haslemere","HSL",51.089,-0.720,0,"GU27 2PE","N/A","Toby Lewis 2009"
"Hassocks","HSK",50.925,-0.146,0,"BN6 8JD","N/A","Toby Lewis 2009"
"Hastings","HGS",50.858,0.576,0,"TN34 1BA","N/A","Toby Lewis 2009"
"Hatch End","HTE",51.610,-0.370,0,"HA5 4HU","N/A","Toby Lewis 2009"
"Hatfield (Herts)","HAT",51.764,-0.215,0,"AL9 5AB","N/A","Toby Lewis 2009"
"Hatfield & Stainforth","HFS",53.589,-1.024,0,"DN7 4EQ","N/A","Toby Lewis 2009"
"Hatfield Peverel","HAP",51.780,0.592,0,"CM3 2DX","N/A","Toby Lewis 2009"
"Hathersage","HSG",53.326,-1.652,0,,"N/A","Toby Lewis 2009"
"Hattersley","HTY",53.446,-2.041,0,"SK14 3HG","N/A","Toby Lewis 2009"
"Hatton","HTN",52.295,-1.673,0,"CV35 7LE","N/A","Toby Lewis 2009"
"Havenhouse","HVN",53.115,0.274,0,"PE24 4AR","N/A","Toby Lewis 2009"
"Haverfordwest","HVF",51.803,-4.959,0,"SA61 1TY","N/A","Toby Lewis 2009"
"Hawarden","HWD",53.185,-3.032,0,"CH5 1PY","N/A","Toby Lewis 2009"
"Hawarden Bridge","HWB",53.218,-3.033,0,"CH5 1PY","N/A","Toby Lewis 2009"
"Hawkhead","HKH",55.842,-4.399,0,"PA2 7BB","N/A","Toby Lewis 2009"
"Haydon Bridge","HDB",54.975,-2.248,0,"NE47 6LL","N/A","Toby Lewis 2009"
"Haydons Road","HYR",51.426,-0.189,0,"SW19 8SL","N/A","Toby Lewis 2009"
"Hayes & Harlington","HAY",51.503,-0.420,0,"UB3 4BX","N/A","Toby Lewis 2009"
"Hayes (Kent)","HYS",51.376,0.010,0,"BR2 7EN","N/A","Toby Lewis 2009"
"Hayle","HYL",50.185,-5.420,0,"TR27 4NG","N/A","Toby Lewis 2009"
"Haymarket","HYM",55.946,-3.218,0,"EH12 5EY","N/A","Toby Lewis 2009"
"Haywards Heath","HHE",51.006,-0.105,0,"RH16 1DJ","N/A","Toby Lewis 2009"
"Hazel Grove","HAZ",53.378,-2.122,0,"SK7 4EX","N/A","Toby Lewis 2009"
"Headcorn","HCN",51.166,0.628,0,"TN27 9SD","N/A","Toby Lewis 2009"
"Headingley","HDY",53.818,-1.594,0,"LS5 3LD","N/A","Toby Lewis 2009"
"Headstone Lane","HDL",51.603,-0.357,0,"HA2 6NB","N/A","Toby Lewis 2009"
"Heald Green","HDG",53.369,-2.237,0,"SK8 3DY","N/A","Toby Lewis 2009"
"Healing","HLI",53.582,-0.161,0,"DN37 7RY","N/A","Toby Lewis 2009"
"Heath High Level","HHL",51.517,-3.182,0,"CF23 5QT","N/A","Toby Lewis 2009"
"Heath Low Level","HLL",51.516,-3.182,0,"CF14 3RT","N/A","Toby Lewis 2009"
"Heathrow Airport T123","HXX",51.471,-0.456,0,,"N/A","Toby Lewis 2009"
"Heathrow Airport T4","HAF",51.459,-0.446,0,"TW6 3AA","N/A","Toby Lewis 2009"
"Heathrow Terminal 5","HWV",51.470,-0.490,0,,"N/A","Toby Lewis 2009"
"Heaton Chapel","HTC",53.425,-2.179,0,"SK4 4NX","N/A","Toby Lewis 2009"
"Hebden Bridge","HBD",53.738,-2.009,0,"HX7 6JE","N/A","Toby Lewis 2009"
"Heckington","HEC",52.977,-0.294,0,"NG34 9UJ","N/A","Toby Lewis 2009"
"Hedge End","HDE",50.933,-1.295,0,"SO30 2RZ","N/A","Toby Lewis 2009"
"Hednesford","HNF",52.710,-2.001,0,"WS12 1AZ","N/A","Toby Lewis 2009"
"Heighington","HEI",54.597,-1.581,0,"DL5 6PX","N/A","Toby Lewis 2009"
"Helensburgh Central","HLC",56.004,-4.732,0,,"N/A","Toby Lewis 2009"
"Helensburgh Upper","HLU",56.012,-4.729,0,,"N/A","Toby Lewis 2009"
"Hellifield","HLD",54.011,-2.227,0,"BD23 4HN","N/A","Toby Lewis 2009"
"Helmsdale","HMS",58.118,-3.659,0,"KW8 6HH","N/A","Toby Lewis 2009"
"Helsby","HSB",53.275,-2.771,0,"WA6 0AE","N/A","Toby Lewis 2009"
"Hemel Hempstead","HML",51.742,-0.491,0,"HP3 9BQ","N/A","Toby Lewis 2009"
"Hendon","HEN",51.580,-0.239,0,"NW4 4PN","N/A","Toby Lewis 2009"
"Hengoed","HNG",51.647,-3.226,0,"CF82 7LT","N/A","Toby Lewis 2009"
"Henley-in-Arden","HNL",52.292,-1.784,0,,"N/A","Toby Lewis 2009"
"Henley-on-Thames","HOT",51.534,-0.900,0,"RG9 1AY","N/A","Toby Lewis 2009"
"Hensall","HEL",53.699,-1.115,0,"DN14 0QN","N/A","Toby Lewis 2009"
"Hereford","HFD",52.061,-2.709,0,"HR1 1BB","N/A","Toby Lewis 2009"
"Herne Bay","HNB",51.365,1.118,0,"CT6 8PJ","N/A","Toby Lewis 2009"
"Herne Hill","HNH",51.453,-0.102,0,"SE24 0JW","N/A","Toby Lewis 2009"
"Hersham","HER",51.377,-0.390,0,"KT12 4SQ","N/A","Toby Lewis 2009"
"Hertford East","HFE",51.799,-0.072,0,"SG14 1SB","N/A","Toby Lewis 2009"
"Hertford North","HFN",51.799,-0.092,0,"SG14 1NB","N/A","Toby Lewis 2009"
"Hessle","HES",53.718,-0.441,0,"HU13 0EL","N/A","Toby Lewis 2009"
"Heswall","HSW",53.330,-3.074,0,"CH60 1XQ","N/A","Toby Lewis 2009"
"Hever","HEV",51.181,0.095,0,"TN8 7ER","N/A","Toby Lewis 2009"
"Heworth","HEW",54.952,-1.556,0,"NE10 0NE","N/A","Toby Lewis 2009"
"Hexham","HEX",54.973,-2.095,0,"NE46 1EU","N/A","Toby Lewis 2009"
"Heyford","HYD",51.919,-1.300,0,"OX6 8UL","N/A","Toby Lewis 2009"
"Heysham Port","HHB",54.033,-2.914,0,"LA3 2XE","N/A","Toby Lewis 2009"
"High Brooms","HIB",51.149,0.277,0,"TN2 3XE","N/A","Toby Lewis 2009"
"High Wycombe","HWY",51.630,-0.747,0,"HP13 6NN","N/A","Toby Lewis 2009"
"Higham","HGM",51.427,0.465,0,"ME3 7JQ","N/A","Toby Lewis 2009"
"Highams Park","HIP",51.609,0.000,0,,"N/A","Toby Lewis 2009"
"Highbury & Islington","HHY",51.546,-0.104,0,,"N/A","Toby Lewis 2009"
"Hightown","HTO",53.525,-3.057,0,,"N/A","Toby Lewis 2009"
"Hildenborough","HLB",51.215,0.227,0,"TN11 8LX","N/A","Toby Lewis 2009"
"Hillfoot","HLF",55.920,-4.321,0,,"N/A","Toby Lewis 2009"
"Hillington East","HLE",55.854,-4.355,0,,"N/A","Toby Lewis 2009"
"Hillington West","HLW",55.856,-4.372,0,,"N/A","Toby Lewis 2009"
"Hillside","HIL",53.622,-3.025,0,"PR8 4QR","N/A","Toby Lewis 2009"
"Hilsea","HLS",50.828,-1.059,0,"PO3 5PT","N/A","Toby Lewis 2009"
"Hinchley Wood","HYW",51.375,-0.341,0,"KT10 0SR","N/A","Toby Lewis 2009"
"Hinckley","HNK",52.535,-1.371,0,"LE10 1UE","N/A","Toby Lewis 2009"
"Hindley","HIN",53.542,-2.576,0,"WN2 2QJ","N/A","Toby Lewis 2009"
"Hinton Admiral","HNA",50.752,-1.714,0,"BH23 5AE","N/A","Toby Lewis 2009"
"Hitchin","HIT",51.953,-0.263,0,"SG4 9UL","N/A","Toby Lewis 2009"
"Hither Green","HGR",51.452,-0.001,0,"SE13 5NF","N/A","Toby Lewis 2009"
"Hockley","HOC",51.604,0.659,0,"SS5 4BG","N/A","Toby Lewis 2009"
"Hollingbourne","HBN",51.265,0.628,0,"ME17 1TX","N/A","Toby Lewis 2009"
"Hollinwood","HOD",53.520,-2.147,0,,"N/A","Toby Lewis 2009"
"Holmes Chapel","HCH",53.199,-2.352,0,"CW4 8AA","N/A","Toby Lewis 2009"
"Holmwood","HLM",51.181,-0.321,0,"RH5 4RB","N/A","Toby Lewis 2009"
"Holton Heath","HOL",50.712,-2.078,0,"BH16 6JT","N/A","Toby Lewis 2009"
"Holyhead","HHD",53.308,-4.630,0,"LL65 2BT","N/A","Toby Lewis 2009"
"Holytown","HLY",55.813,-3.974,0,"ML1 4HD","N/A","Toby Lewis 2009"
"Homerton","HMN",51.547,-0.042,0,,"N/A","Toby Lewis 2009"
"Honeybourne","HYB",52.101,-1.833,0,"WR11 6RD","N/A","Toby Lewis 2009"
"Honiton","HON",50.797,-3.187,0,"EX14 8DA","N/A","Toby Lewis 2009"
"Honley","HOY",53.608,-1.781,0,"HD9 6LT","N/A","Toby Lewis 2009"
"Honor Oak Park","HPA",51.450,-0.046,0,"SE23 1DY","N/A","Toby Lewis 2009"
"Hook","HOK",51.280,-0.962,0,"RG27 9HS","N/A","Toby Lewis 2009"
"Hooton","HOO",53.297,-2.977,0,"CH66 7NL","N/A","Toby Lewis 2009"
"Hope (Derbyshire)","HOP",53.346,-1.729,0,,"N/A","Toby Lewis 2009"
"Hope (Wales)","HPE",53.116,-3.037,0,"LL12 9NJ","N/A","Toby Lewis 2009"
"Hopton Heath","HPT",52.391,-2.912,0,"SY7 0QD","N/A","Toby Lewis 2009"
"Horley","HOR",51.168,-0.161,0,"RH6 7NL","N/A","Toby Lewis 2009"
"Hornbeam Park","HBP",53.980,-1.527,0,"HG2 8QT","N/A","Toby Lewis 2009"
"Hornsey","HRN",51.586,-0.112,0,,"N/A","Toby Lewis 2009"
"Horsforth","HRS",53.848,-1.630,0,"LS18 5NL","N/A","Toby Lewis 2009"
"Horsham","HRH",51.066,-0.319,0,"RH12 1RD","N/A","Toby Lewis 2009"
"Horsley","HSY",51.279,-0.436,0,"KT24 6QX","N/A","Toby Lewis 2009"
"Horton-in-Ribblesdale","HIR",54.149,-2.302,0,"BD24 0HH","N/A","Toby Lewis 2009"
"Horwich Parkway","HWI",53.578,-2.539,0,"BL6 6LB","N/A","Toby Lewis 2009"
"Hoscar","HSC",53.598,-2.804,0,,"N/A","Toby Lewis 2009"
"Hough Green","HGN",53.372,-2.775,0,"WA8 7XU","N/A","Toby Lewis 2009"
"Hounslow","HOU",51.462,-0.362,0,"TW3 2DQ","N/A","Toby Lewis 2009"
"Hoveton & Wroxham","HXM",52.715,1.408,0,"NR12 8UR","N/A","Toby Lewis 2009"
"How Wood","HWW",51.718,-0.345,0,"AL2 2NG","N/A","Toby Lewis 2009"
"Howden","HOW",53.765,-0.861,0,"DN14 7SE","N/A","Toby Lewis 2009"
"Howwood","HOZ",55.811,-4.562,0,"PA9 1AZ","N/A","Toby Lewis 2009"
"Hoylake","HYK",53.390,-3.179,0,"CH47 4AA","N/A","Toby Lewis 2009"
"Hubberts Bridge","HBB",52.976,-0.111,0,"PE20 3SG","N/A","Toby Lewis 2009"
"Hucknall","HKN",53.039,-1.196,0,"NG15 7TD","N/A","Toby Lewis 2009"
"Huddersfield","HUD",53.649,-1.785,0,"HD1 1LB","N/A","Toby Lewis 2009"
"Hull Paragon","HUL",53.744,-0.346,0,"HU2 8NH","N/A","Toby Lewis 2009"
"Humphrey Park","HUP",53.452,-2.328,0,,"N/A","Toby Lewis 2009"
"Huncoat","HCT",53.772,-2.347,0,"BB5 6LT","N/A","Toby Lewis 2009"
"Hungerford","HGD",51.415,-1.512,0,"RG17 0DY","N/A","Toby Lewis 2009"
"Hunmanby","HUB",54.174,-0.314,0,"YO14 7PE","N/A","Toby Lewis 2009"
"Huntingdon","HUN",52.329,-0.192,0,"PE29 3BP","N/A","Toby Lewis 2009"
"Huntly","HNT",57.445,-2.776,0,"AB54 5HS","N/A","Toby Lewis 2009"
"Hunts Cross","HNX",53.360,-2.856,0,,"N/A","Toby Lewis 2009"
"Hurst Green","HUR",51.245,0.004,0,"RH8 0LL","N/A","Toby Lewis 2009"
"Hutton Cranswick","HUT",53.956,-0.434,0,"YO25 5HP","N/A","Toby Lewis 2009"
"Huyton","HUY",53.409,-2.843,0,,"N/A","Toby Lewis 2009"
"Hyde Central","HYC",53.451,-2.085,0,"SK14 1AA","N/A","Toby Lewis 2009"
"Hyde North","HYT",53.465,-2.085,0,"SK16 5RH","N/A","Toby Lewis 2009"
"Hykeham","HKM",53.195,-0.600,0,"LN6 9AT","N/A","Toby Lewis 2009"
"Hyndland","HYN",55.880,-4.315,0,,"N/A","Toby Lewis 2009"
"Hythe (Essex)","HYH",51.886,0.928,0,"CO2 8JR","N/A","Toby Lewis 2009"
"IBM","IBM",55.929,-4.827,0,"PA16 0XB","N/A","Toby Lewis 2009"
"Ifield","IFI",51.116,-0.215,0,"RH11 0JP","N/A","Toby Lewis 2009"
"Ilford","IFD",51.559,0.069,0,"IG1 4DU","N/A","Toby Lewis 2009"
"Ilkley","ILK",53.925,-1.821,0,"LS29 8HF","N/A","Toby Lewis 2009"
"Ince (Manchester)","INC",53.539,-2.612,0,"WN2 2DA","N/A","Toby Lewis 2009"
"Ince & Elton","INE",53.277,-2.817,0,"CH2 4NG","N/A","Toby Lewis 2009"
"Ingatestone","INT",51.667,0.383,0,"CM4 0BW","N/A","Toby Lewis 2009"
"Insch","INS",57.337,-2.617,0,"AB52 6PU","N/A","Toby Lewis 2009"
"Invergordon","IGD",57.689,-4.175,0,"IV18 0NJ","N/A","Toby Lewis 2009"
"Invergowrie","ING",56.456,-3.058,0,"DD2 5DS","N/A","Toby Lewis 2009"
"Inverkeithing","INK",56.035,-3.396,0,"KY11 1NJ","N/A","Toby Lewis 2009"
"Inverkip","INP",55.906,-4.873,0,"PA16 0AS","N/A","Toby Lewis 2009"
"Inverness","INV",57.480,-4.224,0,"IV2 3PY","N/A","Toby Lewis 2009"
"Invershin","INH",57.925,-4.400,0,"IV27 4ET","N/A","Toby Lewis 2009"
"Inverurie","INR",57.286,-2.374,0,"AB51 9TN","N/A","Toby Lewis 2009"
"Ipswich","IPS",52.051,1.144,0,"IP2 8AL","N/A","Toby Lewis 2009"
"Irlam","IRL",53.434,-2.433,0,,"N/A","Toby Lewis 2009"
"Irvine","IRV",55.611,-4.675,0,"KA12 8NU","N/A","Toby Lewis 2009"
"Isleworth","ISL",51.475,-0.337,0,"TW7 4BX","N/A","Toby Lewis 2009"
"Islip","ISP",51.826,-1.238,0,"OX5 3ED","N/A","Toby Lewis 2009"
"Iver","IVR",51.509,-0.507,0,"SL0 9AU","N/A","Toby Lewis 2009"
"Ivybridge","IVY",50.393,-3.905,0,"PL21 0DQ","N/A","Toby Lewis 2009"
"Liverpool James Street","LVJ",53.404,-2.993,0,,"N/A","Toby Lewis 2009"
"Jewellery Quarter","JEQ",52.490,-1.915,0,,"N/A","Toby Lewis 2009"
"Johnston","JOH",51.756,-4.997,0,"SA62 3PL","N/A","Toby Lewis 2009"
"Johnstone","JHN",55.834,-4.504,0,"PA5 8HE","N/A","Toby Lewis 2009"
"Jordanhill","JOR",55.883,-4.325,0,,"N/A","Toby Lewis 2009"
"Kearsley","KSL",53.544,-2.375,0,,"N/A","Toby Lewis 2009"
"Kearsney","KSN",51.149,1.272,0,"CT17 0RN","N/A","Toby Lewis 2009"
"Keighley","KEI",53.868,-1.902,0,"BD21 4HP","N/A","Toby Lewis 2009"
"Keith","KEH",57.551,-2.954,0,"AB55 3DR","N/A","Toby Lewis 2009"
"Kelvedon","KEL",51.841,0.702,0,"CO5 9NP","N/A","Toby Lewis 2009"
"Kelvindale","KVD",55.894,-4.310,0,,"N/A","Toby Lewis 2009"
"Kempston Hardwick","KMH",52.092,-0.504,0,"MK43 9NR","N/A","Toby Lewis 2009"
"Kempton Park","KMP",51.421,-0.410,0,"TW16 5AE","N/A","Toby Lewis 2009"
"Kemsing","KMS",51.297,0.247,0,"TN15 6NT","N/A","Toby Lewis 2009"
"Kemsley","KML",51.362,0.735,0,"ME10 2ST","N/A","Toby Lewis 2009"
"Kendal","KEN",54.332,-2.740,0,"LA9 6BT","N/A","Toby Lewis 2009"
"Kenley","KLY",51.325,-0.101,0,"CR8 5JA","N/A","Toby Lewis 2009"
"Kennett","KNE",52.277,0.491,0,"CB8 7QD","N/A","Toby Lewis 2009"
"Kennishead","KNS",55.813,-4.325,0,,"N/A","Toby Lewis 2009"
"Kensal Green","KNL",51.531,-0.225,0,"NW10 5JT","N/A","Toby Lewis 2009"
"Kensal Rise","KNR",51.535,-0.220,0,"NW10 3JN","N/A","Toby Lewis 2009"
"Kensington Olympia","KPA",51.499,-0.211,0,,"N/A","Toby Lewis 2009"
"Kent House","KTH",51.412,-0.045,0,"BR3 1JF","N/A","Toby Lewis 2009"
"Kentish Town","KTN",51.551,-0.140,0,"NW5 2AA","N/A","Toby Lewis 2009"
"Kentish Town West","KTW",51.546,-0.147,0,"NW5 3LR","N/A","Toby Lewis 2009"
"Kenton","KNT",51.582,-0.317,0,"HA3 0AZ","N/A","Toby Lewis 2009"
"Kents Bank","KBK",54.173,-2.926,0,"LA11 7BG","N/A","Toby Lewis 2009"
"Kettering","KET",52.394,-0.732,0,"NN15 7HS","N/A","Toby Lewis 2009"
"Kew Bridge","KWB",51.490,-0.288,0,"TW8 9QS","N/A","Toby Lewis 2009"
"Kew Gardens","KWG",51.477,-0.285,0,"TW9 3BZ","N/A","Toby Lewis 2009"
"Keyham","KEY",50.390,-4.180,0,"PL2 2BP","N/A","Toby Lewis 2009"
"Kidbrooke","KDB",51.462,0.027,0,"SE3 9PL","N/A","Toby Lewis 2009"
"Kidderminster","KID",52.383,-2.239,0,"DY10 1QZ","N/A","Toby Lewis 2009"
"Kidsgrove","KDG",53.086,-2.245,0,"ST7 1BX","N/A","Toby Lewis 2009"
"Kidwelly","KWL",51.734,-4.316,0,"SA17 4UH","N/A","Toby Lewis 2009"
"Kilburn High Road","KBN",51.537,-0.192,0,"NW6 5UA","N/A","Toby Lewis 2009"
"Kildale","KLD",54.478,-1.068,0,"YO21 2RT","N/A","Toby Lewis 2009"
"Kildonan","KIL",58.171,-3.869,0,,"N/A","Toby Lewis 2009"
"Kilgetty","KGT",51.733,-4.714,0,"SA68 0UF","N/A","Toby Lewis 2009"
"Kilmarnock","KMK",55.612,-4.498,0,"KA1 2AF","N/A","Toby Lewis 2009"
"Kilmaurs","KLM",55.637,-4.530,0,"KA3 2QX","N/A","Toby Lewis 2009"
"Kilpatrick","KPT",55.924,-4.453,0,,"N/A","Toby Lewis 2009"
"Kilwinning","KWN",55.656,-4.710,0,"KA13 6NT","N/A","Toby Lewis 2009"
"Kinbrace","KBC",58.258,-3.941,0,,"N/A","Toby Lewis 2009"
"King's Lynn","KLN",52.754,0.403,0,"PE30 1NX","N/A","Toby Lewis 2009"
"Kingham","KGM",51.902,-1.629,0,"OX7 6UP","N/A","Toby Lewis 2009"
"Kinghorn","KGH",56.070,-3.174,0,"KY3 9RA","N/A","Toby Lewis 2009"
"London Kings Cross","KGX",51.531,-0.123,0,,"N/A","Toby Lewis 2009"
"Kings Langley","KGL",51.706,-0.438,0,"WD4 8LF","N/A","Toby Lewis 2009"
"Kings Norton","KNN",52.414,-1.935,0,,"N/A","Toby Lewis 2009"
"Kings Nympton","KGN",50.936,-3.905,0,"EX37 9EU","N/A","Toby Lewis 2009"
"Kings Park","KGP",55.819,-4.244,0,,"N/A","Toby Lewis 2009"
"Kings Sutton","KGS",52.021,-1.281,0,"OX16 3RR","N/A","Toby Lewis 2009"
"Kingsknowe","KGE",55.919,-3.265,0,"EH14 2JX","N/A","Toby Lewis 2009"
"Kingston","KNG",51.413,-0.302,0,"KT1 1UJ","N/A","Toby Lewis 2009"
"Kingswood","KND",51.295,-0.211,0,"KT20 6EN","N/A","Toby Lewis 2009"
"Kingussie","KIN",57.078,-4.054,0,"PH21 1EN","N/A","Toby Lewis 2009"
"Kintbury","KIT",51.403,-1.446,0,"RG17 9UT","N/A","Toby Lewis 2009"
"Kirby Cross","KBX",51.841,1.215,0,"CO13 0LU","N/A","Toby Lewis 2009"
"Kirk Sandall","KKS",53.564,-1.074,0,"DN3 1LL","N/A","Toby Lewis 2009"
"Kirkby (Liverpool)","KIR",53.486,-2.903,0,,"N/A","Toby Lewis 2009"
"Kirkby in Ashfield","KKB",53.100,-1.253,0,"NG17 8EJ","N/A","Toby Lewis 2009"
"Kirkby Stephen","KSW",54.455,-2.368,0,"CH17 4LE","N/A","Toby Lewis 2009"
"Kirkby-in-Furness","KBF",54.232,-3.188,0,"LA17 7UB","N/A","Toby Lewis 2009"
"Kirkcaldy","KDY",56.112,-3.167,0,"KY1 1YL","N/A","Toby Lewis 2009"
"Kirkconnel","KRK",55.388,-3.999,0,"DG4 6NL","N/A","Toby Lewis 2009"
"Kirkdale","KKD",53.441,-2.981,0,,"N/A","Toby Lewis 2009"
"Kirkham & Wesham","KKM",53.787,-2.884,0,"PR4 3AA","N/A","Toby Lewis 2009"
"Kirkhill","KKH",55.814,-4.168,0,,"N/A","Toby Lewis 2009"
"Kirknewton","KKN",55.889,-3.434,0,"EH27 8BP","N/A","Toby Lewis 2009"
"Kirkwood","KWD",55.854,-4.050,0,"ML5 5RS","N/A","Toby Lewis 2009"
"Kirton Lindsey","KTL",53.485,-0.594,0,"DN21 4BD","N/A","Toby Lewis 2009"
"Kiveton Bridge","KIV",53.341,-1.267,0,,"N/A","Toby Lewis 2009"
"Kiveton Park","KVP",53.337,-1.239,0,,"N/A","Toby Lewis 2009"
"Knaresborough","KNA",54.009,-1.470,0,"HG5 9AA","N/A","Toby Lewis 2009"
"Knebworth","KBW",51.867,-0.187,0,"SG3 6AT","N/A","Toby Lewis 2009"
"Knighton","KNI",52.345,-3.043,0,"LD7 1DT","N/A","Toby Lewis 2009"
"Knockholt","KCK",51.346,0.131,0,"TN14 7HR","N/A","Toby Lewis 2009"
"Knottingley","KNO",53.707,-1.259,0,"WF11 8ED","N/A","Toby Lewis 2009"
"Knucklas","KNU",52.360,-3.096,0,"LD7 1PN","N/A","Toby Lewis 2009"
"Knutsford","KNF",53.302,-2.372,0,"WA16 0PA","N/A","Toby Lewis 2009"
"Kyle of Lochalsh","KYL",57.280,-5.714,0,"IV40 8AH","N/A","Toby Lewis 2009"
"Ladybank","LDY",56.274,-3.122,0,"KY15 7JS","N/A","Toby Lewis 2009"
"Ladywell","LAD",51.456,-0.019,0,"SE13 7XB","N/A","Toby Lewis 2009"
"Laindon","LAI",51.568,0.423,0,"SS15 6AB","N/A","Toby Lewis 2009"
"Lairg","LRG",58.002,-4.400,0,"IV27 4EX","N/A","Toby Lewis 2009"
"Lake","LKE",50.646,-1.166,0,"PO36 8PJ","N/A","Toby Lewis 2009"
"Lakenheath","LAK",52.448,0.535,0,"IP27 9AD","N/A","Toby Lewis 2009"
"Lamphey","LAM",51.667,-4.872,0,"SA17 5NR","N/A","Toby Lewis 2009"
"Lanark","LNK",55.673,-3.773,0,"ML11 7JP","N/A","Toby Lewis 2009"
"Lancaster","LAN",54.049,-2.808,0,"LA1 5NW","N/A","Toby Lewis 2009"
"Lancing","LAC",50.827,-0.323,0,"BN15 8AG","N/A","Toby Lewis 2009"
"Landywood","LAW",52.656,-2.021,0,"WS6 6JE","N/A","Toby Lewis 2009"
"Langbank","LGB",55.925,-4.586,0,"PA14 6PD","N/A","Toby Lewis 2009"
"Langho","LHO",53.805,-2.449,0,"BB6 8EZ","N/A","Toby Lewis 2009"
"Langley (Berkshire)","LNY",51.508,-0.542,0,"SL3 6DB","N/A","Toby Lewis 2009"
"Langley Green","LGG",52.493,-2.006,0,,"N/A","Toby Lewis 2009"
"Langley Mill","LGM",53.018,-1.331,0,"NG16 4AT","N/A","Toby Lewis 2009"
"Langside","LGS",55.821,-4.276,0,,"N/A","Toby Lewis 2009"
"Langwathby","LGW",54.694,-2.664,0,"CA10 1NZ","N/A","Toby Lewis 2009"
"Langwith-Whaley Thorns","LAG",53.232,-1.209,0,"NG20 9HS","N/A","Toby Lewis 2009"
"Lapford","LAP",50.857,-3.810,0,"EX17 6QU","N/A","Toby Lewis 2009"
"Lapworth","LPW",52.342,-1.726,0,,"N/A","Toby Lewis 2009"
"Larbert","LBT",56.022,-3.830,0,"FK5 4AN","N/A","Toby Lewis 2009"
"Largs","LAR",55.793,-4.868,0,"KA30 8AN","N/A","Toby Lewis 2009"
"Larkhall","LRH",55.739,-3.976,0,,"N/A","Toby Lewis 2009"
"Laurencekirk","LAU",56.836,-2.467,0,,"N/A","Toby Lewis 2009"
"Layton","LAY",53.835,-3.031,0,"FY2 0SX","N/A","Toby Lewis 2009"
"Lazonby & Kirkoswald","LZB",54.750,-2.703,0,"CA10 1DL","N/A","Toby Lewis 2009"
"Lea Green","LEG",53.427,-2.725,0,"WA9 3BZ","N/A","Toby Lewis 2009"
"Lea Hall","LEH",52.480,-1.786,0,,"N/A","Toby Lewis 2009"
"Leagrave","LEA",51.905,-0.459,0,"LU4 9BA","N/A","Toby Lewis 2009"
"Lealholm","LHM",54.461,-0.826,0,"YO21 2AG","N/A","Toby Lewis 2009"
"Leamington Spa","LMS",52.284,-1.536,0,"CV31 3NS","N/A","Toby Lewis 2009"
"Leasowe","LSW",53.408,-3.099,0,"CH46 1QN","N/A","Toby Lewis 2009"
"Leatherhead","LHD",51.299,-0.333,0,"KT22 7SQ","N/A","Toby Lewis 2009"
"Ledbury","LED",52.045,-2.426,0,"HR8 1AR","N/A","Toby Lewis 2009"
"Lee","LEE",51.450,0.013,0,"SE12 9JG","N/A","Toby Lewis 2009"
"Leeds","LDS",53.795,-1.547,0,"LS1 4DY","N/A","Toby Lewis 2009"
"Leicester","LEI",52.631,-1.125,0,"LE2 0QB","N/A","Toby Lewis 2009"
"Leigh (Kent)","LIH",51.194,0.210,0,"TN11 8RU","N/A","Toby Lewis 2009"
"Leigh-on-Sea","LES",51.541,0.640,0,"SS9 2ET","N/A","Toby Lewis 2009"
"Leighton Buzzard","LBZ",51.916,-0.677,0,"LU7 2LY","N/A","Toby Lewis 2009"
"Lelant","LEL",50.184,-5.437,0,"TR26 3DS","N/A","Toby Lewis 2009"
"Lelant Saltings","LTS",50.179,-5.441,0,"TR26 3DL","N/A","Toby Lewis 2009"
"Lenham","LEN",51.234,0.708,0,"ME17 2HR","N/A","Toby Lewis 2009"
"Lenzie","LNZ",55.921,-4.155,0,,"N/A","Toby Lewis 2009"
"Leominster","LEO",52.226,-2.730,0,"HR6 8AR","N/A","Toby Lewis 2009"
"Letchworth Garden City","LET",51.980,-0.229,0,"SG6 3AN","N/A","Toby Lewis 2009"
"Leuchars","LEU",56.376,-2.893,0,"KY16 0AA","N/A","Toby Lewis 2009"
"Levenshulme","LVM",53.444,-2.193,0,,"N/A","Toby Lewis 2009"
"Lewes","LWS",50.871,0.012,0,"BN7 2UP","N/A","Toby Lewis 2009"
"Lewisham","LEW",51.465,-0.013,0,"SE13 7RY","N/A","Toby Lewis 2009"
"Leyland","LEY",53.699,-2.687,0,"PR5 2NN","N/A","Toby Lewis 2009"
"Leyton Midland Road","LEM",51.569,-0.007,0,,"N/A","Toby Lewis 2009"
"Leytonstone High Road","LER",51.564,0.009,0,,"N/A","Toby Lewis 2009"
"Lichfield City","LIC",52.680,-1.826,0,"WS13 6HX","N/A","Toby Lewis 2009"
"Lichfield Trent Valley","LTV",52.687,-1.800,0,"WS13 6HE","N/A","Toby Lewis 2009"
"Lidlington","LID",52.042,-0.559,0,"MK43 9NR","N/A","Toby Lewis 2009"
"Limehouse","LHS",51.513,-0.040,0,,"N/A","Toby Lewis 2009"
"Lincoln Central","LCN",53.226,-0.540,0,"LN5 7EW","N/A","Toby Lewis 2009"
"Lingfield","LFD",51.176,-0.007,0,"RH7 6EF","N/A","Toby Lewis 2009"
"Lingwood","LGD",52.622,1.490,0,"NR13 4AU","N/A","Toby Lewis 2009"
"Linlithgow","LIN",55.976,-3.595,0,"EH49 7DH","N/A","Toby Lewis 2009"
"Liphook","LIP",51.071,-0.800,0,"GU30 7DR","N/A","Toby Lewis 2009"
"Liskeard","LSK",50.447,-4.470,0,"PL14 4DX","N/A","Toby Lewis 2009"
"Liss","LIS",51.044,-0.893,0,"GU33 7AA","N/A","Toby Lewis 2009"
"Lisvane & Thornhill","LVT",51.544,-3.186,0,"CF14 0UE","N/A","Toby Lewis 2009"
"Little Kimble","LTK",51.752,-0.809,0,"HP17 0XP","N/A","Toby Lewis 2009"
"Little Sutton","LTT",53.285,-2.944,0,"CH66 1PA","N/A","Toby Lewis 2009"
"Littleborough","LTL",53.643,-2.095,0,"OL15 8AR","N/A","Toby Lewis 2009"
"Littlehampton","LIT",50.810,-0.547,0,"BN17 5BS","N/A","Toby Lewis 2009"
"Littlehaven","LVN",51.080,-0.308,0,"RH12 4PB","N/A","Toby Lewis 2009"
"Littleport","LTP",52.462,0.317,0,"CB6 1JL","N/A","Toby Lewis 2009"
"Liverpool Central","LVC",53.404,-2.980,0,,"N/A","Toby Lewis 2009"
"Liverpool Lime Street","LIV",53.407,-2.978,0,,"N/A","Toby Lewis 2009"
"Liverpool South Parkway","LPY",53.358,-2.890,0,,"N/A","Toby Lewis 2009"
"London Liverpool Street","LST",51.518,-0.082,0,,"N/A","Toby Lewis 2009"
"Livingston North","LSN",55.902,-3.544,0,"EH54 7EE","N/A","Toby Lewis 2009"
"Livingston South","LVG",55.872,-3.502,0,"EH54 9AP","N/A","Toby Lewis 2009"
"Llanaber","LLA",52.741,-4.077,0,"LL42 1AZ","N/A","Toby Lewis 2009"
"Llanbedr","LBR",52.820,-4.110,0,"LL45 2LR","N/A","Toby Lewis 2009"
"Llanbister Road","LLT",52.336,-3.214,0,"LD1 5UW","N/A","Toby Lewis 2009"
"Llanbradach","LNB",51.604,-3.233,0,"CF83 3NE","N/A","Toby Lewis 2009"
"Llandaf","LLN",51.508,-3.229,0,"CF4 2FG","N/A","Toby Lewis 2009"
"Llandanwg","LDN",52.836,-4.124,0,"LL46 2SB","N/A","Toby Lewis 2009"
"Llandecwyn","LLC",52.921,-4.056,0,"LL47 6YL","N/A","Toby Lewis 2009"
"Llandeilo","LLL",51.885,-3.987,0,"SA19 6ND","N/A","Toby Lewis 2009"
"Llandovery","LLV",51.995,-3.803,0,"SA20 0BG","N/A","Toby Lewis 2009"
"Llandrindod","LLO",52.242,-3.379,0,"LD1 5BB","N/A","Toby Lewis 2009"
"Llandudno","LLD",53.320,-3.827,0,"LL30 2AF","N/A","Toby Lewis 2009"
"Llandudno Junction","LLJ",53.284,-3.809,0,"LL31 9NB","N/A","Toby Lewis 2009"
"Llandybie","LLI",51.821,-4.004,0,"SA18 3UN","N/A","Toby Lewis 2009"
"Llanelli","LLE",51.674,-4.162,0,"SA15 2RN","N/A","Toby Lewis 2009"
"Llanfairfechan","LLF",53.257,-3.982,0,"LL33 0BP","N/A","Toby Lewis 2009"
"Llanfairpwll","LPG",53.221,-4.209,0,"LL61 5UJ","N/A","Toby Lewis 2009"
"Llangadog","LLG",51.940,-3.893,0,"SA19 9LU","N/A","Toby Lewis 2009"
"Llangammarch","LLM",52.114,-3.556,0,"LD4 4EE","N/A","Toby Lewis 2009"
"Llangennech","LLH",51.691,-4.079,0,"SA14 8UY","N/A","Toby Lewis 2009"
"Llangynllo","LGO",52.350,-3.162,0,"LD7 1SY","N/A","Toby Lewis 2009"
"Llanharan","LLR",51.538,-3.441,0,"CF72 9QA","N/A","Toby Lewis 2009"
"Llanhilleth","LTH",51.700,-3.135,0,,"N/A","Toby Lewis 2009"
"Llanishen","LLS",51.533,-3.182,0,"CF14 5UW","N/A","Toby Lewis 2009"
"Llanrwst","LWR",53.144,-3.803,0,"LL26 0AD","N/A","Toby Lewis 2009"
"Llansamlet","LAS",51.662,-3.886,0,"SA7 9RY","N/A","Toby Lewis 2009"
"Llantwit Major","LWM",51.410,-3.482,0,"CF61 1ST","N/A","Toby Lewis 2009"
"Llanwrda","LNR",51.963,-3.872,0,"SA19 8EH","N/A","Toby Lewis 2009"
"Llanwrtyd","LNW",52.105,-3.632,0,"LD5 4RW","N/A","Toby Lewis 2009"
"Llwyngwril","LLW",52.667,-4.087,0,"LL37 2JS","N/A","Toby Lewis 2009"
"Llwynypia","LLY",51.634,-3.454,0,"CF40 2JJ","N/A","Toby Lewis 2009"
"Loch Awe","LHA",56.402,-5.043,0,"PA33 1AQ","N/A","Toby Lewis 2009"
"Loch Eil Outward Bound","LHE",56.855,-5.192,0,"PH33 7NN","N/A","Toby Lewis 2009"
"Lochailort","LCL",56.881,-5.663,0,,"N/A","Toby Lewis 2009"
"Locheilside","LCS",56.856,-5.290,0,"PH33 7PN","N/A","Toby Lewis 2009"
"Lochgelly","LCG",56.135,-3.313,0,"KY5 9EP","N/A","Toby Lewis 2009"
"Lochluichart","LCC",57.622,-4.810,0,"IV23 2PZ","N/A","Toby Lewis 2009"
"Lochwinnoch","LHW",55.787,-4.616,0,"PA12 4JF","N/A","Toby Lewis 2009"
"Lockerbie","LOC",55.122,-3.354,0,"DG11 2HA","N/A","Toby Lewis 2009"
"Lockwood","LCK",53.635,-1.801,0,"HD1 3UB","N/A","Toby Lewis 2009"
"London Fields","LOF",51.541,-0.058,0,,"N/A","Toby Lewis 2009"
"London Marylebone","MYB",51.523,-0.163,0,"NW1 6JJ","N/A","Toby Lewis 2009"
"London Road (Brighton)","LRB",50.836,-0.136,0,"BN1 4QS","N/A","Toby Lewis 2009"
"London Road (Guildford)","LRD",51.240,-0.566,0,"GU1 4DQ","N/A","Toby Lewis 2009"
"London St Pancras Domestic","STP",51.530,-0.126,0,"NW1 2QP","N/A","Toby Lewis 2009"
"St Pancras International","SPX",51.530,-0.125,0,,"N/A","Toby Lewis 2009"
"London Victoria","VIC",51.495,-0.144,0,,"N/A","Toby Lewis 2009"
"London Waterloo","WAT",51.503,-0.113,0,"SE1 8SW","N/A","Toby Lewis 2009"
"London Waterloo East","WAE",51.504,-0.110,0,"SE1 8NH","N/A","Toby Lewis 2009"
"Long Buckby","LBK",52.295,-1.087,0,"NN6 7QA","N/A","Toby Lewis 2009"
"Long Eaton","LGE",52.885,-1.287,0,"NG10 3GS","N/A","Toby Lewis 2009"
"Long Preston","LPR",54.017,-2.255,0,"BD23 4NH","N/A","Toby Lewis 2009"
"Longbeck","LGK",54.589,-1.030,0,"TS11 6HD","N/A","Toby Lewis 2009"
"Longbridge","LOB",52.397,-1.981,0,,"N/A","Toby Lewis 2009"
"Longcross","LNG",51.385,-0.594,0,"GU25 4JR","N/A","Toby Lewis 2009"
"Longfield","LGF",51.396,0.301,0,"DA3 7QA","N/A","Toby Lewis 2009"
"Longniddry","LND",55.976,-2.888,0,"EH32 0LS","N/A","Toby Lewis 2009"
"Longport","LPT",53.042,-2.216,0,"ST6 4ND","N/A","Toby Lewis 2009"
"Longton","LGN",52.990,-2.137,0,"ST3 1EZ","N/A","Toby Lewis 2009"
"Looe","LOO",50.359,-4.456,0,"PL13 1HN","N/A","Toby Lewis 2009"
"Lostock","LOT",53.573,-2.494,0,"BL6 4JP","N/A","Toby Lewis 2009"
"Lostock Gralam","LTG",53.268,-2.465,0,"CW9 7NU","N/A","Toby Lewis 2009"
"Lostock Hall","LOH",53.724,-2.688,0,"PR5 5NF","N/A","Toby Lewis 2009"
"Lostwithiel","LOS",50.407,-4.666,0,"PL22 0EW","N/A","Toby Lewis 2009"
"Loughborough","LBO",52.779,-1.196,0,"LE11 1EX","N/A","Toby Lewis 2009"
"Loughborough Junction","LGJ",51.466,-0.102,0,"SW9 8SA","N/A","Toby Lewis 2009"
"Lowdham","LOW",53.006,-0.999,0,"NG14 7DU","N/A","Toby Lewis 2009"
"Lower Sydenham","LSY",51.425,-0.033,0,"SE26 5BN","N/A","Toby Lewis 2009"
"Lowestoft","LWT",52.474,1.750,0,"NR32 2EG","N/A","Toby Lewis 2009"
"Ludlow","LUD",52.371,-2.716,0,"SY8 2PQ","N/A","Toby Lewis 2009"
"Luton","LUT",51.882,-0.414,0,"LU1 2LT","N/A","Toby Lewis 2009"
"Luton Airport Parkway","LTN",51.873,-0.396,0,"LU1 3JW","N/A","Toby Lewis 2009"
"Luxulyan","LUX",50.390,-4.748,0,"PL31 2NW","N/A","Toby Lewis 2009"
"Lydney","LYD",51.714,-2.531,0,"GL15 5EW","N/A","Toby Lewis 2009"
"Lye","LYE",52.460,-2.116,0,"DY9 8ES","N/A","Toby Lewis 2009"
"Lymington Town","LYT",50.761,-1.537,0,"SO41 9AZ","N/A","Toby Lewis 2009"
"Lympstone Commando","LYC",50.663,-3.441,0,"EX8 5AA","N/A","Toby Lewis 2009"
"Lympstone Village","LYM",50.648,-3.431,0,"EX8 5JW","N/A","Toby Lewis 2009"
"Lytham","LTM",53.739,-2.964,0,"FY8 5NJ","N/A","Toby Lewis 2009"
"Macclesfield","MAC",53.259,-2.122,0,"SK11 7JP","N/A","Toby Lewis 2009"
"Machynlleth","MCN",52.596,-3.853,0,"SY20 8BL","N/A","Toby Lewis 2009"
"Maesteg","MST",51.610,-3.655,0,"CF34 9BL","N/A","Toby Lewis 2009"
"Maesteg (Ewenny Road)","MEW",51.605,-3.648,0,"CF34 9TS","N/A","Toby Lewis 2009"
"Maghull","MAG",53.506,-2.931,0,,"N/A","Toby Lewis 2009"
"Maidenhead","MAI",51.519,-0.723,0,"SL6 1EW","N/A","Toby Lewis 2009"
"Maidstone Barracks","MDB",51.277,0.514,0,"ME16 0SQ","N/A","Toby Lewis 2009"
"Maidstone East","MDE",51.278,0.521,0,"ME14 1QN","N/A","Toby Lewis 2009"
"Maidstone West","MDW",51.271,0.516,0,"ME16 8RJ","N/A","Toby Lewis 2009"
"Malden Manor","MAL",51.385,-0.261,0,"KT3 5PD","N/A","Toby Lewis 2009"
"Mallaig","MLG",57.006,-5.830,0,"PH41 4QA","N/A","Toby Lewis 2009"
"Malton","MLT",54.132,-0.797,0,"YO17 9RD","N/A","Toby Lewis 2009"
"Manchester Airport","MIA",53.365,-2.272,0,,"N/A","Toby Lewis 2009"
"Manchester Oxford Road","MCO",53.474,-2.242,0,,"N/A","Toby Lewis 2009"
"Manchester Piccadilly","MAN",53.477,-2.229,0,,"N/A","Toby Lewis 2009"
"Manchester United FC Halt","MUF",53.462,-2.291,0,,"N/A","Toby Lewis 2009"
"Manchester Victoria","MCV",53.488,-2.242,0,,"N/A","Toby Lewis 2009"
"Manea","MNE",52.498,0.178,0,"PE15 0HG","N/A","Toby Lewis 2009"
"Manningtree","MNG",51.949,1.045,0,"CO11 2HH","N/A","Toby Lewis 2009"
"Manor Park","MNP",51.552,0.046,0,,"N/A","Toby Lewis 2009"
"Manor Road","MNR",53.395,-3.170,0,"CH47 3DF","N/A","Toby Lewis 2009"
"Manorbier","MRB",51.660,-4.793,0,"SA70 7SN","N/A","Toby Lewis 2009"
"Manors","MAS",54.972,-1.606,0,"NE1 6UR","N/A","Toby Lewis 2009"
"Mansfield","MFT",53.142,-1.199,0,"NG18 5RN","N/A","Toby Lewis 2009"
"Mansfield Woodhouse","MSW",53.163,-1.202,0,"NG19 8DA","N/A","Toby Lewis 2009"
"March","MCH",52.560,0.092,0,"PE15 8SJ","N/A","Toby Lewis 2009"
"Marden","MRN",51.175,0.493,0,"TN12 9HS","N/A","Toby Lewis 2009"
"Margate","MAR",51.385,1.372,0,"CT9 5AD","N/A","Toby Lewis 2009"
"Market Harborough","MHR",52.480,-0.910,0,"LE16 7DT","N/A","Toby Lewis 2009"
"Market Rasen","MKR",53.384,-0.337,0,"LN8 3AQ","N/A","Toby Lewis 2009"
"Markinch","MNC",56.201,-3.131,0,"KY7 6DH","N/A","Toby Lewis 2009"
"Marks Tey","MKT",51.881,0.783,0,"CO6 1EE","N/A","Toby Lewis 2009"
"Marlow","MLW",51.571,-0.766,0,"SL7 1NT","N/A","Toby Lewis 2009"
"Marple","MPL",53.401,-2.057,0,"SK6 7DA","N/A","Toby Lewis 2009"
"Marsden","MSN",53.603,-1.931,0,"HD7 6AX","N/A","Toby Lewis 2009"
"Marske","MSK",54.587,-1.020,0,"TS11 6JF","N/A","Toby Lewis 2009"
"Marston Green","MGN",52.467,-1.755,0,,"N/A","Toby Lewis 2009"
"Martin Mill","MTM",51.171,1.349,0,"CT15 5LD","N/A","Toby Lewis 2009"
"Martins Heron","MAO",51.408,-0.725,0,"RG12 9TZ","N/A","Toby Lewis 2009"
"Marton","MTO",54.544,-1.199,0,"TS7 9AP","N/A","Toby Lewis 2009"
"Maryhill","MYH",55.897,-4.301,0,,"N/A","Toby Lewis 2009"
"Maryland","MYL",51.546,0.006,0,,"N/A","Toby Lewis 2009"
"Maryport","MRY",54.712,-3.494,0,"CA15 6DA","N/A","Toby Lewis 2009"
"Matlock","MAT",53.138,-1.558,0,"DE4 3NA","N/A","Toby Lewis 2009"
"Matlock Bath","MTB",53.122,-1.557,0,"DE4 5JA","N/A","Toby Lewis 2009"
"Mauldeth Road","MAU",53.434,-2.209,0,,"N/A","Toby Lewis 2009"
"Maxwell Park","MAX",55.838,-4.289,0,,"N/A","Toby Lewis 2009"
"Maybole","MAY",55.355,-4.685,0,"KA19 8DS","N/A","Toby Lewis 2009"
"Maze Hill","MZH",51.483,0.003,0,"SE10 9XG","N/A","Toby Lewis 2009"
"Meadowhall","MHS",53.417,-1.414,0,,"N/A","Toby Lewis 2009"
"Meldreth","MEL",52.090,0.009,0,"SG8 6JP","N/A","Toby Lewis 2009"
"Melton (Suffolk)","MES",52.104,1.337,0,"IP12 1LT","N/A","Toby Lewis 2009"
"Melton Mowbray","MMO",52.761,-0.886,0,"LE13 1AF","N/A","Toby Lewis 2009"
"Menheniot","MEN",50.426,-4.409,0,"PL14 3PJ","N/A","Toby Lewis 2009"
"Menston","MNN",53.892,-1.736,0,"LS29 6JH","N/A","Toby Lewis 2009"
"Meols","MEO",53.399,-3.155,0,"CH47 9RA","N/A","Toby Lewis 2009"
"Meols Cop","MEC",53.646,-2.975,0,"PR8 6AY","N/A","Toby Lewis 2009"
"Meopham","MEP",51.386,0.357,0,"DA13 0LT","N/A","Toby Lewis 2009"
"Merrytown","MEY",55.749,-3.978,0,"ML9 2UW","N/A","Toby Lewis 2009"
"Merstham","MHM",51.264,-0.150,0,"RH1 3ED","N/A","Toby Lewis 2009"
"Merthyr Tydfil","MER",51.745,-3.377,0,"CF47 7OH","N/A","Toby Lewis 2009"
"Merthyr Vale","MEV",51.687,-3.337,0,"CF48 4TE","N/A","Toby Lewis 2009"
"Metheringham","MGM",53.139,-0.391,0,"LN4 3HX","N/A","Toby Lewis 2009"
"MetroCentre","MCE",54.959,-1.665,0,"NE11 9GA","N/A","Toby Lewis 2009"
"Mexborough","MEX",53.491,-1.289,0,,"N/A","Toby Lewis 2009"
"Micheldever","MIC",51.182,-1.261,0,"SO21 3AP","N/A","Toby Lewis 2009"
"Micklefield","MIK",53.789,-1.325,0,"LS25 4AQ","N/A","Toby Lewis 2009"
"Middlesbrough","MBR",54.579,-1.233,0,"TS1 1EG","N/A","Toby Lewis 2009"
"Middlewood","MDL",53.360,-2.084,0,"SK6 8AU","N/A","Toby Lewis 2009"
"Midgham","MDG",51.396,-1.179,0,"RG7 5SE","N/A","Toby Lewis 2009"
"Milford (Surrey)","MLF",51.165,-0.637,0,"GU8 5AD","N/A","Toby Lewis 2009"
"Milford Haven","MFH",51.715,-5.041,0,"SA73 3AB","N/A","Toby Lewis 2009"
"Mill Hill (Lancashire)","MLH",53.735,-2.502,0,"BB2 2QY","N/A","Toby Lewis 2009"
"Mill Hill Broadway","MIL",51.613,-0.249,0,"NW7 2JU","N/A","Toby Lewis 2009"
"Millbrook (Bedfordshire)","MLB",52.054,-0.533,0,"MK45 2JJ","N/A","Toby Lewis 2009"
"Millbrook (Hants)","MBK",50.912,-1.435,0,"SO15 4JT","N/A","Toby Lewis 2009"
"Milliken Park","MIN",55.825,-4.534,0,"PA5 8PQ","N/A","Toby Lewis 2009"
"Millom","MLM",54.211,-3.271,0,"LA18 4AY","N/A","Toby Lewis 2009"
"Mills Hill","MIH",53.551,-2.172,0,,"N/A","Toby Lewis 2009"
"Milngavie","MLN",55.941,-4.314,0,,"N/A","Toby Lewis 2009"
"Milnrow","MLR",53.608,-2.112,0,"OL16 3LS","N/A","Toby Lewis 2009"
"Milton Keynes Central","MKC",52.034,-0.775,0,"MK9 1LA","N/A","Toby Lewis 2009"
"Minffordd","MFF",52.926,-4.085,0,"LL48 6HG","N/A","Toby Lewis 2009"
"Minster","MSR",51.329,1.316,0,"CT12 4HX","N/A","Toby Lewis 2009"
"Mirfield","MIR",53.672,-1.693,0,"WF14 8NL","N/A","Toby Lewis 2009"
"Mistley","MIS",51.944,1.081,0,"CO11 1HH","N/A","Toby Lewis 2009"
"Mitcham Eastfields","MTC",51.407,-0.155,0,"CR4 2ND","N/A","Toby Lewis 2009"
"Mobberley","MOB",53.329,-2.334,0,"WA16 7QL","N/A","Toby Lewis 2009"
"Monifieth","MON",56.480,-2.818,0,"DD5 4NN","N/A","Toby Lewis 2009"
"Monks Risborough","MRS",51.736,-0.829,0,"HP27 9JQ","N/A","Toby Lewis 2009"
"Montrose","MTS",56.713,-2.472,0,"DD10 8LW","N/A","Toby Lewis 2009"
"Moorfields","MRF",53.409,-2.989,0,,"N/A","Toby Lewis 2009"
"Moorgate","ZMG",51.518,-0.089,0,,"N/A","Toby Lewis 2009"
"Moorside","MSD",53.516,-2.353,0,,"N/A","Toby Lewis 2009"
"Moorthorpe","MRP",53.595,-1.305,0,"WF9 3AT","N/A","Toby Lewis 2009"
"Morar","MRR",56.969,-5.823,0,"PH40 4PB","N/A","Toby Lewis 2009"
"Morchard Road","MRD",50.832,-3.776,0,"EX17 5LR","N/A","Toby Lewis 2009"
"Morden South","MDS",51.396,-0.199,0,"SM4 5HB","N/A","Toby Lewis 2009"
"Morecambe","MCM",54.070,-2.869,0,"LA4 4DE","N/A","Toby Lewis 2009"
"Moreton (Dorset)","MTN",50.701,-2.314,0,"DT2 8BB","N/A","Toby Lewis 2009"
"Moreton (Merseyside)","MRT",53.407,-3.114,0,"CH46 8SD","N/A","Toby Lewis 2009"
"Moreton-in-Marsh","MIM",51.992,-1.700,0,"GL56 0AA","N/A","Toby Lewis 2009"
"Morfa Mawddach","MFA",52.708,-4.032,0,"LL39 1BQ","N/A","Toby Lewis 2009"
"Morley","MLY",53.750,-1.592,0,"LS27 8JR","N/A","Toby Lewis 2009"
"Morpeth","MPT",55.162,-1.683,0,"NE61 2SL","N/A","Toby Lewis 2009"
"Mortimer","MOR",51.372,-1.038,0,"RG7 3NY","N/A","Toby Lewis 2009"
"Mortlake","MTL",51.468,-0.267,0,"SW14 8IN","N/A","Toby Lewis 2009"
"Moses Gate","MSS",53.556,-2.402,0,"BL4 7LT","N/A","Toby Lewis 2009"
"Moss Side","MOS",53.765,-2.943,0,"FY8 4NB","N/A","Toby Lewis 2009"
"Mossley","MSL",53.515,-2.041,0,"OL5 0AB","N/A","Toby Lewis 2009"
"Mossley Hill","MSH",53.379,-2.916,0,,"N/A","Toby Lewis 2009"
"Mosspark","MPK",55.841,-4.346,0,,"N/A","Toby Lewis 2009"
"Moston","MSO",53.523,-2.171,0,,"N/A","Toby Lewis 2009"
"Motherwell","MTH",55.792,-3.995,0,"ML1 3LA","N/A","Toby Lewis 2009"
"Motspur Park","MOT",51.396,-0.239,0,"KT3 6JJ","N/A","Toby Lewis 2009"
"Mottingham","MTG",51.440,0.050,0,"SE9 4EW","N/A","Toby Lewis 2009"
"Mouldsworth","MLD",53.232,-2.732,0,"WA6 9EG","N/A","Toby Lewis 2009"
"Moulsecoomb","MCB",50.846,-0.119,0,"BN2 4GP","N/A","Toby Lewis 2009"
"Mount Florida","MFL",55.827,-4.261,0,,"N/A","Toby Lewis 2009"
"Mount Vernon","MTV",55.840,-4.134,0,,"N/A","Toby Lewis 2009"
"Mountain Ash","MTA",51.681,-3.377,0,"CF45 3HD","N/A","Toby Lewis 2009"
"Muir of Ord","MOO",57.518,-4.461,0,"IV6 7ST","N/A","Toby Lewis 2009"
"Muirend","MUI",55.810,-4.274,0,,"N/A","Toby Lewis 2009"
"Musselburgh","MUB",55.933,-3.074,0,"EH21 6TT","N/A","Toby Lewis 2009"
"Mytholmroyd","MYT",53.729,-1.982,0,"HX7 5DZ","N/A","Toby Lewis 2009"
"Nafferton","NFN",54.011,-0.386,0,"YO25 0LS","N/A","Toby Lewis 2009"
"Nairn","NRN",57.580,-3.873,0,"IV12 4QS","N/A","Toby Lewis 2009"
"Nantwich","NAN",53.064,-2.519,0,"CW5 5SS","N/A","Toby Lewis 2009"
"Narberth","NAR",51.800,-4.727,0,"SA67 8TY","N/A","Toby Lewis 2009"
"Narborough","NBR",52.571,-1.203,0,"LE9 5HR","N/A","Toby Lewis 2009"
"Navigation Road","NVR",53.396,-2.344,0,"WA14 1SR","N/A","Toby Lewis 2009"
"Needham Market","NMT",52.152,1.055,0,"IP6 8AS","N/A","Toby Lewis 2009"
"Neilston","NEI",55.783,-4.427,0,,"N/A","Toby Lewis 2009"
"Nelson","NEL",53.835,-2.215,0,"BB9 9SF","N/A","Toby Lewis 2009"
"Neston","NES",53.292,-3.063,0,"CH64 9SR","N/A","Toby Lewis 2009"
"Netherfield","NET",52.961,-1.080,0,"NG4 2JB","N/A","Toby Lewis 2009"
"Nethertown","NRT",54.456,-3.565,0,"CA22 2UG","N/A","Toby Lewis 2009"
"Netley","NTL",50.875,-1.342,0,"SO31 5AN","N/A","Toby Lewis 2009"
"New Barnet","NBA",51.649,-0.173,0,"EN5 1QT","N/A","Toby Lewis 2009"
"New Beckenham","NBC",51.416,-0.035,0,"BR3 1QN","N/A","Toby Lewis 2009"
"New Brighton","NBN",53.437,-3.048,0,"CH45 2NY","N/A","Toby Lewis 2009"
"New Clee","NCE",53.574,-0.060,0,"DN32 5GR","N/A","Toby Lewis 2009"
"New Cross","NWX",51.476,-0.033,0,"SE14 6LD","N/A","Toby Lewis 2009"
"New Cross Gate","NXG",51.475,-0.040,0,"SE14 6AR","N/A","Toby Lewis 2009"
"New Cumnock","NCK",55.402,-4.182,0,"KA18 4DG","N/A","Toby Lewis 2009"
"New Eltham","NEH",51.438,0.070,0,"SE9 2AB","N/A","Toby Lewis 2009"
"New Hey","NHY",53.601,-2.095,0,"OL16 3RA","N/A","Toby Lewis 2009"
"New Holland","NHL",53.702,-0.360,0,"DN19 7BE","N/A","Toby Lewis 2009"
"New Hythe","NHE",51.313,0.455,0,"ME20 6XJ","N/A","Toby Lewis 2009"
"New Lane","NLN",53.612,-2.868,0,,"N/A","Toby Lewis 2009"
"New Malden","NEM",51.404,-0.256,0,"KT3 4PX","N/A","Toby Lewis 2009"
"New Mills Central","NMC",53.365,-2.006,0,"SK12 3JB","N/A","Toby Lewis 2009"
"New Mills Newtown","NMN",53.360,-2.008,0,"SK22 3JP","N/A","Toby Lewis 2009"
"New Milton","NWM",50.756,-1.658,0,"BH25 6JS","N/A","Toby Lewis 2009"
"New Pudsey","NPD",53.804,-1.681,0,"LS28 6QG","N/A","Toby Lewis 2009"
"New Southgate","NSG",51.614,-0.143,0,,"N/A","Toby Lewis 2009"
"Newark Castle","NCT",53.080,-0.813,0,"NG24 1FW","N/A","Toby Lewis 2009"
"Newark North Gate","NNG",53.082,-0.800,0,"NG24 1LS","N/A","Toby Lewis 2009"
"Newbridge","NBE",51.666,-3.143,0,"NP11 5FH","N/A","Toby Lewis 2009"
"Newbury","NBY",51.398,-1.321,0,"RG14 5DG","N/A","Toby Lewis 2009"
"Newbury Racecourse","NRC",51.399,-1.308,0,"RG14 6HY","N/A","Toby Lewis 2009"
"Newcastle","NCL",54.968,-1.617,0,"NE1 5DL","N/A","Toby Lewis 2009"
"Newcraighall","NEW",55.935,-3.093,0,"EH21 6TT","N/A","Toby Lewis 2009"
"Newhaven Harbour","NVH",50.790,0.055,0,"BN9 0BB","N/A","Toby Lewis 2009"
"Newhaven Town","NVN",50.795,0.055,0,"BN9 0DF","N/A","Toby Lewis 2009"
"Newington","NGT",51.353,0.669,0,"ME9 7LQ","N/A","Toby Lewis 2009"
"Newmarket","NMK",52.239,0.407,0,"CB8 9BB","N/A","Toby Lewis 2009"
"Newquay","NQY",50.415,-5.075,0,"TR7 2NF","N/A","Toby Lewis 2009"
"Newstead","NSD",53.070,-1.222,0,"NG15 0BF","N/A","Toby Lewis 2009"
"Newton","NTN",55.819,-4.133,0,,"N/A","Toby Lewis 2009"
"Newton Abbot","NTA",50.530,-3.600,0,"TQ12 2JE","N/A","Toby Lewis 2009"
"Newton Aycliffe","NAY",54.614,-1.590,0,"DL5 7BG","N/A","Toby Lewis 2009"
"Newton for Hyde","NWN",53.457,-2.068,0,"SK14 2PJ","N/A","Toby Lewis 2009"
"Newton St Cyres","NTC",50.779,-3.589,0,"EX5 5AP","N/A","Toby Lewis 2009"
"Newton-le-Willows","NLW",53.453,-2.614,0,"WA12 9SF","N/A","Toby Lewis 2009"
"Newton-on-Ayr","NOA",55.474,-4.626,0,"KA8 9BP","N/A","Toby Lewis 2009"
"Newtonmore","NWR",57.059,-4.119,0,"PH20 1AL","N/A","Toby Lewis 2009"
"Newtown","NWT",52.512,-3.311,0,"SY16 1BP","N/A","Toby Lewis 2009"
"Ninian Park","NNP",51.477,-3.201,0,"CF11 8AH","N/A","Toby Lewis 2009"
"Nitshill","NIT",55.812,-4.360,0,,"N/A","Toby Lewis 2009"
"Norbiton","NBT",51.412,-0.284,0,"KT2 7AZ","N/A","Toby Lewis 2009"
"Norbury","NRB",51.411,-0.123,0,"SW16 3RW","N/A","Toby Lewis 2009"
"Normans Bay","NSB",50.826,0.389,0,"BN24 6PR","N/A","Toby Lewis 2009"
"Normanton","NOR",53.701,-1.423,0,"WF6 2BG","N/A","Toby Lewis 2009"
"North Berwick","NBW",56.057,-2.730,0,"EH39 4BY","N/A","Toby Lewis 2009"
"North Camp","NCM",51.276,-0.731,0,"GU12 5QA","N/A","Toby Lewis 2009"
"North Dulwich","NDL",51.454,-0.088,0,"SE24 7BX","N/A","Toby Lewis 2009"
"North Fambridge","NFA",51.649,0.682,0,"CM3 6NP","N/A","Toby Lewis 2009"
"North Llanrwst","NLR",53.144,-3.803,0,"LL26 0EG","N/A","Toby Lewis 2009"
"North Queensferry","NQU",56.012,-3.394,0,"KY11 1JE","N/A","Toby Lewis 2009"
"North Road","NRD",54.536,-1.554,0,"DL3 6ST","N/A","Toby Lewis 2009"
"North Sheen","NSH",51.466,-0.287,0,"TW9 4QA","N/A","Toby Lewis 2009"
"North Walsham","NWA",52.817,1.384,0,"NR28 0DZ","N/A","Toby Lewis 2009"
"North Wembley","NWB",51.562,-0.304,0,"HA9 7NT","N/A","Toby Lewis 2009"
"Northallerton","NTR",54.334,-1.443,0,"DL7 8AN","N/A","Toby Lewis 2009"
"Northampton","NMP",52.237,-0.907,0,"NN1 1SP","N/A","Toby Lewis 2009"
"Northfield","NFD",52.408,-1.966,0,,"N/A","Toby Lewis 2009"
"Northfleet","NFL",51.446,0.324,0,"DA11 9DY","N/A","Toby Lewis 2009"
"Northolt Park","NLT",51.557,-0.360,0,"UB5 4NP","N/A","Toby Lewis 2009"
"Northumberland Park","NUM",51.602,-0.054,0,,"N/A","Toby Lewis 2009"
"Northwich","NWI",53.261,-2.497,0,"CW9 5LY","N/A","Toby Lewis 2009"
"Norton Bridge","NTB",52.865,-2.191,0,"ST15 0XY","N/A","Toby Lewis 2009"
"Norwich","NRW",52.627,1.307,0,"NR1 1EF","N/A","Toby Lewis 2009"
"Norwood Junction","NWD",51.397,-0.075,0,"SE25 5AG","N/A","Toby Lewis 2009"
"Nottingham","NOT",52.947,-1.147,0,"NG2 3AQ","N/A","Toby Lewis 2009"
"Nuneaton","NUN",52.526,-1.465,0,"CV11 4BU","N/A","Toby Lewis 2009"
"Nunhead","NHD",51.467,-0.053,0,"SE15 3XE","N/A","Toby Lewis 2009"
"Nunthorpe","NNT",54.528,-1.170,0,"TS7 0BL","N/A","Toby Lewis 2009"
"Nutbourne","NUT",50.847,-0.884,0,"PO18 8SH","N/A","Toby Lewis 2009"
"Nutfield","NUF",51.227,-0.133,0,"RH1 5RR","N/A","Toby Lewis 2009"
"Oakengates","OKN",52.694,-2.450,0,"TF2 6DH","N/A","Toby Lewis 2009"
"Oakham","OKM",52.672,-0.734,0,"LE15 6QT","N/A","Toby Lewis 2009"
"Oakleigh Park","OKL",51.638,-0.167,0,"EN5 1BU","N/A","Toby Lewis 2009"
"Oban","OBN",56.412,-5.474,0,"PA34 4LW","N/A","Toby Lewis 2009"
"Ockendon","OCK",51.522,0.290,0,"RM15 6PD","N/A","Toby Lewis 2009"
"Ockley","OLY",51.152,-0.335,0,"RH5 5HT","N/A","Toby Lewis 2009"
"Okehampton","OKE",50.732,-3.996,0,,"N/A","Toby Lewis 2009"
"Old Hill","OHL",52.471,-2.056,0,,"N/A","Toby Lewis 2009"
"Old Roan","ORN",53.487,-2.951,0,,"N/A","Toby Lewis 2009"
"Oldham Mumps","OLM",53.541,-2.102,0,"OL4 1SX","N/A","Toby Lewis 2009"
"Oldham Werneth","OLW",53.539,-2.128,0,"OL9 6TH","N/A","Toby Lewis 2009"
"Olton","OLT",52.438,-1.805,0,,"N/A","Toby Lewis 2009"
"Ore","ORE",50.866,0.589,0,"TN34 3ND","N/A","Toby Lewis 2009"
"Ormskirk","OMS",53.569,-2.881,0,,"N/A","Toby Lewis 2009"
"Orpington","ORP",51.373,0.089,0,"BR6 0SX","N/A","Toby Lewis 2009"
"Orrell","ORR",53.530,-2.709,0,"WN5 8TH","N/A","Toby Lewis 2009"
"Orrell Park","OPK",53.462,-2.963,0,,"N/A","Toby Lewis 2009"
"Otford","OTF",51.313,0.197,0,"TN14 5QY","N/A","Toby Lewis 2009"
"Oulton Broad North","OUN",52.478,1.716,0,"NR32 3LJ","N/A","Toby Lewis 2009"
"Oulton Broad South","OUS",52.470,1.707,0,"NR33 8QX","N/A","Toby Lewis 2009"
"Outwood","OUT",53.716,-1.511,0,"WF1 2NX","N/A","Toby Lewis 2009"
"Overpool","OVE",53.284,-2.924,0,"CH66 3LW","N/A","Toby Lewis 2009"
"Overton","OVR",51.254,-1.260,0,"RG25 3JG","N/A","Toby Lewis 2009"
"Oxenholme Lake District","OXN",54.304,-2.722,0,"LA9 7HG","N/A","Toby Lewis 2009"
"Oxford","OXF",51.754,-1.270,0,"OX1 1HS","N/A","Toby Lewis 2009"
"Oxshott","OXS",51.336,-0.363,0,"KT22 0TA","N/A","Toby Lewis 2009"
"Oxted","OXT",51.258,-0.005,0,"RH8 9EU","N/A","Toby Lewis 2009"
"Paddock Wood","PDW",51.183,0.389,0,"TN12 6ER","N/A","Toby Lewis 2009"
"Padgate","PDG",53.406,-2.557,0,"WA2 0QS","N/A","Toby Lewis 2009"
"Paignton","PGN",50.434,-3.565,0,"TQ4 5EF","N/A","Toby Lewis 2009"
"Paisley Canal","PCN",55.840,-4.424,0,"PA2 6SZ","N/A","Toby Lewis 2009"
"Paisley Gilmour Street","PYG",55.847,-4.425,0,"PA3 2DA","N/A","Toby Lewis 2009"
"Paisley St James","PYJ",55.852,-4.443,0,"PA3 1RB","N/A","Toby Lewis 2009"
"Palmers Green","PAL",51.619,-0.110,0,,"N/A","Toby Lewis 2009"
"Pangbourne","PAN",51.485,-1.090,0,"RG8 7DY","N/A","Toby Lewis 2009"
"Pannal","PNL",53.958,-1.533,0,"HG3 1JN","N/A","Toby Lewis 2009"
"Pantyffynnon","PTF",51.779,-3.997,0,"SA18 3HW","N/A","Toby Lewis 2009"
"Par","PAR",50.356,-4.704,0,"PL24 2LT","N/A","Toby Lewis 2009"
"Parbold","PBL",53.591,-2.771,0,"WN8 7NU","N/A","Toby Lewis 2009"
"Park Street","PKT",51.726,-0.340,0,"AL2 2NG","N/A","Toby Lewis 2009"
"Parkstone","PKS",50.723,-1.948,0,"BH14 8UD","N/A","Toby Lewis 2009"
"Partick","PTK",55.870,-4.309,0,,"N/A","Toby Lewis 2009"
"Parton","PRN",54.570,-3.582,0,"CA28 6PA","N/A","Toby Lewis 2009"
"Patricroft","PAT",53.485,-2.358,0,,"N/A","Toby Lewis 2009"
"Patterton","PTT",55.791,-4.336,0,,"N/A","Toby Lewis 2009"
"Peartree","PEA",52.896,-1.474,0,"DE24 8DT","N/A","Toby Lewis 2009"
"Peckham Rye","PMR",51.470,-0.069,0,"SE15 5DQ","N/A","Toby Lewis 2009"
"Pegswood","PEG",55.178,-1.644,0,"NE61 6SJ","N/A","Toby Lewis 2009"
"Pemberton","PEM",53.531,-2.670,0,"WN5 9HX","N/A","Toby Lewis 2009"
"Pembrey & Burry Port","PBY",51.684,-4.249,0,"SA16 0LW","N/A","Toby Lewis 2009"
"Pembroke","PMB",51.674,-4.907,0,"SA71 4AH","N/A","Toby Lewis 2009"
"Pembroke Dock","PMD",51.694,-4.938,0,"SA72 6HN","N/A","Toby Lewis 2009"
"Pen-y-Bont","PNY",52.274,-3.322,0,"LD1 6RE","N/A","Toby Lewis 2009"
"Penally","PNA",51.659,-4.722,0,"SA70 7PS","N/A","Toby Lewis 2009"
"Penarth","PEN",51.436,-3.175,0,"CF64 3DQ","N/A","Toby Lewis 2009"
"Pencoed","PCD",51.524,-3.502,0,"CF35 5NP","N/A","Toby Lewis 2009"
"Pengam","PGM",51.670,-3.230,0,"NP12 3XL","N/A","Toby Lewis 2009"
"Penge East","PNE",51.419,-0.054,0,"SE20 7BQ","N/A","Toby Lewis 2009"
"Penge West","PNW",51.418,-0.061,0,"SE20 8NU","N/A","Toby Lewis 2009"
"Penhelig","PHG",52.546,-4.035,0,"LL35 0LU","N/A","Toby Lewis 2009"
"Penistone","PNS",53.526,-1.623,0,,"N/A","Toby Lewis 2009"
"Penkridge","PKG",52.724,-2.119,0,"ST19 5AN","N/A","Toby Lewis 2009"
"Penmaenmawr","PMW",53.270,-3.923,0,"LL34 6AT","N/A","Toby Lewis 2009"
"Penmere","PNM",50.150,-5.083,0,"TR11 2QZ","N/A","Toby Lewis 2009"
"Penrhiwceiber","PER",51.670,-3.360,0,"CF45 3ST","N/A","Toby Lewis 2009"
"Penrhyndeudraeth","PRH",52.929,-4.065,0,"LL48 6LN","N/A","Toby Lewis 2009"
"Penrith North Lakes","PNR",54.662,-2.759,0,"CA11 7JQ","N/A","Toby Lewis 2009"
"Penryn","PYN",50.171,-5.112,0,"TR10 8HF","N/A","Toby Lewis 2009"
"Pensarn","PES",52.830,-4.111,0,"LL45 2HP","N/A","Toby Lewis 2009"
"Penshurst","PHR",51.197,0.173,0,"TN11 8JE","N/A","Toby Lewis 2009"
"Pentre-Bach","PTB",51.725,-3.362,0,"CF48 4BD","N/A","Toby Lewis 2009"
"Penychain","BPC",52.903,-4.339,0,"LL53 6HJ","N/A","Toby Lewis 2009"
"Penyffordd","PNF",53.143,-3.055,0,"CH4 0JT","N/A","Toby Lewis 2009"
"Penzance","PNZ",50.122,-5.533,0,"TR18 2LT","N/A","Toby Lewis 2009"
"Perranwell","PRW",50.216,-5.112,0,"TR3 7JY","N/A","Toby Lewis 2009"
"Perry Barr","PRY",52.517,-1.902,0,,"N/A","Toby Lewis 2009"
"Pershore","PSH",52.131,-2.073,0,"WR10 6FG","N/A","Toby Lewis 2009"
"Perth","PTH",56.392,-3.440,0,"PH2 8RT","N/A","Toby Lewis 2009"
"Peterborough","PBO",52.575,-0.250,0,"PE1 1QL","N/A","Toby Lewis 2009"
"Petersfield","PTR",51.007,-0.941,0,"GU32 3EE","N/A","Toby Lewis 2009"
"Petts Wood","PET",51.389,0.074,0,"BR5 1NA","N/A","Toby Lewis 2009"
"Pevensey & Westham","PEV",50.816,0.325,0,"BN24 5ND","N/A","Toby Lewis 2009"
"Pevensey Bay","PEB",50.818,0.344,0,"BN24 6AA","N/A","Toby Lewis 2009"
"Pewsey","PEW",51.342,-1.772,0,"SN9 5ER","N/A","Toby Lewis 2009"
"Pinhoe","PIN",50.738,-3.470,0,"EX1 3SE","N/A","Toby Lewis 2009"
"Pitlochry","PIT",56.703,-3.737,0,"PH16 5AN","N/A","Toby Lewis 2009"
"Pitsea","PSE",51.560,0.506,0,"SS16 4UD","N/A","Toby Lewis 2009"
"Pleasington","PLS",53.731,-2.544,0,"BB2 5JQ","N/A","Toby Lewis 2009"
"Plockton","PLK",57.334,-5.666,0,"IV52 8TX","N/A","Toby Lewis 2009"
"Pluckley","PLC",51.157,0.747,0,"TN27 0RT","N/A","Toby Lewis 2009"
"Plumley","PLM",53.275,-2.420,0,"WA16 9RU","N/A","Toby Lewis 2009"
"Plumpton","PMP",50.928,-0.060,0,"BN7 3BW","N/A","Toby Lewis 2009"
"Plumstead","PLU",51.490,0.084,0,"SE18 7EA","N/A","Toby Lewis 2009"
"Plymouth","PLY",50.378,-4.143,0,"PL4 6AB","N/A","Toby Lewis 2009"
"Pokesdown","POK",50.731,-1.825,0,"BH7 6DL","N/A","Toby Lewis 2009"
"Polegate","PLG",50.821,0.246,0,"BN26 6EH","N/A","Toby Lewis 2009"
"Polesworth","PSW",52.626,-1.611,0,,"N/A","Toby Lewis 2009"
"Pollokshaws East","PWE",55.825,-4.287,0,,"N/A","Toby Lewis 2009"
"Pollokshaws West","PWW",55.824,-4.301,0,,"N/A","Toby Lewis 2009"
"Pollokshields East","PLE",55.841,-4.269,0,,"N/A","Toby Lewis 2009"
"Pollokshields West","PLW",55.838,-4.276,0,,"N/A","Toby Lewis 2009"
"Polmont","PMT",55.985,-3.715,0,"FK2 0UP","N/A","Toby Lewis 2009"
"Polsloe Bridge","POL",50.731,-3.502,0,"EX4 8AB","N/A","Toby Lewis 2009"
"Ponders End","PON",51.642,-0.035,0,"EN3 4QB","N/A","Toby Lewis 2009"
"Pont-y-Pant","PYP",53.065,-3.863,0,"LL25 0DQ","N/A","Toby Lewis 2009"
"Pontarddulais","PTD",51.717,-4.046,0,"SA4 1TH","N/A","Toby Lewis 2009"
"Pontefract Baghill","PFR",53.692,-1.304,0,"WF8 1RB","N/A","Toby Lewis 2009"
"Pontefract Monkhill","PFM",53.699,-1.304,0,"WF8 2NX","N/A","Toby Lewis 2009"
"Pontefract Tanshelf","POT",53.694,-1.319,0,"WF8 4QA","N/A","Toby Lewis 2009"
"Pontlottyn","PLT",51.747,-3.280,0,"CF81 9QX","N/A","Toby Lewis 2009"
"Pontyclun","PYC",51.524,-3.391,0,"CF72 9DS","N/A","Toby Lewis 2009"
"Pontypool & New Inn","PPL",51.697,-3.013,0,"NP4 0QX","N/A","Toby Lewis 2009"
"Pontypridd","PPD",51.600,-3.342,0,"CF37 1DT","N/A","Toby Lewis 2009"
"Poole","POO",50.719,-1.983,0,"BH15 2BQ","N/A","Toby Lewis 2009"
"Poppleton","POP",53.976,-1.148,0,"YO26 6PZ","N/A","Toby Lewis 2009"
"Port Glasgow","PTG",55.933,-4.689,0,"PA14 5JH","N/A","Toby Lewis 2009"
"Port Sunlight","PSL",53.349,-2.998,0,"CH62 4XB","N/A","Toby Lewis 2009"
"Portchester","PTC",50.849,-1.125,0,"PO16 8BJ","N/A","Toby Lewis 2009"
"Porth","POR",51.612,-3.408,0,"CF39 0ES","N/A","Toby Lewis 2009"
"Porthmadog","PTM",52.931,-4.135,0,"LL49 9HT","N/A","Toby Lewis 2009"
"Portlethen","PLN",57.061,-2.129,0,"AB12 4JS","N/A","Toby Lewis 2009"
"Portslade","PLD",50.836,-0.205,0,"BN3 5SG","N/A","Toby Lewis 2009"
"Portsmouth Arms","PMA",50.957,-3.951,0,"EX37 9NB","N/A","Toby Lewis 2009"
"Possilpark & Parkhouse","PPK",55.890,-4.259,0,,"N/A","Toby Lewis 2009"
"Potters Bar","PBR",51.697,-0.192,0,"EN6 1AJ","N/A","Toby Lewis 2009"
"Poulton-le-Fylde","PFY",53.849,-2.991,0,"FY8 4BX","N/A","Toby Lewis 2009"
"Poynton","PYT",53.350,-2.134,0,"SK12 1HB","N/A","Toby Lewis 2009"
"Prees","PRS",52.899,-2.689,0,"SY13 2DW","N/A","Toby Lewis 2009"
"Prescot","PSC",53.424,-2.799,0,,"N/A","Toby Lewis 2009"
"Prestatyn","PRT",53.337,-3.407,0,"LL19 7ER","N/A","Toby Lewis 2009"
"Prestbury","PRB",53.293,-2.146,0,"SK10 4HT","N/A","Toby Lewis 2009"
"Preston","PRE",53.756,-2.706,0,"PR1 8AP","N/A","Toby Lewis 2009"
"Preston Park","PRP",50.846,-0.155,0,"BN1 6SG","N/A","Toby Lewis 2009"
"Prestonpans","PST",55.953,-2.974,0,"EH33 1NG","N/A","Toby Lewis 2009"
"Prestwick International Airport","PRA",55.509,-4.614,0,"KA9 2RZ","N/A","Toby Lewis 2009"
"Prestwick Town","PTW",55.501,-4.615,0,"KA9 1AQ","N/A","Toby Lewis 2009"
"Priesthill & Darnley","PTL",55.812,-4.343,0,,"N/A","Toby Lewis 2009"
"Princes Risborough","PRR",51.717,-0.844,0,"HP27 9DN","N/A","Toby Lewis 2009"
"Prittlewell","PRL",51.550,0.710,0,"SS2 5BT","N/A","Toby Lewis 2009"
"Prudhoe","PRU",54.966,-1.866,0,"NE42 6NR","N/A","Toby Lewis 2009"
"Pulborough","PUL",50.957,-0.517,0,"RH20 1AH","N/A","Toby Lewis 2009"
"Purfleet","PFL",51.481,0.237,0,"RM16 1PL","N/A","Toby Lewis 2009"
"Purley","PUR",51.337,-0.114,0,"CR8 2UD","N/A","Toby Lewis 2009"
"Purley Oaks","PUO",51.347,-0.099,0,"CR2 0ND","N/A","Toby Lewis 2009"
"Putney","PUT",51.461,-0.216,0,"SW15 1RT","N/A","Toby Lewis 2009"
"Pwllheli","PWL",52.888,-4.416,0,"LL53 5HG","N/A","Toby Lewis 2009"
"Pyle","PYL",51.525,-3.697,0,"CF33 6AR","N/A","Toby Lewis 2009"
"Quakers Yard","QYD",51.661,-3.323,0,"CF46 5NJ","N/A","Toby Lewis 2009"
"Queenborough","QBR",51.416,0.750,0,"ME11 5DB","N/A","Toby Lewis 2009"
"Queens Park (Glasgow)","QPK",55.835,-4.267,0,,"N/A","Toby Lewis 2009"
"Queens Park (London)","QPW",51.534,-0.205,0,"NW6 6NL","N/A","Toby Lewis 2009"
"Queens Road Peckham","QRP",51.474,-0.057,0,"SE15 2JR","N/A","Toby Lewis 2009"
"Queenstown Road","QRB",51.475,-0.147,0,"SW8 4LP","N/A","Toby Lewis 2009"
"Quintrel Downs","QUI",50.404,-5.028,0,"TR8 4LJ","N/A","Toby Lewis 2009"
"Radcliffe","RDF",52.949,-1.037,0,"NG12 2GS","N/A","Toby Lewis 2009"
"Radlett","RDT",51.685,-0.317,0,"WD7 7AP","N/A","Toby Lewis 2009"
"Radley","RAD",51.686,-1.241,0,"OX14 3AB","N/A","Toby Lewis 2009"
"Radyr","RDR",51.516,-3.248,0,"CF4 8AA","N/A","Toby Lewis 2009"
"Rainford","RNF",53.517,-2.788,0,"WA11 8SJ","N/A","Toby Lewis 2009"
"Rainham (Essex)","RNM",51.517,0.191,0,"RM13 9HY","N/A","Toby Lewis 2009"
"Rainham (Kent)","RAI",51.366,0.612,0,"ME8 7SF","N/A","Toby Lewis 2009"
"Rainhill","RNH",53.417,-2.766,0,,"N/A","Toby Lewis 2009"
"Ramsgate","RAM",51.341,1.407,0,"CT11 7RE","N/A","Toby Lewis 2009"
"Ramsgreave & Wilpshire","RGW",53.780,-2.478,0,"BB1 9BP","N/A","Toby Lewis 2009"
"Rannoch","RAN",56.686,-4.576,0,"PH17 2QA","N/A","Toby Lewis 2009"
"Rauceby","RAU",52.985,-0.456,0,"NG34 8PP","N/A","Toby Lewis 2009"
"Ravenglass for Eskdale","RAV",54.356,-3.409,0,"CA18 1SW","N/A","Toby Lewis 2009"
"Ravensbourne","RVB",51.414,-0.008,0,"BR3 5HE","N/A","Toby Lewis 2009"
"Ravensthorpe","RVN",53.676,-1.656,0,"WF12 9ED","N/A","Toby Lewis 2009"
"Rawcliffe","RWC",53.689,-0.961,0,"DN14 8NQ","N/A","Toby Lewis 2009"
"Rayleigh","RLG",51.589,0.600,0,"SS6 7HJ","N/A","Toby Lewis 2009"
"Raynes Park","RAY",51.409,-0.230,0,"SW20 0JY","N/A","Toby Lewis 2009"
"Reading West","RDW",51.455,-0.989,0,"RG1 7PY","N/A","Toby Lewis 2009"
"Rectory Road","REC",51.559,-0.068,0,,"N/A","Toby Lewis 2009"
"Redbridge","RDB",50.919,-1.467,0,"SO15 0NB","N/A","Toby Lewis 2009"
"Redcar Central","RCC",54.616,-1.070,0,"TS10 1RD","N/A","Toby Lewis 2009"
"Redcar East","RCE",54.610,-1.052,0,"TS10 3LT","N/A","Toby Lewis 2009"
"Reddish North","RDN",53.450,-2.157,0,"SK5 6RS","N/A","Toby Lewis 2009"
"Reddish South","RDS",53.436,-2.158,0,"SK5 6TU","N/A","Toby Lewis 2009"
"Redditch","RDC",52.306,-1.945,0,,"N/A","Toby Lewis 2009"
"Redhill","RDH",51.240,-0.165,0,"RH1 1RB","N/A","Toby Lewis 2009"
"Redruth","RED",50.233,-5.226,0,"TR15 2AB","N/A","Toby Lewis 2009"
"Reedham (Norfolk)","REE",52.564,1.560,0,"NR13 3JF","N/A","Toby Lewis 2009"
"Reedham (Surrey)","RHM",51.331,-0.123,0,"CR8 4DJ","N/A","Toby Lewis 2009"
"Reigate","REI",51.242,-0.204,0,"RH2 0BD","N/A","Toby Lewis 2009"
"Renton","RTN",55.970,-4.586,0,,"N/A","Toby Lewis 2009"
"Retford","RET",53.315,-0.947,0,"DN22 7DE","N/A","Toby Lewis 2009"
"Rhiwbina","RHI",51.521,-3.214,0,"CF14 6EP","N/A","Toby Lewis 2009"
"Rhoose Cardiff International Airport","RIA",51.387,-3.349,0,"CF62 3HB","N/A","Toby Lewis 2009"
"Rhosneigr","RHO",53.235,-4.506,0,"LL64 5QZ","N/A","Toby Lewis 2009"
"Rhyl","RHL",53.319,-3.489,0,"LL18 1AT","N/A","Toby Lewis 2009"
"Rhymney","RHY",51.759,-3.290,0,"NP2 5LW","N/A","Toby Lewis 2009"
"Ribblehead","RHD",54.206,-2.361,0,"LA63 5NE","N/A","Toby Lewis 2009"
"Rice Lane","RIL",53.457,-2.963,0,,"N/A","Toby Lewis 2009"
"Richmond","RMD",51.463,-0.302,0,"TW9 2NA","N/A","Toby Lewis 2009"
"Rickmansworth","RIC",51.640,-0.474,0,"WD3 1QY","N/A","Toby Lewis 2009"
"Riddlesdown","RDD",51.333,-0.099,0,"CR8 1HN","N/A","Toby Lewis 2009"
"Ridgmont","RID",52.027,-0.595,0,"MK43 9NR","N/A","Toby Lewis 2009"
"Riding Mill","RDM",54.949,-1.972,0,"NE44 6EP","N/A","Toby Lewis 2009"
"Risca & Pontymister","RCA",51.606,-3.092,0,"NP11 6BB","N/A","Toby Lewis 2009"
"Rishton","RIS",53.764,-2.420,0,"BB1 4EY","N/A","Toby Lewis 2009"
"Robertsbridge","RBR",50.985,0.468,0,"TN32 5DJ","N/A","Toby Lewis 2009"
"Roby","ROB",53.410,-2.856,0,,"N/A","Toby Lewis 2009"
"Rochdale","RCD",53.610,-2.154,0,"OL11 1DR","N/A","Toby Lewis 2009"
"Roche","ROC",50.419,-4.831,0,"PL26 8LG","N/A","Toby Lewis 2009"
"Rochester","RTR",51.385,0.510,0,"ME1 1HQ","N/A","Toby Lewis 2009"
"Rochford","RFD",51.582,0.702,0,"SS4 1AU","N/A","Toby Lewis 2009"
"Rock Ferry","RFY",53.372,-3.011,0,"CH42 2AT","N/A","Toby Lewis 2009"
"Rogart","ROG",57.988,-4.158,0,"IV28 3XL","N/A","Toby Lewis 2009"
"Rogerstone","ROR",51.596,-3.067,0,"NP10 9LG","N/A","Toby Lewis 2009"
"Rolleston","ROL",53.065,-0.900,0,"NG25 0SG","N/A","Toby Lewis 2009"
"Roman Bridge","RMB",53.044,-3.922,0,"LL25 0JE","N/A","Toby Lewis 2009"
"Romford","RMF",51.575,0.183,0,"RM1 1SX","N/A","Toby Lewis 2009"
"Romiley","RML",53.414,-2.089,0,"SK6 4BN","N/A","Toby Lewis 2009"
"Roose","ROO",54.115,-3.195,0,"LA13 9SJ","N/A","Toby Lewis 2009"
"Rose Grove","RSG",53.786,-2.282,0,"BB12 6EH","N/A","Toby Lewis 2009"
"Rose Hill Marple","RSH",53.396,-2.077,0,"SK6 6EE","N/A","Toby Lewis 2009"
"Rosyth","ROS",56.045,-3.426,0,"KY11 2JF","N/A","Toby Lewis 2009"
"Rotherham Central","RMC",53.432,-1.360,0,,"N/A","Toby Lewis 2009"
"Roughton Road","RNR",52.918,1.300,0,"NR27 9LN","N/A","Toby Lewis 2009"
"Rowlands Castle","RLN",50.892,-0.958,0,"PO9 6BP","N/A","Toby Lewis 2009"
"Rowley Regis","ROW",52.477,-2.031,0,,"N/A","Toby Lewis 2009"
"Roy Bridge","RYB",56.888,-4.837,0,"PH31 4AH","N/A","Toby Lewis 2009"
"Roydon","RYN",51.776,0.036,0,"CM19 5EH","N/A","Toby Lewis 2009"
"Royston","RYS",52.053,-0.027,0,"SG8 1JH","N/A","Toby Lewis 2009"
"Ruabon","RUA",52.987,-3.043,0,"LL14 6DL","N/A","Toby Lewis 2009"
"Rufford","RUF",53.635,-2.808,0,,"N/A","Toby Lewis 2009"
"Rugby","RUG",52.379,-1.251,0,"CV21 3LA","N/A","Toby Lewis 2009"
"Rugeley Town","RGT",52.754,-1.937,0,"WS15 2HQ","N/A","Toby Lewis 2009"
"Rugeley Trent Valley","RGL",52.770,-1.929,0,"WS15 3HA","N/A","Toby Lewis 2009"
"Runcorn","RUN",53.339,-2.739,0,"WA7 5UB","N/A","Toby Lewis 2009"
"Runcorn East","RUE",53.328,-2.666,0,"WA7 6EP","N/A","Toby Lewis 2009"
"Ruskington","RKT",53.041,-0.381,0,"NG34 9ED","N/A","Toby Lewis 2009"
"Ruswarp","RUS",54.470,-0.628,0,"YO21 1NJ","N/A","Toby Lewis 2009"
"Rutherglen","RUT",55.831,-4.213,0,,"N/A","Toby Lewis 2009"
"Ryde  St Johns Road","RYR",50.725,-1.157,0,"PO33 2BA","N/A","Toby Lewis 2009"
"Ryde Esplanade","RYD",50.733,-1.160,0,"PO33 2HE","N/A","Toby Lewis 2009"
"Ryde Pier Head","RYP",50.739,-1.160,0,"PO33 2HF","N/A","Toby Lewis 2009"
"Ryder Brow","RRB",53.457,-2.173,0,"SK6 1AA","N/A","Toby Lewis 2009"
"Rye","RYE",50.952,0.731,0,"TN31 7AB","N/A","Toby Lewis 2009"
"Rye House","RYH",51.770,0.006,0,"EN11 0EG","N/A","Toby Lewis 2009"
"Salford Central","SFD",53.483,-2.256,0,,"N/A","Toby Lewis 2009"
"Salford Crescent","SLD",53.486,-2.276,0,,"N/A","Toby Lewis 2009"
"Salfords","SAF",51.203,-0.163,0,"RH1 5DE","N/A","Toby Lewis 2009"
"Salhouse","SAH",52.676,1.391,0,"NR13 6NZ","N/A","Toby Lewis 2009"
"Saltaire","SAE",53.839,-1.790,0,"BD18 3LQ","N/A","Toby Lewis 2009"
"Saltash","STS",50.407,-4.209,0,"PL12 5LU","N/A","Toby Lewis 2009"
"Saltburn","SLB",54.583,-0.975,0,"TS12 1AQ","N/A","Toby Lewis 2009"
"Saltcoats","SLT",55.634,-4.784,0,"KA15 1AA","N/A","Toby Lewis 2009"
"Saltmarshe","SAM",53.722,-0.809,0,"DN14 7TW","N/A","Toby Lewis 2009"
"Salwick","SLW",53.782,-2.817,0,"PR4 0YH","N/A","Toby Lewis 2009"
"Sandal & Agbrigg","SNA",53.663,-1.482,0,"WF2 6AB","N/A","Toby Lewis 2009"
"Sandbach","SDB",53.150,-2.393,0,"CW11 3JG","N/A","Toby Lewis 2009"
"Sanderstead","SNR",51.348,-0.094,0,"CR2 0PL","N/A","Toby Lewis 2009"
"Sandhills","SDL",53.430,-2.991,0,,"N/A","Toby Lewis 2009"
"Sandhurst (Berkshire)","SND",51.347,-0.804,0,"GU47 4QO","N/A","Toby Lewis 2009"
"Sandling","SDG",51.090,1.066,0,"CT21 4HH","N/A","Toby Lewis 2009"
"Sandown","SAN",50.657,-1.162,0,"PO36 9BN","N/A","Toby Lewis 2009"
"Sandplace","SDP",50.386,-4.464,0,"PL13 1PJ","N/A","Toby Lewis 2009"
"Sandwell & Dudley","SAD",52.509,-2.012,0,,"N/A","Toby Lewis 2009"
"Sandwich","SDW",51.270,1.343,0,"CT13 9JR","N/A","Toby Lewis 2009"
"Sandy","SDY",52.125,-0.281,0,"SG19 1AW","N/A","Toby Lewis 2009"
"Sankey for Penketh","SNK",53.392,-2.650,0,"WA5 1RQ","N/A","Toby Lewis 2009"
"Sanquhar","SQH",55.371,-3.925,0,"DG4 6DQ","N/A","Toby Lewis 2009"
"Sarn","SRR",51.539,-3.590,0,"CF32 9RL","N/A","Toby Lewis 2009"
"Saundersfoot","SDF",51.722,-4.718,0,"SA69 9BG","N/A","Toby Lewis 2009"
"Saunderton","SDR",51.676,-0.826,0,"HP14 4LJ","N/A","Toby Lewis 2009"
"Sawbridgeworth","SAW",51.814,0.160,0,"CM12 9JZ","N/A","Toby Lewis 2009"
"Saxilby","SXY",53.267,-0.664,0,"LN1 2NS","N/A","Toby Lewis 2009"
"Saxmundham","SAX",52.215,1.490,0,"IP17 1BW","N/A","Toby Lewis 2009"
"Scarborough","SCA",54.280,-0.405,0,"YO11 1TN","N/A","Toby Lewis 2009"
"Scotscalder","SCT",58.483,-3.552,0,"KW12 6YH","N/A","Toby Lewis 2009"
"Scotstounhill","SCH",55.885,-4.353,0,,"N/A","Toby Lewis 2009"
"Scunthorpe","SCU",53.586,-0.652,0,"DN15 6PY","N/A","Toby Lewis 2009"
"Seaburn","SEB",54.929,-1.386,0,,"N/A","Toby Lewis 2009"
"Seaford","SEF",50.773,0.100,0,"BN25 2AR","N/A","Toby Lewis 2009"
"Seaforth & Litherland","SFL",53.466,-3.006,0,,"N/A","Toby Lewis 2009"
"Seaham","SEA",54.839,-1.347,0,"SR7 0XX","N/A","Toby Lewis 2009"
"Seamer","SEM",54.240,-0.417,0,"YO12 4LT","N/A","Toby Lewis 2009"
"Seascale","SSC",54.396,-3.485,0,"CA20 1QL","N/A","Toby Lewis 2009"
"Seaton Carew","SEC",54.658,-1.200,0,"TS25 1DW","N/A","Toby Lewis 2009"
"Seer Green & Jordans","SRG",51.610,-0.608,0,"HP9 2UT","N/A","Toby Lewis 2009"
"Selby","SBY",53.782,-1.064,0,"YO8 0NW","N/A","Toby Lewis 2009"
"Selhurst","SRS",51.393,-0.089,0,"SE25 5QB","N/A","Toby Lewis 2009"
"Sellafield","SEL",54.417,-3.510,0,"CA20 1RG","N/A","Toby Lewis 2009"
"Selling","SEG",51.277,0.940,0,"ME13 9PW","N/A","Toby Lewis 2009"
"Selly Oak","SLY",52.442,-1.935,0,,"N/A","Toby Lewis 2009"
"Settle","SET",54.067,-2.281,0,"BD24 9AA","N/A","Toby Lewis 2009"
"Seven Kings","SVK",51.564,0.096,0,"IG3 8RE","N/A","Toby Lewis 2009"
"Seven Sisters","SVS",51.584,-0.075,0,,"N/A","Toby Lewis 2009"
"Sevenoaks","SEV",51.277,0.182,0,"TN13 1DP","N/A","Toby Lewis 2009"
"Shalford","SFR",51.214,-0.567,0,"GU4 2WS","N/A","Toby Lewis 2009"
"Shanklin","SHN",50.634,-1.180,0,"PO37 7AR","N/A","Toby Lewis 2009"
"Shaw & Crompton","SHA",53.577,-2.090,0,"OL2 8UY","N/A","Toby Lewis 2009"
"Shawford","SHW",51.022,-1.328,0,"SO21 2AA","N/A","Toby Lewis 2009"
"Shawlands","SHL",55.829,-4.292,0,,"N/A","Toby Lewis 2009"
"Sheerness-on-Sea","SSS",51.441,0.759,0,"ME12 1RJ","N/A","Toby Lewis 2009"
"Sheffield","SHF",53.378,-1.463,0,,"N/A","Toby Lewis 2009"
"Shelford","SED",52.149,0.140,0,"CB22 5LR","N/A","Toby Lewis 2009"
"Shenfield","SNF",51.631,0.330,0,"CM15 8JD","N/A","Toby Lewis 2009"
"Shenstone","SEN",52.639,-1.845,0,"WS14 0NW","N/A","Toby Lewis 2009"
"Shepherds Bush","SPB",51.504,-0.217,0,,"N/A","Toby Lewis 2009"
"Shepherds Well","SPH",51.188,1.230,0,"CT15 7PE","N/A","Toby Lewis 2009"
"Shepley","SPY",53.589,-1.704,0,"HD8 8DU","N/A","Toby Lewis 2009"
"Shepperton","SHP",51.397,-0.447,0,"TW17 8AN","N/A","Toby Lewis 2009"
"Shepreth","STH",52.114,0.031,0,"SG8 6JP","N/A","Toby Lewis 2009"
"Sherborne","SHE",50.944,-2.513,0,"DT9 3NB","N/A","Toby Lewis 2009"
"Sherburn-in-Elmet","SIE",53.797,-1.233,0,"LS25 6DY","N/A","Toby Lewis 2009"
"Sheringham","SHM",52.942,1.209,0,"NR26 8RA","N/A","Toby Lewis 2009"
"Shettleston","SLS",55.853,-4.160,0,,"N/A","Toby Lewis 2009"
"Shieldmuir","SDM",55.777,-3.957,0,"ML2 7TF","N/A","Toby Lewis 2009"
"Shifnal","SFN",52.666,-2.373,0,"TF11 9QB","N/A","Toby Lewis 2009"
"Shildon","SHD",54.626,-1.637,0,"DL4 1LX","N/A","Toby Lewis 2009"
"Shiplake","SHI",51.511,-0.882,0,"RG9 3NY","N/A","Toby Lewis 2009"
"Shipley","SHY",53.834,-1.773,0,"BD18 2JL","N/A","Toby Lewis 2009"
"Shippea Hill","SPP",52.430,0.413,0,"CB7 4SR","N/A","Toby Lewis 2009"
"Shipton","SIP",51.865,-1.591,0,"OX7 5FJ","N/A","Toby Lewis 2009"
"Shirebrook","SHB",53.204,-1.202,0,"NG20 8SX","N/A","Toby Lewis 2009"
"Shireoaks","SRO",53.325,-1.167,0,,"N/A","Toby Lewis 2009"
"Shirley (West Midlands)","SRL",52.404,-1.845,0,,"N/A","Toby Lewis 2009"
"Shoeburyness","SRY",51.530,0.795,0,"SS3 9AW","N/A","Toby Lewis 2009"
"Sholing","SHO",50.897,-1.365,0,"SO19 8JY","N/A","Toby Lewis 2009"
"Shoreham (Kent)","SEH",51.332,0.189,0,"TN14 7RT","N/A","Toby Lewis 2009"
"Shortlands","SRT",51.406,0.002,0,"BR2 0JA","N/A","Toby Lewis 2009"
"Shotton","SHT",53.213,-3.039,0,"CH5 1BX","N/A","Toby Lewis 2009"
"Shotts","SHS",55.819,-3.798,0,"ML7 5DX","N/A","Toby Lewis 2009"
"Shrewsbury","SHR",52.712,-2.750,0,"SY1 2DQ","N/A","Toby Lewis 2009"
"Sidcup","SID",51.434,0.104,0,"DA15 7AW","N/A","Toby Lewis 2009"
"Sileby","SIL",52.732,-1.111,0,"LE12 7RN","N/A","Toby Lewis 2009"
"Silecroft","SIC",54.226,-3.335,0,"LA18 5LP","N/A","Toby Lewis 2009"
"Silkstone Common","SLK",53.535,-1.563,0,,"N/A","Toby Lewis 2009"
"Silver Street","SLV",51.615,-0.067,0,,"N/A","Toby Lewis 2009"
"Silverdale","SVR",54.170,-2.804,0,"LA5 0SW","N/A","Toby Lewis 2009"
"Singer","SIN",55.908,-4.406,0,,"N/A","Toby Lewis 2009"
"Sittingbourne","SIT",51.342,0.735,0,"ME10 3ED","N/A","Toby Lewis 2009"
"Skegness","SKG",53.143,0.334,0,"PE25 3QL","N/A","Toby Lewis 2009"
"Skewen","SKE",51.662,-3.845,0,"SA10 6HF","N/A","Toby Lewis 2009"
"Skipton","SKI",53.959,-2.026,0,"BD23 1RT","N/A","Toby Lewis 2009"
"Slade Green","SGR",51.468,0.190,0,"DA8 2NX","N/A","Toby Lewis 2009"
"Slaithwaite","SWT",53.624,-1.881,0,"HD7 5EB","N/A","Toby Lewis 2009"
"Slateford","SLA",55.927,-3.244,0,"EH14 1BX","N/A","Toby Lewis 2009"
"Sleaford","SLR",52.996,-0.412,0,"NG34 7RG","N/A","Toby Lewis 2009"
"Sleights","SLH",54.461,-0.662,0,"YO22 5AA","N/A","Toby Lewis 2009"
"Small Heath","SMA",52.464,-1.859,0,,"N/A","Toby Lewis 2009"
"Smallbrook Junction","SAB",50.711,-1.155,0,"PO33 1AZ","N/A","Toby Lewis 2009"
"Smethwick Galton Bridge","SGB",52.502,-1.981,0,,"N/A","Toby Lewis 2009"
"Smethwick Rolfe Street","SMR",52.497,-1.971,0,,"N/A","Toby Lewis 2009"
"Smitham","SMI",51.322,-0.134,0,"CR3 2NS","N/A","Toby Lewis 2009"
"Smithy Bridge","SMB",53.633,-2.113,0,"OL15 0DZ","N/A","Toby Lewis 2009"
"Snaith","SNI",53.693,-1.028,0,"DN14 9HX","N/A","Toby Lewis 2009"
"Snodland","SDA",51.331,0.449,0,"ME6 5AN","N/A","Toby Lewis 2009"
"Snowdown","SWO",51.215,1.214,0,"CT15 4JH","N/A","Toby Lewis 2009"
"Sole Street","SOR",51.383,0.379,0,"DA13 0XY","N/A","Toby Lewis 2009"
"Solihull","SOL",52.415,-1.788,0,,"N/A","Toby Lewis 2009"
"Somerleyton","SYT",52.510,1.653,0,"NR32 5QN","N/A","Toby Lewis 2009"
"South Acton","SAT",51.500,-0.270,0,,"N/A","Toby Lewis 2009"
"South Bank","SBK",54.584,-1.176,0,"TS6 6AZ","N/A","Toby Lewis 2009"
"South Bermondsey","SBM",51.488,-0.055,0,"SE16 3JB","N/A","Toby Lewis 2009"
"South Croydon","SCY",51.363,-0.094,0,"CR2 7PA","N/A","Toby Lewis 2009"
"South Elmsall","SES",53.595,-1.286,0,"WF9 2HP","N/A","Toby Lewis 2009"
"South Greenford","SGN",51.533,-0.336,0,"UB6 2WE","N/A","Toby Lewis 2009"
"South Gyle","SGL",55.936,-3.299,0,"EH12 9EU","N/A","Toby Lewis 2009"
"South Hampstead","SOH",51.541,-0.179,0,"NW8 0DJ","N/A","Toby Lewis 2009"
"South Kenton","SOK",51.570,-0.309,0,"HA9 8RB","N/A","Toby Lewis 2009"
"South Merton","SMO",51.403,-0.206,0,"SW20 9JT","N/A","Toby Lewis 2009"
"South Milford","SOM",53.782,-1.252,0,"LS25 6AA","N/A","Toby Lewis 2009"
"South Ruislip","SRU",51.557,-0.399,0,"HA4 6TP","N/A","Toby Lewis 2009"
"South Tottenham","STO",51.580,-0.072,0,,"N/A","Toby Lewis 2009"
"South Wigston","SWS",52.582,-1.135,0,"LE18 4XU","N/A","Toby Lewis 2009"
"South Woodham Ferrers","SOF",51.650,0.607,0,"CM3 5NQ","N/A","Toby Lewis 2009"
"Southall","STL",51.506,-0.378,0,"UB2 4AA","N/A","Toby Lewis 2009"
"Southampton Airport Parkway","SOA",50.951,-1.363,0,"SO18 2HW","N/A","Toby Lewis 2009"
"Southbourne","SOB",50.848,-0.907,0,"PO10 8LE","N/A","Toby Lewis 2009"
"Southbury","SBU",51.649,-0.052,0,"EN3 4HW","N/A","Toby Lewis 2009"
"Southease","SEE",50.831,0.031,0,"BN8 6JS","N/A","Toby Lewis 2009"
"Southend Central","SOC",51.537,0.711,0,"SS1 1AB","N/A","Toby Lewis 2009"
"Southend East","SOE",51.539,0.732,0,"SS2 6AE","N/A","Toby Lewis 2009"
"Southend Victoria","SOV",51.542,0.712,0,"SS2 6AZ","N/A","Toby Lewis 2009"
"Southminster","SMN",51.661,0.835,0,"CM0 7EN","N/A","Toby Lewis 2009"
"Southport","SOP",53.647,-3.003,0,"PR8 1BE","N/A","Toby Lewis 2009"
"Southwick","SWK",50.833,-0.237,0,"BN42 4AE","N/A","Toby Lewis 2009"
"Sowerby Bridge","SOW",53.708,-1.907,0,"HX6 3LB","N/A","Toby Lewis 2009"
"Spalding","SPA",52.789,-0.157,0,"PE11 1EA","N/A","Toby Lewis 2009"
"Spean Bridge","SBR",56.890,-4.922,0,"PH34 4EP","N/A","Toby Lewis 2009"
"Spital","SPI",53.340,-2.994,0,"CH62 2AD","N/A","Toby Lewis 2009"
"Spondon","SPO",52.912,-1.411,0,"DE21 7RX","N/A","Toby Lewis 2009"
"Spooner Row","SPN",52.535,1.086,0,"NR18 9AH","N/A","Toby Lewis 2009"
"Spring Road","SRI",52.443,-1.837,0,,"N/A","Toby Lewis 2009"
"Springburn","SPR",55.882,-4.230,0,,"N/A","Toby Lewis 2009"
"Springfield","SPF",56.294,-3.053,0,"KY15 5QY","N/A","Toby Lewis 2009"
"Squires Gate","SQU",53.778,-3.051,0,"FY8 2SL","N/A","Toby Lewis 2009"
"St Albans","SAC",51.751,-0.328,0,"AL1 5HE","N/A","Toby Lewis 2009"
"St Albans Abbey","SAA",51.744,-0.342,0,"AL1 2DN","N/A","Toby Lewis 2009"
"St Annes-on-the-Sea","SAS",53.753,-3.029,0,"FY8 2JE","N/A","Toby Lewis 2009"
"St Austell","SAU",50.340,-4.790,0,"PL25 2LA","N/A","Toby Lewis 2009"
"St Bees","SBS",54.492,-3.591,0,"CA27 0BZ","N/A","Toby Lewis 2009"
"St Budeaux Ferry Road","SBF",50.401,-4.187,0,"PL5 1JJ","N/A","Toby Lewis 2009"
"St Budeaux Victoria Road","SBV",50.402,-4.188,0,"PL5 1JJ","N/A","Toby Lewis 2009"
"St Columb Road","SCR",50.399,-4.941,0,"TR9 6QY","N/A","Toby Lewis 2009"
"St Denys","SDN",50.922,-1.387,0,"SO17 2EZ","N/A","Toby Lewis 2009"
"St Erth","SER",50.171,-5.444,0,"TR27 6JW","N/A","Toby Lewis 2009"
"St Germans","SGM",50.394,-4.308,0,"PL12 5LS","N/A","Toby Lewis 2009"
"St Helens Central","SNH",53.453,-2.730,0,"WA10 1DQ","N/A","Toby Lewis 2009"
"St Helens Junction","SHJ",53.434,-2.700,0,"WA9 3LA","N/A","Toby Lewis 2009"
"St Helier","SIH",51.390,-0.200,0,"SM4 5NR","N/A","Toby Lewis 2009"
"St Ives","SIV",50.209,-5.477,0,"TR26 2BP","N/A","Toby Lewis 2009"
"St James Park","SJP",50.731,-3.522,0,"EX4 6QB","N/A","Toby Lewis 2009"
"St James Street (Walthamstow)","SJS",51.581,-0.033,0,,"N/A","Toby Lewis 2009"
"St Johns","SAJ",51.469,-0.023,0,"SE8 4EW","N/A","Toby Lewis 2009"
"St Keyne","SKN",50.423,-4.464,0,"PL14 4SE","N/A","Toby Lewis 2009"
"St Leonards Warrior Square","SLQ",50.856,0.561,0,"TN37 6HL","N/A","Toby Lewis 2009"
"St Margarets (London)","SMG",51.455,-0.321,0,"TW1 2LH","N/A","Toby Lewis 2009"
"St Margarets (Herts)","SMT",51.788,0.001,0,"SG12 8DS","N/A","Toby Lewis 2009"
"St Mary Cray","SMY",51.395,0.107,0,"BR5 2PQ","N/A","Toby Lewis 2009"
"St Michaels","STM",53.376,-2.953,0,,"N/A","Toby Lewis 2009"
"St Neots","SNO",52.232,-0.247,0,"PE19 1QF","N/A","Toby Lewis 2009"
"Stafford","STA",52.804,-2.122,0,"ST16 2AA","N/A","Toby Lewis 2009"
"Staines","SNS",51.433,-0.503,0,"TW18 4LY","N/A","Toby Lewis 2009"
"Stallingborough","SLL",53.587,-0.184,0,"DN41 8AS","N/A","Toby Lewis 2009"
"Stalybridge","SYB",53.484,-2.064,0,"SK15 1RF","N/A","Toby Lewis 2009"
"Stamford","SMD",52.648,-0.480,0,"PE9 2JL","N/A","Toby Lewis 2009"
"Stamford Hill","SMH",51.574,-0.077,0,,"N/A","Toby Lewis 2009"
"Stanford-le-Hope","SFO",51.514,0.423,0,"SS17 0JX","N/A","Toby Lewis 2009"
"Stanlow & Thornton","SNT",53.278,-2.841,0,"CH2 4NU","N/A","Toby Lewis 2009"
"Stansted Airport","SSD",51.889,0.261,0,"CM24 1QW","N/A","Toby Lewis 2009"
"Stansted Mountfitchet","SST",51.902,0.200,0,"CM24 8BE","N/A","Toby Lewis 2009"
"Staplehurst","SPU",51.171,0.550,0,"TN12 0QR","N/A","Toby Lewis 2009"
"Starbeck","SBE",53.998,-1.500,0,"HG2 7JA","N/A","Toby Lewis 2009"
"Starcross","SCS",50.628,-3.448,0,"EX6 8PA","N/A","Toby Lewis 2009"
"Staveley","SVL",54.375,-2.818,0,"LA8 9NG","N/A","Toby Lewis 2009"
"Stechford","SCF",52.485,-1.811,0,,"N/A","Toby Lewis 2009"
"Steeton & Silsden","SON",53.900,-1.944,0,"BD20 6RY","N/A","Toby Lewis 2009"
"Stepps","SPS",55.890,-4.140,0,,"N/A","Toby Lewis 2009"
"Stevenage","SVG",51.902,-0.207,0,"SG1 1XT","N/A","Toby Lewis 2009"
"Stevenston","STV",55.634,-4.750,0,"KA20 3DP","N/A","Toby Lewis 2009"
"Stewartby","SWR",52.069,-0.521,0,"MK43 9LY","N/A","Toby Lewis 2009"
"Stewarton","STT",55.682,-4.518,0,"KA3 5BD","N/A","Toby Lewis 2009"
"Stirling","STG",56.120,-3.935,0,"FK8 1PF","N/A","Toby Lewis 2009"
"Stockport","SPT",53.406,-2.162,0,"SK3 9HZ","N/A","Toby Lewis 2009"
"Stocksfield","SKS",54.947,-1.917,0,"NE43 7NQ","N/A","Toby Lewis 2009"
"Stocksmoor","SSM",53.594,-1.723,0,"HD4 6XN","N/A","Toby Lewis 2009"
"Stockton","STK",54.569,-1.319,0,"TS18 2AJ","N/A","Toby Lewis 2009"
"Stoke Mandeville","SKM",51.788,-0.784,0,"HP22 5UA","N/A","Toby Lewis 2009"
"Stoke Newington","SKW",51.565,-0.073,0,,"N/A","Toby Lewis 2009"
"Stoke-on-Trent","SOT",53.008,-2.181,0,"ST4 2AA","N/A","Toby Lewis 2009"
"Stone","SNE",52.908,-2.155,0,"ST15 8ER","N/A","Toby Lewis 2009"
"Stone Crossing","SCG",51.452,0.264,0,"DA9 9AR","N/A","Toby Lewis 2009"
"Stone Granville Square","SGQ",52.903,-2.148,0,,"N/A","Toby Lewis 2009"
"Stonebridge Park","SBP",51.544,-0.275,0,"NW10 0RL","N/A","Toby Lewis 2009"
"Stonegate","SOG",51.020,0.364,0,"TN5 7ER","N/A","Toby Lewis 2009"
"Stonehaven","STN",56.966,-2.226,0,"AB39 2NE","N/A","Toby Lewis 2009"
"Stonehouse","SHU",51.747,-2.279,0,"GL10 2JW","N/A","Toby Lewis 2009"
"Stoneleigh","SNL",51.363,-0.248,0,"KT17 2JA","N/A","Toby Lewis 2009"
"Stourbridge Junction","SBJ",52.447,-2.134,0,"DY8 1NH","N/A","Toby Lewis 2009"
"Stourbridge Town","SBT",52.456,-2.142,0,"DY8 1EX","N/A","Toby Lewis 2009"
"Stowmarket","SMK",52.190,1.000,0,"IP14 1RQ","N/A","Toby Lewis 2009"
"Stranraer","STR",54.909,-5.025,0,"DG9 8EJ","N/A","Toby Lewis 2009"
"Stratford","SRA",51.542,-0.004,0,,"N/A","Toby Lewis 2009"
"Stratford-upon-Avon","SAV",52.194,-1.716,0,"CV37 6PL","N/A","Toby Lewis 2009"
"Strathcarron","STC",57.423,-5.429,0,"IV54 8YR","N/A","Toby Lewis 2009"
"Strawberry Hill","STW",51.440,-0.340,0,"TW1 4PP","N/A","Toby Lewis 2009"
"Streatham","STE",51.426,-0.132,0,"SW16 6HP","N/A","Toby Lewis 2009"
"Streatham Common","SRC",51.418,-0.136,0,"SW16 5NT","N/A","Toby Lewis 2009"
"Streatham Hill","SRH",51.438,-0.128,0,"SW2 4PA","N/A","Toby Lewis 2009"
"Streethouse","SHC",53.676,-1.400,0,"WF7 6UJ","N/A","Toby Lewis 2009"
"Strines","SRN",53.375,-2.034,0,"SK22 3AY","N/A","Toby Lewis 2009"
"Stromeferry","STF",57.352,-5.550,0,"IV53 8UH","N/A","Toby Lewis 2009"
"Strood (Kent)","SOO",51.396,0.500,0,"ME2 4DR","N/A","Toby Lewis 2009"
"Sturry","STU",51.301,1.122,0,"CT2 0ED","N/A","Toby Lewis 2009"
"Styal","SYA",53.348,-2.240,0,"SK9 4JW","N/A","Toby Lewis 2009"
"Sudbury (Suffolk)","SUY",52.036,0.736,0,"CO10 6SU","N/A","Toby Lewis 2009"
"Sudbury & Harrow Road","SUD",51.554,-0.316,0,"HA0 2LW","N/A","Toby Lewis 2009"
"Sudbury Hill Harrow","SDH",51.558,-0.336,0,"HA1 3RJ","N/A","Toby Lewis 2009"
"Sugar Loaf","SUG",52.092,-3.663,0,"LD5 4TE","N/A","Toby Lewis 2009"
"Summerston","SUM",55.899,-4.292,0,,"N/A","Toby Lewis 2009"
"Sunbury","SUU",51.418,-0.418,0,"TW16 6RZ","N/A","Toby Lewis 2009"
"Sunderland","SUN",54.905,-1.382,0,"SR1 3HP","N/A","Toby Lewis 2009"
"Sundridge Park","SUP",51.414,0.021,0,"BR1 3TR","N/A","Toby Lewis 2009"
"Sunningdale","SNG",51.392,-0.633,0,"SL5 0EL","N/A","Toby Lewis 2009"
"Sunnymeads","SNY",51.469,-0.560,0,"SL3 9PX","N/A","Toby Lewis 2009"
"Surbiton","SUR",51.393,-0.304,0,"KT6 4PE","N/A","Toby Lewis 2009"
"Sutton","SUO",51.360,-0.191,0,"SM2 5AD","N/A","Toby Lewis 2009"
"Sutton Coldfield","SUT",52.565,-1.826,0,,"N/A","Toby Lewis 2009"
"Sutton Common","SUC",51.375,-0.197,0,"SM1 3HY","N/A","Toby Lewis 2009"
"Sutton Parkway","SPK",53.114,-1.246,0,"NG17 5LG","N/A","Toby Lewis 2009"
"Swale","SWL",51.389,0.747,0,"ME9 8SS","N/A","Toby Lewis 2009"
"Swanley","SAY",51.393,0.168,0,"BR8 8JD","N/A","Toby Lewis 2009"
"Swanscombe","SWM",51.450,0.310,0,"DA10 0AG","N/A","Toby Lewis 2009"
"Swanwick","SNW",50.876,-1.266,0,"SO31 1BA","N/A","Toby Lewis 2009"
"Sway","SWY",50.785,-1.610,0,"SO41 6BA","N/A","Toby Lewis 2009"
"Swaythling","SWG",50.941,-1.376,0,"SO18 2LB","N/A","Toby Lewis 2009"
"Swinderby","SWD",53.169,-0.702,0,"LN6 9HY","N/A","Toby Lewis 2009"
"Swineshead","SWE",52.970,-0.188,0,"PE20 3PU","N/A","Toby Lewis 2009"
"Swinton (Manchester)","SNN",53.515,-2.337,0,,"N/A","Toby Lewis 2009"
"Swinton (South Yorkshire)","SWN",53.486,-1.306,0,,"N/A","Toby Lewis 2009"
"Sydenham","SYD",51.427,-0.054,0,"SE26 5EU","N/A","Toby Lewis 2009"
"Sydenham Hill","SYH",51.433,-0.080,0,"SE21 7ND","N/A","Toby Lewis 2009"
"Syon Lane","SYL",51.482,-0.325,0,"TW8 8JG","N/A","Toby Lewis 2009"
"Syston","SYS",52.694,-1.082,0,"LE7 2HA","N/A","Toby Lewis 2009"
"Tackley","TAC",51.881,-1.298,0,"OX5 3AT","N/A","Toby Lewis 2009"
"Tadworth","TAD",51.292,-0.236,0,"KT20 5SP","N/A","Toby Lewis 2009"
"Taffs Well","TAF",51.541,-3.263,0,"CF15 7PE","N/A","Toby Lewis 2009"
"Tain","TAI",57.814,-4.052,0,"IV19 1JA","N/A","Toby Lewis 2009"
"Tal-y-Cafn","TLC",53.228,-3.818,0,"LL28 5RR","N/A","Toby Lewis 2009"
"Talsarnau","TAL",52.904,-4.068,0,"LL47 6UA","N/A","Toby Lewis 2009"
"Talybont","TLB",52.773,-4.097,0,"LL43 2AQ","N/A","Toby Lewis 2009"
"Tame Bridge Parkway","TAB",52.553,-1.976,0,"WS10 0LD","N/A","Toby Lewis 2009"
"Tamworth","TAM",52.637,-1.687,0,,"N/A","Toby Lewis 2009"
"Taplow","TAP",51.524,-0.681,0,"SL6 0NU","N/A","Toby Lewis 2009"
"Tattenham Corner","TAT",51.309,-0.243,0,"KT18 5PR","N/A","Toby Lewis 2009"
"Taynuilt","TAY",56.431,-5.239,0,"PA35 1JH","N/A","Toby Lewis 2009"
"Teddington","TED",51.425,-0.333,0,"TW11 0BB","N/A","Toby Lewis 2009"
"Tees-side Airport","TEA",54.518,-1.425,0,"DL2 1NL","N/A","Toby Lewis 2009"
"Teignmouth","TGM",50.548,-3.495,0,"TQ14 8PG","N/A","Toby Lewis 2009"
"Telford Central","TFC",52.681,-2.441,0,"TF3 4LZ","N/A","Toby Lewis 2009"
"Templecombe","TMC",51.002,-2.417,0,"BA8 0JR","N/A","Toby Lewis 2009"
"Tenby","TEN",51.673,-4.706,0,"SA70 7JY","N/A","Toby Lewis 2009"
"Teynham","TEY",51.334,0.808,0,"ME9 9DU","N/A","Toby Lewis 2009"
"Thames Ditton","THD",51.389,-0.339,0,"KT7 0NU","N/A","Toby Lewis 2009"
"Thatcham","THA",51.394,-1.243,0,"RG19 4PP","N/A","Toby Lewis 2009"
"Thatto Heath","THH",53.437,-2.759,0,"WA9 5PE","N/A","Toby Lewis 2009"
"The Hawthorns","THW",52.505,-1.965,0,,"N/A","Toby Lewis 2009"
"The Lakes","TLK",52.359,-1.845,0,,"N/A","Toby Lewis 2009"
"Theale","THE",51.433,-1.074,0,"RG7 4AA","N/A","Toby Lewis 2009"
"Theobalds Grove","TEO",51.692,-0.035,0,"EN8 7BG","N/A","Toby Lewis 2009"
"Thetford","TTF",52.419,0.745,0,"IP24 1AH","N/A","Toby Lewis 2009"
"Thirsk","THI",54.228,-1.372,0,"YO7 4LS","N/A","Toby Lewis 2009"
"Thornaby","TBY",54.559,-1.302,0,"TS17 6AW","N/A","Toby Lewis 2009"
"Thorne North","TNN",53.616,-0.973,0,"DN8 4HZ","N/A","Toby Lewis 2009"
"Thorne South","TNS",53.603,-0.956,0,"DN8 5QN","N/A","Toby Lewis 2009"
"Thornliebank","THB",55.811,-4.312,0,,"N/A","Toby Lewis 2009"
"Thornton Abbey","TNA",53.655,-0.323,0,"DN39 6XF","N/A","Toby Lewis 2009"
"Thornton Heath","TTH",51.398,-0.100,0,"CR7 8RX","N/A","Toby Lewis 2009"
"Thorntonhall","THT",55.769,-4.251,0,,"N/A","Toby Lewis 2009"
"Thorpe Bay","TPB",51.538,0.762,0,"SS1 3JY","N/A","Toby Lewis 2009"
"Thorpe Culvert","TPC",53.123,0.199,0,"PE24 4NL","N/A","Toby Lewis 2009"
"Thorpe-le-Soken","TLS",51.848,1.161,0,"CO16 0HQ","N/A","Toby Lewis 2009"
"Three Bridges","TBD",51.117,-0.161,0,"RH10 1LY","N/A","Toby Lewis 2009"
"Three Oaks","TOK",50.901,0.613,0,"TN35 4NL","N/A","Toby Lewis 2009"
"Thurgarton","THU",53.029,-0.962,0,"NG14 7JY","N/A","Toby Lewis 2009"
"Thurnscoe","THC",53.545,-1.308,0,,"N/A","Toby Lewis 2009"
"Thurso","THS",58.590,-3.528,0,"KW14 7DL","N/A","Toby Lewis 2009"
"Thurston","TRS",52.250,0.809,0,"IP31 3QU","N/A","Toby Lewis 2009"
"Tilbury Town","TIL",51.462,0.354,0,"RM18 7JH","N/A","Toby Lewis 2009"
"Tile Hill","THL",52.395,-1.597,0,"CV4 8AS","N/A","Toby Lewis 2009"
"Tilehurst","TLH",51.472,-1.031,0,"RG31 6TH","N/A","Toby Lewis 2009"
"Tipton","TIP",52.530,-2.066,0,"DY4 8ET","N/A","Toby Lewis 2009"
"Tir-Phil","TIR",51.721,-3.246,0,"NP24 6EL","N/A","Toby Lewis 2009"
"Tisbury","TIS",51.061,-2.079,0,"SP3 6JT","N/A","Toby Lewis 2009"
"Todmorden","TOD",53.714,-2.100,0,"OL14 7AA","N/A","Toby Lewis 2009"
"Tolworth","TOL",51.377,-0.279,0,"KT5 9NX","N/A","Toby Lewis 2009"
"Ton Pentre","TPN",51.648,-3.486,0,"CF41 7PN","N/A","Toby Lewis 2009"
"Tonbridge","TON",51.191,0.271,0,"TN9 1TT","N/A","Toby Lewis 2009"
"Tondu","TDU",51.547,-3.595,0,"CF32 9DR","N/A","Toby Lewis 2009"
"Tonfanau","TNF",52.614,-4.123,0,"LL36 8LP","N/A","Toby Lewis 2009"
"Tonypandy","TNP",51.621,-3.450,0,"CF40 2TU","N/A","Toby Lewis 2009"
"Tooting","TOO",51.419,-0.162,0,"SW17 9JR","N/A","Toby Lewis 2009"
"Topsham","TOP",50.686,-3.464,0,"EX3 0DS","N/A","Toby Lewis 2009"
"Torquay","TQY",50.461,-3.543,0,"TQ2 6NU","N/A","Toby Lewis 2009"
"Torre","TRR",50.473,-3.547,0,"TQ2 5DD","N/A","Toby Lewis 2009"
"Totnes","TOT",50.436,-3.689,0,"TQ9 5JR","N/A","Toby Lewis 2009"
"Tottenham Hale","TOM",51.589,-0.060,0,,"N/A","Toby Lewis 2009"
"Totton","TTN",50.918,-1.482,0,"SO40 3AB","N/A","Toby Lewis 2009"
"Town Green","TWN",53.543,-2.905,0,,"N/A","Toby Lewis 2009"
"Trafford Park","TRA",53.455,-2.311,0,,"N/A","Toby Lewis 2009"
"Trefforest","TRF",51.592,-3.325,0,"CF37 1SL","N/A","Toby Lewis 2009"
"Trefforest Estate","TRE",51.569,-3.291,0,"CF38 1SG","N/A","Toby Lewis 2009"
"Trehafod","TRH",51.610,-3.380,0,"CF37 2LL","N/A","Toby Lewis 2009"
"Treherbert","TRB",51.672,-3.536,0,"CF42 5HU","N/A","Toby Lewis 2009"
"Treorchy","TRY",51.658,-3.506,0,"CF42 6UE","N/A","Toby Lewis 2009"
"Trimley","TRM",51.977,1.320,0,"IP10 0TS","N/A","Toby Lewis 2009"
"Tring","TRI",51.800,-0.622,0,"HP23 5QR","N/A","Toby Lewis 2009"
"Troed-y-rhiw","TRD",51.712,-3.347,0,"CF48 4DY","N/A","Toby Lewis 2009"
"Troon","TRN",55.543,-4.655,0,"KA10 6JY","N/A","Toby Lewis 2009"
"Truro","TRU",50.264,-5.064,0,"TR1 3HH","N/A","Toby Lewis 2009"
"Tulloch","TUL",56.884,-4.701,0,"PH31 4AR","N/A","Toby Lewis 2009"
"Tulse Hill","TUH",51.440,-0.106,0,"SE27 9BW","N/A","Toby Lewis 2009"
"Tunbridge Wells","TBW",51.130,0.263,0,"TN1 1BT","N/A","Toby Lewis 2009"
"Turkey Street","TUR",51.672,-0.047,0,"EN3 5TT","N/A","Toby Lewis 2009"
"Tutbury & Hatton","TUT",52.864,-1.682,0,"DE65 5DX","N/A","Toby Lewis 2009"
"Twickenham","TWI",51.450,-0.330,0,"TW1 3SX","N/A","Toby Lewis 2009"
"Twyford","TWY",51.475,-0.863,0,"RG10 9NA","N/A","Toby Lewis 2009"
"Ty Croes","TYC",53.223,-4.474,0,"LL63 5HX","N/A","Toby Lewis 2009"
"Ty Glas","TGS",51.522,-3.196,0,"CF14 5DL","N/A","Toby Lewis 2009"
"Tygwyn","TYG",52.894,-4.078,0,"LL47 6TF","N/A","Toby Lewis 2009"
"Tyndrum Lower","TYL",56.434,-4.714,0,"FK20 8RZ","N/A","Toby Lewis 2009"
"Tyseley","TYS",52.454,-1.839,0,,"N/A","Toby Lewis 2009"
"Tywyn","TYW",52.586,-4.093,0,"LL36 9EY","N/A","Toby Lewis 2009"
"Uckfield","UCK",50.969,0.097,0,"TN22 1HS","N/A","Toby Lewis 2009"
"Uddingston","UDD",55.824,-4.087,0,,"N/A","Toby Lewis 2009"
"Ulceby","ULC",53.619,-0.301,0,"DN39 6BE","N/A","Toby Lewis 2009"
"Ulleskelf","ULL",53.853,-1.214,0,"LS24 9DJ","N/A","Toby Lewis 2009"
"Ulverston","ULV",54.192,-3.098,0,"LA12 9QT","N/A","Toby Lewis 2009"
"Umberleigh","UMB",50.997,-3.983,0,"EX37 9AB","N/A","Toby Lewis 2009"
"University","UNI",52.451,-1.937,0,,"N/A","Toby Lewis 2009"
"Uphall","UHA",55.919,-3.502,0,"EH54 5QG","N/A","Toby Lewis 2009"
"Upholland","UPL",53.529,-2.741,0,"WN8 9QD","N/A","Toby Lewis 2009"
"Upminster","UPM",51.558,0.250,0,"RM14 2TD","N/A","Toby Lewis 2009"
"Upper Halliford","UPH",51.413,-0.431,0,"TW16 7HB","N/A","Toby Lewis 2009"
"Upper Holloway","UHL",51.564,-0.129,0,,"N/A","Toby Lewis 2009"
"Upper Tyndrum","UTY",56.435,-4.704,0,,"N/A","Toby Lewis 2009"
"Upper Warlingham","UWL",51.309,-0.078,0,"CR3 0EP","N/A","Toby Lewis 2009"
"Upton","UPT",53.386,-3.084,0,"CH43 9RY","N/A","Toby Lewis 2009"
"Urmston","URM",53.448,-2.354,0,,"N/A","Toby Lewis 2009"
"Uttoxeter","UTT",52.897,-1.857,0,"ST14 8XG","N/A","Toby Lewis 2009"
"Valley","VAL",53.282,-4.563,0,"LL65 3EW","N/A","Toby Lewis 2009"
"Vauxhall","VXH",51.486,-0.123,0,"SW8 1SS","N/A","Toby Lewis 2009"
"Virginia Water","VIR",51.402,-0.562,0,"GU25 4AA","N/A","Toby Lewis 2009"
"Waddon","WDO",51.367,-0.118,0,"CR0 4NA","N/A","Toby Lewis 2009"
"Wadhurst","WAD",51.073,0.313,0,"TN5 6RZ","N/A","Toby Lewis 2009"
"Wainfleet","WFL",53.105,0.235,0,"PE24 2DR","N/A","Toby Lewis 2009"
"Wakefield Kirkgate","WKK",53.679,-1.489,0,"WF1 4EL","N/A","Toby Lewis 2009"
"Wakefield Westgate","WKF",53.682,-1.505,0,"WF1 1XP","N/A","Toby Lewis 2009"
"Walkden","WKD",53.520,-2.396,0,,"N/A","Toby Lewis 2009"
"Wallasey Grove Road","WLG",53.428,-3.070,0,"CH45 8JX","N/A","Toby Lewis 2009"
"Wallasey Village","WLV",53.423,-3.069,0,"CH45 8PD","N/A","Toby Lewis 2009"
"Wallington","WLT",51.360,-0.150,0,"SM6 0DZ","N/A","Toby Lewis 2009"
"Wallyford","WAF",55.941,-3.016,0,"EH21 8DZ","N/A","Toby Lewis 2009"
"Walmer","WAM",51.203,1.383,0,"CT14 7RN","N/A","Toby Lewis 2009"
"Walsall","WSL",52.585,-1.984,0,"WS2 9JS","N/A","Toby Lewis 2009"
"Walsden","WDN",53.696,-2.105,0,"OL14 7ST","N/A","Toby Lewis 2009"
"Waltham Cross","WLC",51.685,-0.027,0,"EN8 7LU","N/A","Toby Lewis 2009"
"Walthamstow Central","WHC",51.583,-0.020,0,,"N/A","Toby Lewis 2009"
"Walthamstow Queens Road","WMW",51.582,-0.024,0,,"N/A","Toby Lewis 2009"
"Walton (Liverpool)","WAO",53.456,-2.966,0,,"N/A","Toby Lewis 2009"
"Walton on the Naze","WON",51.846,1.268,0,"CO14 8DM","N/A","Toby Lewis 2009"
"Walton-on-Thames","WAL",51.373,-0.414,0,"KT12 1NR","N/A","Toby Lewis 2009"
"Wanborough","WAN",51.244,-0.668,0,"GU3 2ED","N/A","Toby Lewis 2009"
"Wandsworth Common","WSW",51.447,-0.164,0,"SW12 8NL","N/A","Toby Lewis 2009"
"Wandsworth Road","WWR",51.470,-0.139,0,"SW4 6AD","N/A","Toby Lewis 2009"
"Wandsworth Town","WNT",51.461,-0.188,0,"SW18 1SU","N/A","Toby Lewis 2009"
"Wanstead Park","WNP",51.552,0.026,0,,"N/A","Toby Lewis 2009"
"Warblington","WBL",50.854,-0.967,0,"PO9 2QD","N/A","Toby Lewis 2009"
"Ware","WAR",51.808,-0.029,0,"SG12 9UT","N/A","Toby Lewis 2009"
"Wareham","WRM",50.693,-2.115,0,"BH20 4AS","N/A","Toby Lewis 2009"
"Wargrave","WGV",51.498,-0.877,0,"RG10 8EU","N/A","Toby Lewis 2009"
"Warnham","WNH",51.093,-0.330,0,"RH12 3SR","N/A","Toby Lewis 2009"
"Warrington Bank Quay","WBQ",53.386,-2.603,0,"WA1 1LW","N/A","Toby Lewis 2009"
"Warrington Central","WAC",53.392,-2.592,0,"WA1 1NS","N/A","Toby Lewis 2009"
"Warwick","WRW",52.286,-1.582,0,"CV34 4LA","N/A","Toby Lewis 2009"
"Warwick Parkway","WRP",52.286,-1.612,0,"CV35 8RH","N/A","Toby Lewis 2009"
"Water Orton","WTO",52.518,-1.743,0,,"N/A","Toby Lewis 2009"
"Waterbeach","WBC",52.262,0.197,0,"CB5 9HT","N/A","Toby Lewis 2009"
"Wateringbury","WTR",51.250,0.421,0,"ME18 5EA","N/A","Toby Lewis 2009"
"Waterloo","WLO",53.475,-3.026,0,,"N/A","Toby Lewis 2009"
"Watford High Street","WFH",51.653,-0.392,0,"WD17 2EG","N/A","Toby Lewis 2009"
"Watford Junction","WFJ",51.663,-0.396,0,"WD17 1EU","N/A","Toby Lewis 2009"
"Watford North","WFN",51.675,-0.390,0,"WD2 4QN","N/A","Toby Lewis 2009"
"Watlington","WTG",52.673,0.383,0,"PE33 0JF","N/A","Toby Lewis 2009"
"Watton-at-Stone","WAS",51.856,-0.119,0,"SG14 3SH","N/A","Toby Lewis 2009"
"Waun-Gron Park","WNG",51.488,-3.230,0,"CF5 2BN","N/A","Toby Lewis 2009"
"Wavertree Technology Park","WAV",53.405,-2.923,0,,"N/A","Toby Lewis 2009"
"Wedgwood","WED",52.951,-2.171,0,"ST12 9ER","N/A","Toby Lewis 2009"
"Wedgwood Old Road","WER",52.951,-2.175,0,,"N/A","Toby Lewis 2009"
"Weeley","WEE",51.853,1.116,0,"CO16 9DH","N/A","Toby Lewis 2009"
"Weeton","WET",53.924,-1.581,0,"LS17 0HL","N/A","Toby Lewis 2009"
"Welham Green","WMG",51.736,-0.211,0,"AL9 7HF","N/A","Toby Lewis 2009"
"Welling","WLI",51.465,0.103,0,"DA16 3AU","N/A","Toby Lewis 2009"
"Wellingborough","WEL",52.304,-0.677,0,"NN8 1NA","N/A","Toby Lewis 2009"
"Wellington","WLN",52.701,-2.517,0,"TF1 1BY","N/A","Toby Lewis 2009"
"Welshpool","WLP",52.657,-3.141,0,"SY21 7AZ","N/A","Toby Lewis 2009"
"Welwyn Garden City","WGC",51.801,-0.204,0,"AL8 6BE","N/A","Toby Lewis 2009"
"Welwyn North","WLW",51.824,-0.192,0,"AL6 0AS","N/A","Toby Lewis 2009"
"Wem","WEM",52.857,-2.718,0,"SY4 5AZ","N/A","Toby Lewis 2009"
"Wembley Central","WMB",51.552,-0.297,0,"HA9 7AJ","N/A","Toby Lewis 2009"
"Wembley Stadium","WCX",51.554,-0.285,0,"HA9 8BQ","N/A","Toby Lewis 2009"
"Wemyss Bay","WMS",55.876,-4.889,0,"PA18 6AA","N/A","Toby Lewis 2009"
"Wendover","WND",51.762,-0.747,0,"HP22 6BN","N/A","Toby Lewis 2009"
"Wennington","WNN",54.124,-2.588,0,"LA2 8PB","N/A","Toby Lewis 2009"
"West Allerton","WSA",53.370,-2.908,0,,"N/A","Toby Lewis 2009"
"West Brompton","WBP",51.487,-0.196,0,"SW5 9JX","N/A","Toby Lewis 2009"
"West Byfleet","WBY",51.339,-0.506,0,"KT14 6DY","N/A","Toby Lewis 2009"
"West Calder","WCL",55.854,-3.567,0,"EH55 8BP","N/A","Toby Lewis 2009"
"West Croydon","WCY",51.379,-0.103,0,"CR0 2TA","N/A","Toby Lewis 2009"
"West Drayton","WDT",51.510,-0.472,0,"UB7 9DY","N/A","Toby Lewis 2009"
"West Dulwich","WDU",51.441,-0.092,0,"SE21 8HN","N/A","Toby Lewis 2009"
"West Ealing","WEA",51.514,-0.320,0,,"N/A","Toby Lewis 2009"
"West Ham","WEH",51.529,0.006,0,,"N/A","Toby Lewis 2009"
"West Hampstead","WHD",51.547,-0.191,0,"NW6 2LJ","N/A","Toby Lewis 2009"
"West Hampstead Thameslink","WHP",51.548,-0.192,0,"NW6 2LJ","N/A","Toby Lewis 2009"
"West Horndon","WHR",51.568,0.341,0,"CM13 3TJ","N/A","Toby Lewis 2009"
"West Kilbride","WKB",55.696,-4.852,0,"KA23 9BP","N/A","Toby Lewis 2009"
"West Kirby","WKI",53.373,-3.183,0,"CH48 4DZ","N/A","Toby Lewis 2009"
"West Malling","WMA",51.292,0.419,0,"ME19 6HJ","N/A","Toby Lewis 2009"
"West Norwood","WNW",51.431,-0.103,0,"SE27 0HS","N/A","Toby Lewis 2009"
"West Ruislip","WRU",51.570,-0.438,0,"HA4 7DW","N/A","Toby Lewis 2009"
"West Runton","WRN",52.935,1.245,0,"NR27 9QD","N/A","Toby Lewis 2009"
"West St Leonards","WLD",50.853,0.540,0,"TN38 0NL","N/A","Toby Lewis 2009"
"West Sutton","WSU",51.366,-0.205,0,"SM1 2EY","N/A","Toby Lewis 2009"
"West Wickham","WWI",51.381,-0.015,0,"BR4 0EH","N/A","Toby Lewis 2009"
"West Worthing","WWO",50.818,-0.393,0,"BN11 4SR","N/A","Toby Lewis 2009"
"Westcliff","WCF",51.537,0.691,0,"SS0 7SB","N/A","Toby Lewis 2009"
"Westcombe Park","WCB",51.484,0.017,0,"SE3 9LE","N/A","Toby Lewis 2009"
"Westenhanger","WHA",51.095,1.038,0,"TN25 6DE","N/A","Toby Lewis 2009"
"Wester Hailes","WTA",55.914,-3.284,0,"EH14 3AQ","N/A","Toby Lewis 2009"
"Westerfield","WFI",52.081,1.166,0,"IP6 9AE","N/A","Toby Lewis 2009"
"Westerton","WES",55.905,-4.335,0,,"N/A","Toby Lewis 2009"
"Westgate-on-Sea","WGA",51.381,1.338,0,"CT8 8QY","N/A","Toby Lewis 2009"
"Westhoughton","WHG",53.556,-2.523,0,"BL5 3LE","N/A","Toby Lewis 2009"
"Wetheral","WRL",54.884,-2.831,0,"CA4 8JP","N/A","Toby Lewis 2009"
"Weybridge","WYB",51.362,-0.458,0,"KT13 8UD","N/A","Toby Lewis 2009"
"Whaley Bridge","WBR",53.331,-1.985,0,"SK23 7AA","N/A","Toby Lewis 2009"
"Whalley","WHE",53.824,-2.412,0,"BB7 9SE","N/A","Toby Lewis 2009"
"Whatstandwell","WTS",53.083,-1.504,0,"DE4 5HE","N/A","Toby Lewis 2009"
"Whifflet","WFF",55.853,-4.018,0,"ML5 4AS","N/A","Toby Lewis 2009"
"Whimple","WHM",50.768,-3.354,0,"EX5 2QW","N/A","Toby Lewis 2009"
"Whinhill","WNL",55.938,-4.746,0,"PA15 3AH","N/A","Toby Lewis 2009"
"Whiston","WHN",53.414,-2.797,0,,"N/A","Toby Lewis 2009"
"Whitby","WTB",54.485,-0.615,0,"YO21 1YN","N/A","Toby Lewis 2009"
"Whitchurch (Cardiff)","WHT",51.521,-3.223,0,"CF14 1BP","N/A","Toby Lewis 2009"
"Whitchurch (Hants)","WCH",51.237,-1.338,0,"RG28 7ER","N/A","Toby Lewis 2009"
"Whitchurch (Shropshire)","WTC",52.968,-2.672,0,"SY13 1RL","N/A","Toby Lewis 2009"
"White Hart Lane","WHL",51.605,-0.071,0,,"N/A","Toby Lewis 2009"
"White Notley","WNY",51.839,0.596,0,"CM8 1RP","N/A","Toby Lewis 2009"
"Whitecraigs","WCR",55.790,-4.310,0,,"N/A","Toby Lewis 2009"
"Whitehaven","WTH",54.553,-3.587,0,"CA28 6AX","N/A","Toby Lewis 2009"
"Whitland","WTL",51.818,-4.614,0,"SA34 0AP","N/A","Toby Lewis 2009"
"Whitley Bridge","WBD",53.699,-1.158,0,"DN14 0HH","N/A","Toby Lewis 2009"
"Whitlocks End","WTE",52.392,-1.851,0,,"N/A","Toby Lewis 2009"
"Whitstable","WHI",51.358,1.033,0,"CT5 1RB","N/A","Toby Lewis 2009"
"Whittlesea","WLE",52.550,-0.117,0,"PE7 1UF","N/A","Toby Lewis 2009"
"Whittlesford Parkway","WLF",52.104,0.166,0,"CB2 4NL","N/A","Toby Lewis 2009"
"Whitton","WTN",51.450,-0.358,0,"TW2 7LG","N/A","Toby Lewis 2009"
"Whitwell","WWL",53.280,-1.201,0,,"N/A","Toby Lewis 2009"
"Whyteleafe","WHY",51.310,-0.081,0,"CR3 0AD","N/A","Toby Lewis 2009"
"Whyteleafe South","WHS",51.303,-0.077,0,"CR3 0BD","N/A","Toby Lewis 2009"
"Wick","WCK",58.442,-3.098,0,"KW1 4QT","N/A","Toby Lewis 2009"
"Wickford","WIC",51.615,0.519,0,"SS11 7AT","N/A","Toby Lewis 2009"
"Wickham Market","WCM",52.151,1.399,0,"IP13 0PT","N/A","Toby Lewis 2009"
"Widdrington","WDD",55.241,-1.616,0,"NE61 5QH","N/A","Toby Lewis 2009"
"Widnes","WID",53.378,-2.734,0,"WA8 7TJ","N/A","Toby Lewis 2009"
"Wigan North Western","WGN",53.544,-2.633,0,"WN1 1BJ","N/A","Toby Lewis 2009"
"Wigan Wallgate","WGW",53.545,-2.633,0,"WN1 1BB","N/A","Toby Lewis 2009"
"Wigton","WGT",54.829,-3.164,0,"CA7 9BA","N/A","Toby Lewis 2009"
"Wildmill","WMI",51.520,-3.580,0,"CF31 1RW","N/A","Toby Lewis 2009"
"Willesden Junction","WIJ",51.532,-0.244,0,"NW10 4UY","N/A","Toby Lewis 2009"
"Williamwood","WLM",55.794,-4.290,0,,"N/A","Toby Lewis 2009"
"Willington","WIL",52.853,-1.565,0,"DE65 6BN","N/A","Toby Lewis 2009"
"Wilmcote","WMC",52.223,-1.756,0,"CV37 9UP","N/A","Toby Lewis 2009"
"Wilmslow","WML",53.327,-2.227,0,"SK9 1BU","N/A","Toby Lewis 2009"
"Wilnecote","WNE",52.611,-1.680,0,,"N/A","Toby Lewis 2009"
"Wimbledon","WIM",51.421,-0.206,0,"SW19 7NL","N/A","Toby Lewis 2009"
"Wimbledon Chase","WBO",51.409,-0.214,0,"SW20 8JT","N/A","Toby Lewis 2009"
"Winchelsea","WSE",50.933,0.702,0,"TN36 4JX","N/A","Toby Lewis 2009"
"Winchester","WIN",51.067,-1.320,0,"SO23 8TJ","N/A","Toby Lewis 2009"
"Winchfield","WNF",51.285,-0.907,0,"RG27 8BX","N/A","Toby Lewis 2009"
"Winchmore Hill","WIH",51.634,-0.101,0,,"N/A","Toby Lewis 2009"
"Windermere","WDM",54.380,-2.904,0,"LA23 1AH","N/A","Toby Lewis 2009"
"Windsor & Eton Central","WNC",51.483,-0.609,0,"SL4 1PJ","N/A","Toby Lewis 2009"
"Windsor & Eton Riverside","WNR",51.486,-0.606,0,"SL4 1QG","N/A","Toby Lewis 2009"
"Winnersh","WNS",51.431,-0.877,0,"RG41 5LU","N/A","Toby Lewis 2009"
"Winnersh Triangle","WTI",51.437,-0.892,0,"RG41 5TS","N/A","Toby Lewis 2009"
"Winsford","WSF",53.190,-2.495,0,"CW7 3NF","N/A","Toby Lewis 2009"
"Wishaw","WSH",55.772,-3.926,0,"ML2 0EX","N/A","Toby Lewis 2009"
"Witham","WTM",51.806,0.639,0,"CM8 2BS","N/A","Toby Lewis 2009"
"Witley","WTY",51.133,-0.646,0,"GU8 5TB","N/A","Toby Lewis 2009"
"Witton","WTT",52.512,-1.885,0,,"N/A","Toby Lewis 2009"
"Wivelsfield","WVF",50.964,-0.120,0,"RH15 0QF","N/A","Toby Lewis 2009"
"Wivenhoe","WIV",51.857,0.956,0,"CO7 9DJ","N/A","Toby Lewis 2009"
"Woburn Sands","WOB",52.018,-0.654,0,"MK17 8UD","N/A","Toby Lewis 2009"
"Woking","WOK",51.318,-0.557,0,"GU22 7AE","N/A","Toby Lewis 2009"
"Wokingham","WKM",51.411,-0.842,0,"RG40 2AP","N/A","Toby Lewis 2009"
"Woldingham","WOH",51.290,-0.052,0,"CR3 7LT","N/A","Toby Lewis 2009"
"Wolverhampton","WVH",52.588,-2.120,0,"WV1 1LE","N/A","Toby Lewis 2009"
"Widney Manor","WMR",52.396,-1.774,0,"B91 3LB","N/A","Toby Lewis 2009"
"Wombwell","WOM",53.517,-1.416,0,,"N/A","Toby Lewis 2009"
"Wood End","WDE",52.343,-1.843,0,,"N/A","Toby Lewis 2009"
"Wood Street","WST",51.586,-0.002,0,,"N/A","Toby Lewis 2009"
"Woodbridge","WDB",52.090,1.318,0,"IP12 4AU","N/A","Toby Lewis 2009"
"Woodgrange Park","WGR",51.549,0.045,0,,"N/A","Toby Lewis 2009"
"Woodhall","WDL",55.931,-4.655,0,"PA14 5PP","N/A","Toby Lewis 2009"
"Woodhouse","WDH",53.363,-1.358,0,,"N/A","Toby Lewis 2009"
"Woodlesford","WDS",53.757,-1.443,0,"LS26 8RA","N/A","Toby Lewis 2009"
"Woodley","WLY",53.429,-2.093,0,"SK6 1NX","N/A","Toby Lewis 2009"
"Woodmansterne","WME",51.319,-0.154,0,"CR5 3HS","N/A","Toby Lewis 2009"
"Woodsmoor","WSR",53.386,-2.142,0,"SK2 7AX","N/A","Toby Lewis 2009"
"Wool","WOO",50.682,-2.221,0,"BH20 6BL","N/A","Toby Lewis 2009"
"Woolston","WLS",50.899,-1.377,0,"SO19 2DJ","N/A","Toby Lewis 2009"
"Woolwich Arsenal","WWA",51.490,0.070,0,"SE18 6EU","N/A","Toby Lewis 2009"
"Woolwich Dockyard","WWD",51.491,0.054,0,"SE18 5JY","N/A","Toby Lewis 2009"
"Wooten Wawen","WWW",52.267,-1.785,0,,"N/A","Toby Lewis 2009"
"Worcester Park","WCP",51.381,-0.245,0,"KT4 7ND","N/A","Toby Lewis 2009"
"Workington","WKG",54.645,-3.559,0,"CA14 2UZ","N/A","Toby Lewis 2009"
"Worksop","WRK",53.311,-1.123,0,,"N/A","Toby Lewis 2009"
"Worplesdon","WPL",51.289,-0.582,0,"GU22 0RN","N/A","Toby Lewis 2009"
"Worstead","WRT",52.777,1.404,0,"NR28 9RX","N/A","Toby Lewis 2009"
"Wrabness","WRB",51.939,1.172,0,"CO11 2TJ","N/A","Toby Lewis 2009"
"Wraysbury","WRY",51.458,-0.542,0,"TW19 5NW","N/A","Toby Lewis 2009"
"Wrenbury","WRE",53.020,-2.595,0,"CW5 8EX","N/A","Toby Lewis 2009"
"Wressle","WRS",53.773,-0.925,0,"YO8 6ES","N/A","Toby Lewis 2009"
"Wrexham Central","WXC",53.046,-2.999,0,"LL11 1SN","N/A","Toby Lewis 2009"
"Wrexham General","WRX",53.050,-3.001,0,"LL11 1EL","N/A","Toby Lewis 2009"
"Wye","WYE",51.186,0.929,0,"TN25 5EB","N/A","Toby Lewis 2009"
"Wylam","WYM",54.975,-1.814,0,"NE41 8JA","N/A","Toby Lewis 2009"
"Wylde Green","WYL",52.546,-1.831,0,,"N/A","Toby Lewis 2009"
"Wymondham","WMD",52.566,1.118,0,"NR18 0JZ","N/A","Toby Lewis 2009"
"Wythall","WYT",52.380,-1.866,0,,"N/A","Toby Lewis 2009"
"Yalding","YAL",51.226,0.412,0,"ME18 6HN","N/A","Toby Lewis 2009"
"Yardley Wood","YRD",52.421,-1.855,0,,"N/A","Toby Lewis 2009"
"Yarm","YRM",54.494,-1.352,0,"TS15 9EH","N/A","Toby Lewis 2009"
"Yeoford","YEO",50.777,-3.728,0,"EX17 5JB","N/A","Toby Lewis 2009"
"Yeovil Junction","YVJ",50.925,-2.613,0,"BA22 9UU","N/A","Toby Lewis 2009"
"Ynyswen","YNW",51.665,-3.521,0,"CF42 6EG","N/A","Toby Lewis 2009"
"Yoker","YOK",55.893,-4.386,0,,"N/A","Toby Lewis 2009"
"York","YRK",53.958,-1.093,0,"YO24 1AB","N/A","Toby Lewis 2009"
"Yorton","YRT",52.809,-2.736,0,"SY4 3EP","N/A","Toby Lewis 2009"
"Ystrad Mynach","YSM",51.641,-3.242,0,"CF82 7BP","N/A","Toby Lewis 2009"
"Ystrad Rhondda","YSR",51.644,-3.467,0,"CF41 7SR","N/A","Toby Lewis 2009"
"High Street Glasgow","HST",55.860,-4.240,0,,"N/A","Toby Lewis 2009/AMEE supplied code"
"Newport (Essex)","NWE",51.980,0.215,0,"CB11 3PL","N/A","Toby Lewis 2009"
"Lymington Pier","LYP",50.758,-1.529,0,"SO41 5ZE","N/A","Toby Lewis 2009"
"Sampford Courtenay","SMC",50.770,-3.949,0,,"N/A","Toby Lewis 2009/AMEE supplied code"
"Shotton High Level","SHT",53.214,-3.037,0,,"N/A","Toby Lewis 2009"
"Wolverton","WOL",52.066,-0.804,0,,"N/A","Toby Lewis 2009"
"Alloa","ALO",56.127,-3.843,0,,"N/A","Toby Lewis 2009"
"Harrington Road",,51.400,-0.060,0,,"N/A","Toby Lewis 2009"
"Merton Park",,51.414,-0.201,0,,"N/A","Toby Lewis 2009"
"Dundonald Road",,51.418,-0.208,0,,"N/A","Toby Lewis 2009"
"Wimbledon","WIM",51.421,-0.206,0,"SW19 7NL","N/A","Toby Lewis 2009"
"Reeves Corner",,51.374,-0.106,0,,"N/A","Toby Lewis 2009"
"Wandle Park",,51.373,-0.113,0,,"N/A","Toby Lewis 2009"
"Waddon March",,51.377,-0.118,0,,"N/A","Toby Lewis 2009"
"Ikea Ampere Way",,51.382,-0.124,0,,"N/A","Toby Lewis 2009"
"Therepia Lane",,51.386,-0.129,0,,"N/A","Toby Lewis 2009"
"Beddington Lane",,51.389,-0.143,0,,"N/A","Toby Lewis 2009"
"Mitcham Junction","MIJ",51.393,-0.158,0,"CR4 4HN","N/A","Toby Lewis 2009"
"Mitcham",,51.397,-0.171,0,,"N/A","Toby Lewis 2009"
"Belgrave Walk",,51.401,-0.179,0,,"N/A","Toby Lewis 2009"
"Phipps Bridge",,51.403,-0.182,0,,"N/A","Toby Lewis 2009"
"Merton Road",,51.409,-0.193,0,,"N/A","Toby Lewis 2009"
"Gravel Hill",,51.355,-0.043,0,,"N/A","Toby Lewis 2009"
"Coombe Lane",,51.360,-0.060,0,,"N/A","Toby Lewis 2009"
"Lloyd Park",,51.364,-0.081,0,,"N/A","Toby Lewis 2009"
"Sandilands",,51.375,-0.080,0,,"N/A","Toby Lewis 2009"
"Addiscombe",,51.380,-0.073,0,,"N/A","Toby Lewis 2009"
"Blackhorse Lane",,51.385,-0.070,0,,"N/A","Toby Lewis 2009"
"Woodside",,51.387,-0.065,0,,"N/A","Toby Lewis 2009"
"George Street",,51.374,-0.099,0,,"N/A","Toby Lewis 2009"
"Centrale",,51.375,-0.104,0,,"N/A","Toby Lewis 2009"
"Church Street",,51.374,-0.104,0,,"N/A","Toby Lewis 2009"
"Wellesley Road",,51.375,-0.097,0,,"N/A","Toby Lewis 2009"
"New Addington",,51.343,-0.018,0,,"N/A","Toby Lewis 2009"
"King Henry's Drive",,51.345,-0.020,0,,"N/A","Toby Lewis 2009"
"Fieldway",,51.351,-0.024,0,,"N/A","Toby Lewis 2009"
"Addington Village",,51.356,-0.033,0,,"N/A","Toby Lewis 2009"
"Elmers End","ELE",51.398,-0.050,0,"BR3 4EJ","N/A","Toby Lewis 2009"
"Arena",,51.392,-0.058,0,,"N/A","Toby Lewis 2009"
"Lebanon Road",,51.375,-0.087,0,,"N/A","Toby Lewis 2009"
"Birkbeck","BIK",51.404,-0.056,0,"BR£ 4TA","N/A","Toby Lewis 2009"
"Avenue Road",,51.407,-0.050,0,,"N/A","Toby Lewis 2009"
"Beckenham Road",,51.410,-0.042,0,,"N/A","Toby Lewis 2009"
"Beckenham Junction","BKJ",51.411,-0.027,0,"BR3 1HY","N/A","Toby Lewis 2009"
"East Boldon",,54.947,-1.421,0,,"N/A","Toby Lewis 2009"
"Wallsend",,54.990,-1.532,0,,"N/A","Toby Lewis 2009"
"East Croydon","ECR",51.375,-0.092,0,"CR0 1LF","N/A","Toby Lewis 2009"
"Bury",,53.591,-2.297,0,,"N/A","Toby Lewis 2009"
"whitefield",,53.551,-2.295,0,,"N/A","Toby Lewis 2009"
"Besses O th'barn",,53.542,-2.286,0,,"N/A","Toby Lewis 2009"
"Prestwich",,53.533,-2.282,0,,"N/A","Toby Lewis 2009"
"Heaton Park",,53.530,-2.267,0,,"N/A","Toby Lewis 2009"
"Bowker Vale",,53.525,-2.250,0,,"N/A","Toby Lewis 2009"
"Crumpsall",,53.517,-2.241,0,,"N/A","Toby Lewis 2009"
"Woodlands Road",,53.508,-2.233,0,,"N/A","Toby Lewis 2009"
"Victoria Station",,53.487,-2.242,0,,"N/A","Toby Lewis 2009"
"Shudehill",,53.485,-2.239,0,,"N/A","Toby Lewis 2009"
"Market Street",,53.482,-2.239,0,,"N/A","Toby Lewis 2009"
"Piccadilly Gardens",,53.480,-2.237,0,,"N/A","Toby Lewis 2009"
"Piccadilly Station",,53.477,-2.232,0,,"N/A","Toby Lewis 2009"
"Mosley Street",,53.481,-2.240,0,,"N/A","Toby Lewis 2009"
"St Peters Square",,53.478,-2.244,0,,"N/A","Toby Lewis 2009"
"GMEX",,53.475,-2.250,0,,"N/A","Toby Lewis 2009"
"Cornbrook",,53.470,-2.268,0,,"N/A","Toby Lewis 2009"
"Eccles","ECC",53.483,-2.335,0,"M30 0DN","N/A","Toby Lewis 2009"
"Ladywell","LAD",53.484,-2.329,0,"SE13 7XB","N/A","Toby Lewis 2009"
"Weaste",,53.483,-2.308,0,,"N/A","Toby Lewis 2009"
"Langworthy",,53.481,-2.296,0,,"N/A","Toby Lewis 2009"
"Broadway",,53.475,-2.295,0,,"N/A","Toby Lewis 2009"
"Harbour City",,53.474,-2.292,0,,"N/A","Toby Lewis 2009"
"Anchorage",,53.475,-2.286,0,,"N/A","Toby Lewis 2009"
"Salford Quays",,53.470,-2.284,0,,"N/A","Toby Lewis 2009"
"Exchange Quay",,53.467,-2.283,0,,"N/A","Toby Lewis 2009"
"Pamona",,53.465,-2.278,0,,"N/A","Toby Lewis 2009"
"Trafford Bar",,53.462,-2.277,0,,"N/A","Toby Lewis 2009"
"Old Trafford",,53.456,-2.285,0,,"N/A","Toby Lewis 2009"
"Stretford",,53.446,-2.304,0,,"N/A","Toby Lewis 2009"
"Dane Road",,53.430,-2.311,0,,"N/A","Toby Lewis 2009"
"Sale",,53.424,-2.319,0,,"N/A","Toby Lewis 2009"
"Brooklands",,53.417,-2.326,0,,"N/A","Toby Lewis 2009"
"Timperley",,53.404,-2.338,0,,"N/A","Toby Lewis 2009"
"Navigation Road","NVR",53.396,-2.343,0,"WA14 1SR","N/A","Toby Lewis 2009"
"Altrincham","ALT",53.387,-2.347,0,"WA14 1EN","N/A","Toby Lewis 2009"
"Acton Town",,51.503,-0.280,0,,"N/A","Toby Lewis 2009"
"Aldgate",,51.514,-0.075,0,,"N/A","Toby Lewis 2009"
"Aldgate East",,51.515,-0.072,0,,"N/A","Toby Lewis 2009"
"All Saints",,51.511,-0.013,0,,"N/A","Toby Lewis 2009"
"Alperton",,51.541,-0.300,0,,"N/A","Toby Lewis 2009"
"Amersham","AMR",51.674,-0.607,0,"HP6 5AZ","N/A","Toby Lewis 2009"
"Angel",,51.533,-0.106,0,,"N/A","Toby Lewis 2009"
"Archway",,51.566,-0.135,0,,"N/A","Toby Lewis 2009"
"Arnos Grove",,51.616,-0.133,0,,"N/A","Toby Lewis 2009"
"Arsenal",,51.558,-0.106,0,,"N/A","Toby Lewis 2009"
"Baker Street",,51.523,-0.157,0,,"N/A","Toby Lewis 2009"
"Balham","BAL",51.443,-0.153,0,"SW12 9SG","N/A","Toby Lewis 2009"
"Bank",,51.513,-0.089,0,,"N/A","Toby Lewis 2009"
"Barbican","ZBB",51.520,-0.098,0,"EC1A 4JA","N/A","Toby Lewis 2009"
"Barking","BKG",51.539,0.081,0,"IG11 8TU","N/A","Toby Lewis 2009"
"Barkingside",,51.586,0.088,0,,"N/A","Toby Lewis 2009"
"Barons Court",,51.490,-0.214,0,,"N/A","Toby Lewis 2009"
"Bayswater",,51.512,-0.188,0,,"N/A","Toby Lewis 2009"
"Beckton",,51.514,0.062,0,,"N/A","Toby Lewis 2009"
"Beckton Park",,51.509,0.055,0,,"N/A","Toby Lewis 2009"
"Becontree",,51.540,0.128,0,,"N/A","Toby Lewis 2009"
"Belsize Park",,51.550,-0.164,0,,"N/A","Toby Lewis 2009"
"Bermondsey",,51.498,-0.064,0,,"N/A","Toby Lewis 2009"
"Bethnal Green","BET",51.527,-0.055,0,"E2 6JL","N/A","Toby Lewis 2009"
"Blackfriars",,51.512,-0.104,0,,"N/A","Toby Lewis 2009"
"Blackhorse Road","BHO",51.587,-0.041,0,"E17 6NH","N/A","Toby Lewis 2009"
"Blackwall",,51.508,-0.007,0,,"N/A","Toby Lewis 2009"
"Bond Street",,51.514,-0.150,0,,"N/A","Toby Lewis 2009"
"Borough",,51.501,-0.094,0,,"N/A","Toby Lewis 2009"
"Boston Manor",,51.495,-0.326,0,,"N/A","Toby Lewis 2009"
"Bounds Green",,51.607,-0.124,0,,"N/A","Toby Lewis 2009"
"Bow Church",,51.528,-0.021,0,,"N/A","Toby Lewis 2009"
"Bow Road",,51.527,-0.025,0,,"N/A","Toby Lewis 2009"
"Brent Cross",,51.577,-0.213,0,,"N/A","Toby Lewis 2009"
"Brixton","BRX",51.463,-0.115,0,"SW9 8JB","N/A","Toby Lewis 2009"
"Bromley-by-Bow",,51.525,-0.012,0,,"N/A","Toby Lewis 2009"
"Buckhurst Hill",,51.627,0.047,0,,"N/A","Toby Lewis 2009"
"Burnt Oak",,51.603,-0.264,0,,"N/A","Toby Lewis 2009"
"Caledonian Road",,51.549,-0.118,0,,"N/A","Toby Lewis 2009"
"Camden Town",,51.539,-0.143,0,,"N/A","Toby Lewis 2009"
"Canada Water",,51.498,-0.050,0,,"N/A","Toby Lewis 2009"
"Canary Wharf",,51.505,-0.021,0,,"N/A","Toby Lewis 2009"
"Canning Town",,51.514,0.008,0,,"N/A","Toby Lewis 2009"
"Cannon Street",,51.511,-0.091,0,,"N/A","Toby Lewis 2009"
"Canons Park",,51.608,-0.294,0,,"N/A","Toby Lewis 2009"
"Chalfont & Latimer","CFO",51.668,-0.561,0,"HP7 9PR","N/A","Toby Lewis 2009"
"Chalk Farm",,51.544,-0.154,0,,"N/A","Toby Lewis 2009"
"Chancery Lane",,51.518,-0.112,0,,"N/A","Toby Lewis 2009"
"Charing Cross",,51.508,-0.125,0,,"N/A","Toby Lewis 2009"
"Chesham",,51.705,-0.611,0,,"N/A","Toby Lewis 2009"
"Chigwell",,51.618,0.074,0,,"N/A","Toby Lewis 2009"
"Chiswick Park",,51.495,-0.268,0,,"N/A","Toby Lewis 2009"
"Chorleywood","CLW",51.654,-0.518,0,"WD3 5ND","N/A","Toby Lewis 2009"
"Clapham Common",,51.462,-0.139,0,,"N/A","Toby Lewis 2009"
"Clapham North",,51.465,-0.130,0,,"N/A","Toby Lewis 2009"
"Clapham South",,51.453,-0.148,0,,"N/A","Toby Lewis 2009"
"Cockfosters",,51.652,-0.150,0,,"N/A","Toby Lewis 2009"
"Colindale",,51.595,-0.250,0,,"N/A","Toby Lewis 2009"
"Colliers Wood",,51.417,-0.178,0,,"N/A","Toby Lewis 2009"
"Covent Garden",,51.513,-0.124,0,,"N/A","Toby Lewis 2009"
"Crossharbour",,51.496,-0.015,0,,"N/A","Toby Lewis 2009"
"Croxley",,51.647,-0.441,0,,"N/A","Toby Lewis 2009"
"Custom House",,51.510,0.026,0,,"N/A","Toby Lewis 2009"
"Cutty Sark for Maritime Greenwich",,51.482,-0.011,0,,"N/A","Toby Lewis 2009"
"Cyprus",,51.508,0.064,0,,"N/A","Toby Lewis 2009"
"Dagenham East",,51.544,0.166,0,,"N/A","Toby Lewis 2009"
"Dagenham Heathway",,51.542,0.148,0,,"N/A","Toby Lewis 2009"
"Debden",,51.645,0.084,0,,"N/A","Toby Lewis 2009"
"Deptford Bridge",,51.474,-0.023,0,,"N/A","Toby Lewis 2009"
"Devons Road",,51.522,-0.017,0,,"N/A","Toby Lewis 2009"
"Dollis Hill",,51.552,-0.239,0,,"N/A","Toby Lewis 2009"
"Ealing Broadway","EAL",51.515,-0.302,0,"W5 2NU","N/A","Toby Lewis 2009"
"Ealing Common",,51.510,-0.288,0,,"N/A","Toby Lewis 2009"
"Earl's Court",,51.492,-0.193,0,,"N/A","Toby Lewis 2009"
"East Acton",,51.517,-0.247,0,,"N/A","Toby Lewis 2009"
"East Finchley",,51.587,-0.165,0,,"N/A","Toby Lewis 2009"
"East Ham",,51.539,0.051,0,,"N/A","Toby Lewis 2009"
"East India",,51.509,-0.002,0,,"N/A","Toby Lewis 2009"
"East Putney",,51.459,-0.211,0,,"N/A","Toby Lewis 2009"
"Eastcote",,51.576,-0.397,0,,"N/A","Toby Lewis 2009"
"Edgware",,51.614,-0.275,0,,"N/A","Toby Lewis 2009"
"Edgware Road (Bakerloo)",,51.520,-0.170,0,,"N/A","Toby Lewis 2009"
"Edgware Road (District & Circle)",,51.520,-0.168,0,,"N/A","Toby Lewis 2009"
"Elephant & Castle","EPH",51.495,-0.101,0,"SE17 1LB","N/A","Toby Lewis 2009"
"Elm Park",,51.550,0.199,0,,"N/A","Toby Lewis 2009"
"Elverson Road",,51.469,-0.016,0,,"N/A","Toby Lewis 2009"
"Embankment",,51.507,-0.123,0,,"N/A","Toby Lewis 2009"
"Epping",,51.694,0.114,0,,"N/A","Toby Lewis 2009"
"Euston",,51.528,-0.132,0,,"N/A","Toby Lewis 2009"
"Euston Square",,51.525,-0.135,0,,"N/A","Toby Lewis 2009"
"Fairlop",,51.596,0.091,0,,"N/A","Toby Lewis 2009"
"Farringdon","ZFD",51.520,-0.105,0,"EC1M 6BY","N/A","Toby Lewis 2009"
"Finchley Central",,51.601,-0.192,0,,"N/A","Toby Lewis 2009"
"Finchley Road",,51.547,-0.180,0,,"N/A","Toby Lewis 2009"
"Finsbury Park","FPK",51.566,-0.107,0,"N4 2DH","N/A","Toby Lewis 2009"
"Fulham Broadway",,51.480,-0.195,0,,"N/A","Toby Lewis 2009"
"Gallions Reach",,51.509,0.072,0,,"N/A","Toby Lewis 2009"
"Gants Hill",,51.576,0.065,0,,"N/A","Toby Lewis 2009"
"Gloucester Road",,51.494,-0.183,0,,"N/A","Toby Lewis 2009"
"Golders Green",,51.572,-0.194,0,,"N/A","Toby Lewis 2009"
"Goldhawk Road",,51.502,-0.227,0,,"N/A","Toby Lewis 2009"
"Goodge Street",,51.520,-0.135,0,,"N/A","Toby Lewis 2009"
"Grange Hill",,51.613,0.092,0,,"N/A","Toby Lewis 2009"
"Great Portland Street",,51.524,-0.144,0,,"N/A","Toby Lewis 2009"
"Green Park",,51.507,-0.143,0,,"N/A","Toby Lewis 2009"
"Greenford","GFD",51.542,-0.346,0,"UB6 8PX","N/A","Toby Lewis 2009"
"Greenwich","GNW",51.478,-0.015,0,"SE10 8JQ","N/A","Toby Lewis 2009"
"Gunnersbury","GUN",51.491,-0.276,0,"W4 4AN","N/A","Toby Lewis 2009"
"Hainault",,51.603,0.094,0,,"N/A","Toby Lewis 2009"
"Hammersmith (Dist & Picc)",,51.492,-0.224,0,,"N/A","Toby Lewis 2009"
"Hammersmith (Ham & City)",,51.493,-0.225,0,,"N/A","Toby Lewis 2009"
"Hampstead",,51.557,-0.178,0,,"N/A","Toby Lewis 2009"
"Hanger Lane",,51.530,-0.293,0,,"N/A","Toby Lewis 2009"
"Harlesden","HDN",51.536,-0.257,0,"NW10 7AA","N/A","Toby Lewis 2009"
"Harrow & Wealdstone","HRW",51.592,-0.335,0,"HA3 5BP","N/A","Toby Lewis 2009"
"Harrow-on-the-Hill","HOH",51.579,-0.337,0,"HA1 1BB","N/A","Toby Lewis 2009"
"Hatton Cross",,51.467,-0.424,0,,"N/A","Toby Lewis 2009"
"Heathrow Terminals 1, 2, 3",,51.471,-0.452,0,,"N/A","Toby Lewis 2009"
"Heathrow Terminal 4",,51.459,-0.447,0,,"N/A","Toby Lewis 2009"
"Heathrow Terminal 5",,51.470,-0.489,0,,"N/A","Toby Lewis 2009"
"Hendon Central",,51.583,-0.227,0,,"N/A","Toby Lewis 2009"
"Heron Quays",,51.503,-0.022,0,,"N/A","Toby Lewis 2009"
"High Barnet",,51.650,-0.194,0,,"N/A","Toby Lewis 2009"
"High Street Kensington",,51.501,-0.193,0,,"N/A","Toby Lewis 2009"
"Highbury & Islington","HHY",51.546,-0.103,0,"N5 1RA","N/A","Toby Lewis 2009"
"Highgate",,51.578,-0.147,0,,"N/A","Toby Lewis 2009"
"Hillingdon",,51.554,-0.449,0,,"N/A","Toby Lewis 2009"
"Holborn",,51.517,-0.120,0,,"N/A","Toby Lewis 2009"
"Holland Park",,51.507,-0.206,0,,"N/A","Toby Lewis 2009"
"Holloway Road",,51.553,-0.113,0,,"N/A","Toby Lewis 2009"
"Hornchurch",,51.554,0.219,0,,"N/A","Toby Lewis 2009"
"Hounslow Central",,51.472,-0.367,0,,"N/A","Toby Lewis 2009"
"Hounslow East",,51.473,-0.357,0,,"N/A","Toby Lewis 2009"
"Hounslow West",,51.474,-0.386,0,,"N/A","Toby Lewis 2009"
"Hyde Park Corner",,51.502,-0.154,0,,"N/A","Toby Lewis 2009"
"Ickenham",,51.562,-0.442,0,,"N/A","Toby Lewis 2009"
"Island Gardens",,51.488,-0.011,0,,"N/A","Toby Lewis 2009"
"Kennington",,51.488,-0.106,0,,"N/A","Toby Lewis 2009"
"Kensal Green","KNL",51.531,-0.225,0,"NW10 5JT","N/A","Toby Lewis 2009"
"Kensington (Olympia)",,51.498,-0.210,0,,"N/A","Toby Lewis 2009"
"Kentish Town","KTN",51.550,-0.141,0,"NW5 2AA","N/A","Toby Lewis 2009"
"Kenton","KNT",51.582,-0.317,0,"HA3 0AZ","N/A","Toby Lewis 2009"
"Kew Gardens","KWG",51.477,-0.285,0,"TW9 3BZ","N/A","Toby Lewis 2009"
"Kilburn",,51.547,-0.204,0,,"N/A","Toby Lewis 2009"
"Kilburn Park",,51.535,-0.194,0,,"N/A","Toby Lewis 2009"
"King George V",,51.502,0.062,0,,"N/A","Toby Lewis 2009"
"King's Cross St. Pancras",,51.531,-0.124,0,,"N/A","Toby Lewis 2009"
"Kingsbury",,51.585,-0.279,0,,"N/A","Toby Lewis 2009"
"Knightsbridge",,51.501,-0.161,0,,"N/A","Toby Lewis 2009"
"Ladbroke Grove",,51.517,-0.210,0,,"N/A","Toby Lewis 2009"
"Lambeth North",,51.499,-0.112,0,,"N/A","Toby Lewis 2009"
"Lancaster Gate",,51.512,-0.175,0,,"N/A","Toby Lewis 2009"
"Langdon Park",,51.516,-0.014,0,,"N/A","Toby Lewis 2009"
"Latimer Road",,51.513,-0.218,0,,"N/A","Toby Lewis 2009"
"Leicester Square",,51.511,-0.128,0,,"N/A","Toby Lewis 2009"
"Lewisham","LEW",51.465,-0.013,0,"SE13 7RY","N/A","Toby Lewis 2009"
"Leyton",,51.557,-0.006,0,,"N/A","Toby Lewis 2009"
"Leytonstone",,51.568,0.008,0,,"N/A","Toby Lewis 2009"
"Limehouse","LHS",51.512,-0.040,0,"E14 7JD","N/A","Toby Lewis 2009"
"Liverpool Street",,51.518,-0.082,0,,"N/A","Toby Lewis 2009"
"London Bridge","LBG",51.505,-0.088,0,"SE1 9SP","N/A","Toby Lewis 2009"
"London City Airport",,51.504,0.048,0,,"N/A","Toby Lewis 2009"
"Loughton",,51.641,0.055,0,,"N/A","Toby Lewis 2009"
"Maida Vale",,51.530,-0.186,0,,"N/A","Toby Lewis 2009"
"Manor House",,51.571,-0.095,0,,"N/A","Toby Lewis 2009"
"Mansion House",,51.512,-0.095,0,,"N/A","Toby Lewis 2009"
"Marble Arch",,51.514,-0.159,0,,"N/A","Toby Lewis 2009"
"Marylebone",,51.522,-0.163,0,,"N/A","Toby Lewis 2009"
"Mile End",,51.525,-0.033,0,,"N/A","Toby Lewis 2009"
"Mill Hill East",,51.608,-0.210,0,,"N/A","Toby Lewis 2009"
"Monument",,51.511,-0.086,0,,"N/A","Toby Lewis 2009"
"Moor Park",,51.630,-0.433,0,,"N/A","Toby Lewis 2009"
"Moorgate","MOG",51.518,-0.089,0,"EC2Y 9AE","N/A","Toby Lewis 2009"
"Morden",,51.402,-0.195,0,,"N/A","Toby Lewis 2009"
"Mornington Crescent",,51.534,-0.139,0,,"N/A","Toby Lewis 2009"
"Mudchute",,51.491,-0.015,0,,"N/A","Toby Lewis 2009"
"Neasden",,51.554,-0.250,0,,"N/A","Toby Lewis 2009"
"New Cross","NWX",51.476,-0.032,0,"SE14 6LD","N/A","Toby Lewis 2009"
"New Cross Gate","NXG",51.476,-0.040,0,"SE14 6AR","N/A","Toby Lewis 2009"
"Newbury Park",,51.576,0.090,0,,"N/A","Toby Lewis 2009"
"North Acton",,51.523,-0.260,0,,"N/A","Toby Lewis 2009"
"North Ealing",,51.517,-0.289,0,,"N/A","Toby Lewis 2009"
"North Greenwich",,51.500,0.004,0,,"N/A","Toby Lewis 2009"
"North Harrow",,51.585,-0.362,0,,"N/A","Toby Lewis 2009"
"North Wembley","NWB",51.563,-0.304,0,"HA9 7NT","N/A","Toby Lewis 2009"
"Northfields",,51.500,-0.314,0,,"N/A","Toby Lewis 2009"
"Northolt",,51.548,-0.369,0,,"N/A","Toby Lewis 2009"
"Northwick Park",,51.579,-0.319,0,,"N/A","Toby Lewis 2009"
"Northwood",,51.611,-0.424,0,,"N/A","Toby Lewis 2009"
"Northwood Hills",,51.601,-0.409,0,,"N/A","Toby Lewis 2009"
"Notting Hill Gate",,51.509,-0.197,0,,"N/A","Toby Lewis 2009"
"Oakwood",,51.648,-0.132,0,,"N/A","Toby Lewis 2009"
"Old Street","OLD",51.526,-0.088,0,"EC1V 9NR","N/A","Toby Lewis 2009"
"Osterley",,51.481,-0.352,0,,"N/A","Toby Lewis 2009"
"Oval",,51.482,-0.113,0,,"N/A","Toby Lewis 2009"
"Oxford Circus",,51.515,-0.141,0,,"N/A","Toby Lewis 2009"
"Paddington",,51.516,-0.176,0,,"N/A","Toby Lewis 2009"
"Park Royal",,51.527,-0.285,0,,"N/A","Toby Lewis 2009"
"Parsons Green",,51.475,-0.201,0,,"N/A","Toby Lewis 2009"
"Perivale",,51.537,-0.324,0,,"N/A","Toby Lewis 2009"
"Piccadilly Circus",,51.510,-0.135,0,,"N/A","Toby Lewis 2009"
"Pimlico",,51.489,-0.134,0,,"N/A","Toby Lewis 2009"
"Pinner",,51.593,-0.381,0,,"N/A","Toby Lewis 2009"
"Plaistow",,51.531,0.018,0,,"N/A","Toby Lewis 2009"
"Pontoon Dock",,51.502,0.033,0,,"N/A","Toby Lewis 2009"
"Poplar",,51.508,-0.018,0,,"N/A","Toby Lewis 2009"
"Preston Road",,51.572,-0.296,0,,"N/A","Toby Lewis 2009"
"Prince Regent",,51.509,0.034,0,,"N/A","Toby Lewis 2009"
"Pudding Mill Lane",,51.534,-0.014,0,,"N/A","Toby Lewis 2009"
"Putney Bridge",,51.468,-0.209,0,,"N/A","Toby Lewis 2009"
"Queen's Park",,51.534,-0.205,0,,"N/A","Toby Lewis 2009"
"Queensbury",,51.594,-0.286,0,,"N/A","Toby Lewis 2009"
"Queensway",,51.510,-0.187,0,,"N/A","Toby Lewis 2009"
"Ravenscourt Park",,51.494,-0.236,0,,"N/A","Toby Lewis 2009"
"Rayners Lane",,51.575,-0.371,0,,"N/A","Toby Lewis 2009"
"Redbridge","RDB",51.577,0.045,0,"SO15 0NB","N/A","Toby Lewis 2009"
"Regent's Park",,51.524,-0.147,0,,"N/A","Toby Lewis 2009"
"Richmond","RMD",51.463,-0.301,0,"TW9 2NA","N/A","Toby Lewis 2009"
"Rickmansworth","RIC",51.640,-0.473,0,"WD3 1QY","N/A","Toby Lewis 2009"
"Roding Valley",,51.617,0.044,0,,"N/A","Toby Lewis 2009"
"Rotherhithe",,51.501,-0.052,0,,"N/A","Toby Lewis 2009"
"Royal Albert",,51.508,0.046,0,,"N/A","Toby Lewis 2009"
"Royal Oak",,51.519,-0.188,0,,"N/A","Toby Lewis 2009"
"Royal Victoria",,51.509,0.018,0,,"N/A","Toby Lewis 2009"
"Ruislip",,51.571,-0.421,0,,"N/A","Toby Lewis 2009"
"Ruislip Gardens",,51.561,-0.411,0,,"N/A","Toby Lewis 2009"
"Ruislip Manor",,51.573,-0.413,0,,"N/A","Toby Lewis 2009"
"Russell Square",,51.523,-0.125,0,,"N/A","Toby Lewis 2009"
"Seven Sisters","SVS",51.583,-0.072,0,"N15 5LA","N/A","Toby Lewis 2009"
"Shadwell",,51.512,-0.056,0,,"N/A","Toby Lewis 2009"
"Shepherd's Bush (Central)",,51.505,-0.218,0,,"N/A","Toby Lewis 2009"
"Shepherd's Bush (Ham & City)",,51.505,-0.226,0,,"N/A","Toby Lewis 2009"
"Sloane Square",,51.492,-0.156,0,,"N/A","Toby Lewis 2009"
"Snaresbrook",,51.581,0.022,0,,"N/A","Toby Lewis 2009"
"South Ealing",,51.501,-0.307,0,,"N/A","Toby Lewis 2009"
"South Harrow",,51.565,-0.352,0,,"N/A","Toby Lewis 2009"
"South Kensington",,51.494,-0.174,0,,"N/A","Toby Lewis 2009"
"South Kenton","SOK",51.570,-0.308,0,"HA9 8RB","N/A","Toby Lewis 2009"
"South Quay",,51.501,-0.019,0,,"N/A","Toby Lewis 2009"
"South Ruislip","SRU",51.557,-0.399,0,"HA4 6TP","N/A","Toby Lewis 2009"
"South Wimbledon",,51.415,-0.192,0,,"N/A","Toby Lewis 2009"
"South Woodford",,51.592,0.027,0,,"N/A","Toby Lewis 2009"
"Southfields",,51.445,-0.207,0,,"N/A","Toby Lewis 2009"
"Southgate",,51.632,-0.128,0,,"N/A","Toby Lewis 2009"
"Southwark",,51.504,-0.105,0,,"N/A","Toby Lewis 2009"
"St James's Park",,51.500,-0.134,0,,"N/A","Toby Lewis 2009"
"St John's Wood",,51.534,-0.174,0,,"N/A","Toby Lewis 2009"
"St Paul's",,51.515,-0.097,0,,"N/A","Toby Lewis 2009"
"Stamford Brook",,51.495,-0.246,0,,"N/A","Toby Lewis 2009"
"Stanmore",,51.619,-0.303,0,,"N/A","Toby Lewis 2009"
"Stepney Green",,51.522,-0.047,0,,"N/A","Toby Lewis 2009"
"Stockwell",,51.472,-0.123,0,,"N/A","Toby Lewis 2009"
"Stonebridge Park","SBP",51.544,-0.276,0,"NW10 0RL","N/A","Toby Lewis 2009"
"Stratford",,51.541,-0.004,0,,"N/A","Toby Lewis 2009"
"Sudbury Hill",,51.557,-0.336,0,,"N/A","Toby Lewis 2009"
"Sudbury Town",,51.551,-0.315,0,,"N/A","Toby Lewis 2009"
"Surrey Quays",,51.493,-0.048,0,,"N/A","Toby Lewis 2009"
"Swiss Cottage",,51.543,-0.175,0,,"N/A","Toby Lewis 2009"
"Temple",,51.511,-0.114,0,,"N/A","Toby Lewis 2009"
"Theydon Bois",,51.672,0.103,0,,"N/A","Toby Lewis 2009"
"Tooting Bec",,51.436,-0.160,0,,"N/A","Toby Lewis 2009"
"Tooting Broadway",,51.428,-0.168,0,,"N/A","Toby Lewis 2009"
"Tottenham Court Road",,51.516,-0.131,0,,"N/A","Toby Lewis 2009"
"Tottenham Hale","TOM",51.588,-0.060,0,"N17 9LR","N/A","Toby Lewis 2009"
"Totteridge & Whetstone",,51.630,-0.179,0,,"N/A","Toby Lewis 2009"
"Tower Gateway",,51.511,-0.073,0,,"N/A","Toby Lewis 2009"
"Tower Hill",,51.510,-0.076,0,,"N/A","Toby Lewis 2009"
"Tufnell Park",,51.557,-0.138,0,,"N/A","Toby Lewis 2009"
"Turnham Green",,51.495,-0.255,0,,"N/A","Toby Lewis 2009"
"Turnpike Lane",,51.590,-0.103,0,,"N/A","Toby Lewis 2009"
"Upminster","UPM",51.559,0.250,0,"RM14 2TD","N/A","Toby Lewis 2009"
"Upminster Bridge",,51.559,0.236,0,,"N/A","Toby Lewis 2009"
"Upney",,51.538,0.102,0,,"N/A","Toby Lewis 2009"
"Upton Park",,51.535,0.035,0,,"N/A","Toby Lewis 2009"
"Uxbridge",,51.546,-0.479,0,,"N/A","Toby Lewis 2009"
"Vauxhall","VXH",51.486,-0.123,0,"SW8 1SS","N/A","Toby Lewis 2009"
"Victoria",,51.496,-0.145,0,,"N/A","Toby Lewis 2009"
"Walthamstow Central","WHC",51.583,-0.020,0,"E17 8AA","N/A","Toby Lewis 2009"
"Wanstead",,51.575,0.028,0,,"N/A","Toby Lewis 2009"
"Wapping",,51.504,-0.056,0,,"N/A","Toby Lewis 2009"
"Warren Street",,51.525,-0.138,0,,"N/A","Toby Lewis 2009"
"Warwick Avenue",,51.523,-0.184,0,,"N/A","Toby Lewis 2009"
"Waterloo",,51.504,-0.115,0,,"N/A","Toby Lewis 2009"
"Watford",,51.657,-0.417,0,,"N/A","Toby Lewis 2009"
"Wembley Central","WMB",51.552,-0.297,0,"HA9 7AJ","N/A","Toby Lewis 2009"
"Wembley Park",,51.563,-0.279,0,,"N/A","Toby Lewis 2009"
"West Acton",,51.518,-0.281,0,,"N/A","Toby Lewis 2009"
"West Brompton","WBP",51.487,-0.196,0,"SW5 9JX","N/A","Toby Lewis 2009"
"West Finchley",,51.610,-0.189,0,,"N/A","Toby Lewis 2009"
"West Ham","WEH",51.528,0.005,0,"E15 3BN","N/A","Toby Lewis 2009"
"West Hampstead","WHD",51.547,-0.191,0,"NW6 2LJ","N/A","Toby Lewis 2009"
"West Harrow",,51.579,-0.353,0,,"N/A","Toby Lewis 2009"
"West India Quay",,51.507,-0.020,0,,"N/A","Toby Lewis 2009"
"West Kensington",,51.491,-0.206,0,,"N/A","Toby Lewis 2009"
"West Ruislip","WRU",51.570,-0.437,0,"HA4 7DW","N/A","Toby Lewis 2009"
"West Silvertown",,51.503,0.022,0,,"N/A","Toby Lewis 2009"
"Westbourne Park",,51.521,-0.201,0,,"N/A","Toby Lewis 2009"
"Westferry",,51.510,-0.027,0,,"N/A","Toby Lewis 2009"
"Westminster",,51.501,-0.126,0,,"N/A","Toby Lewis 2009"
"White City",,51.512,-0.224,0,,"N/A","Toby Lewis 2009"
"Whitechapel",,51.519,-0.061,0,,"N/A","Toby Lewis 2009"
"Willesden Green",,51.549,-0.221,0,,"N/A","Toby Lewis 2009"
"Willesden Junction","WIJ",51.532,-0.245,0,"NW10 4UY","N/A","Toby Lewis 2009"
"Wimbledon","WIM",51.421,-0.207,0,"SW19 7NL","N/A","Toby Lewis 2009"
"Wimbledon Park",,51.435,-0.200,0,,"N/A","Toby Lewis 2009"
"Wood Green",,51.597,-0.109,0,,"N/A","Toby Lewis 2009"
"Woodford",,51.607,0.034,0,,"N/A","Toby Lewis 2009"
"Woodside Park",,51.617,-0.186,0,,"N/A","Toby Lewis 2009"
